{
"type": "FeatureCollection",
"name": "ports_meadow_single",
"crs": { "type": "name", "properties": { "name": "urn:ogc:def:crs:EPSG::27700" } },
"features": [
{ "type": "Feature", "properties": { "Area_ha": 169.03711599868535, "Shape_Length": 7422.8204526238578, "Shape_Area": 1690371.1599868536 }, "geometry": { "type": "Polygon", "coordinates": [ [ [ 449316.445101400720887, 209813.739642807864584 ], [ 449317.360981566132978, 209811.289482410240453 ], [ 449317.953874976083171, 209811.57037336617941 ], [ 449318.366170375666115, 209811.760367176728323 ], [ 449320.460347064246889, 209812.740035466849804 ], [ 449332.794731340254657, 209795.335279096616432 ], [ 449345.096219257568009, 209779.24009853368625 ], [ 449363.193803986301646, 209755.237327240873128 ], [ 449367.489427898311988, 209749.289109892968554 ], [ 449370.894565957016312, 209744.140583450032864 ], [ 449381.340882529621013, 209730.394771040126216 ], [ 449392.191190115408972, 209715.839070983987767 ], [ 449410.841166018508375, 209690.286749716091435 ], [ 449421.295692184939981, 209675.941183814778924 ], [ 449424.445239625987597, 209671.592455003526993 ], [ 449424.783334234438371, 209671.222560612950474 ], [ 449426.143712740100455, 209669.81298152677482 ], [ 449430.101346758019645, 209664.414669682679232 ], [ 449430.290938970516436, 209662.39521092112409 ], [ 449438.873858029313851, 209649.459148881200235 ], [ 449439.343848238873761, 209648.989357200742234 ], [ 449439.937435726053081, 209648.339568893134128 ], [ 449440.723419097135775, 209647.455284872790799 ], [ 449440.741318735526875, 209647.441685099329334 ], [ 449440.858416164468508, 209647.273888234631158 ], [ 449449.790121539263055, 209635.043615469010547 ], [ 449455.338900349626783, 209627.345958608784713 ], [ 449459.988997852313332, 209620.5379859743407 ], [ 449468.794504103891086, 209607.791923916374799 ], [ 449486.661211206519511, 209582.069703021494206 ], [ 449488.409072468057275, 209579.440552197629586 ], [ 449489.291252830647863, 209578.080977693898603 ], [ 449491.963793356320821, 209573.969354777189437 ], [ 449519.968271855846979, 209531.644945157691836 ], [ 449524.538170805200934, 209524.89717057015514 ], [ 449541.720490282808896, 209499.344945277262013 ], [ 449543.691046322404873, 209496.295902132580522 ], [ 449548.390542317007203, 209489.348030918976292 ], [ 449553.189135679567698, 209482.090165754838381 ], [ 449558.54001700115623, 209474.092614028137177 ], [ 449562.736723712936509, 209467.744531824660953 ], [ 449566.842632857325953, 209461.696443629160058 ], [ 449571.542229046171997, 209454.848469977965578 ], [ 449575.738836223259568, 209448.690383641282097 ], [ 449579.341856621904299, 209443.441980373987462 ], [ 449583.884755643433891, 209436.594107082113624 ], [ 449588.790447232138831, 209429.446238692558836 ], [ 449597.389855549670756, 209416.300282032345422 ], [ 449600.440487291256431, 209411.541570277360734 ], [ 449604.933987159689423, 209404.693796843464952 ], [ 449608.63590385572752, 209398.745607438089792 ], [ 449612.634714586543851, 209392.59752108930843 ], [ 449616.839521013724152, 209386.249338108871598 ], [ 449621.390719127259217, 209379.151569413661491 ], [ 449625.93361761450069, 209372.143698811938521 ], [ 449630.987804266274907, 209364.196045823802706 ], [ 449635.687399098009337, 209356.898380529310089 ], [ 449638.357039260561578, 209352.718357731122524 ], [ 449638.433037557580974, 209352.599759918870404 ], [ 449638.474236645968631, 209352.539561021549162 ], [ 449638.476536594971549, 209352.536161082971375 ], [ 449641.038279238797259, 209348.550834609253798 ], [ 449640.840381551359314, 209348.050945703464095 ], [ 449640.436383705411572, 209346.051588680362329 ], [ 449640.238484445319045, 209344.951912235061172 ], [ 449640.090084252355155, 209343.842235813906882 ], [ 449640.090080189111177, 209342.292767994047608 ], [ 449638.737896561797243, 209339.093739325064234 ], [ 449638.333900289959274, 209337.6941698534647 ], [ 449637.088911293889396, 209333.195567800779827 ], [ 449635.786222832393833, 209328.496970125532243 ], [ 449634.087737691239454, 209322.298905054514762 ], [ 449632.883948995324317, 209318.200194586999714 ], [ 449631.638959221541882, 209313.401598826574627 ], [ 449630.534166463126894, 209308.443205884308554 ], [ 449629.486973070190288, 209303.644609424984083 ], [ 449628.489380472921766, 209299.495899288915098 ], [ 449627.837983761914074, 209296.196970232354943 ], [ 449626.889887379307766, 209290.948582784389146 ], [ 449625.735493336920626, 209285.150307533855084 ], [ 449624.886298288707621, 209281.101594816078432 ], [ 449624.23490289109759, 209278.302455395751167 ], [ 449623.336210847133771, 209275.053426247439347 ], [ 449621.736726644216105, 209269.895039387687575 ], [ 449620.384538200625684, 209264.846549345471431 ], [ 449619.189047541760374, 209260.048053542093839 ], [ 449617.737859215412755, 209254.349777407071088 ], [ 449616.888665747886989, 209250.900852280436084 ], [ 449615.783874480053782, 209246.502247856988106 ], [ 449614.73668189602904, 209242.003645314252935 ], [ 449613.936985273379833, 209237.694937908730935 ], [ 449613.78858616220532, 209236.99515301611973 ], [ 449613.038288661278784, 209232.696445226145443 ], [ 449611.933393999468535, 209226.998267876333557 ], [ 449611.686094738601241, 209225.548698954982683 ], [ 449610.935798156657256, 209221.599883908696938 ], [ 449610.086502999009099, 209217.501172353571746 ], [ 449608.190211863722652, 209207.604185378761031 ], [ 449607.233717603725381, 209203.095582786481827 ], [ 449605.09003297687741, 209193.948381205496844 ], [ 449604.240838872792665, 209190.249561387870926 ], [ 449603.539944402640685, 209187.450422288966365 ], [ 449602.484654341358691, 209183.851501187891699 ], [ 449600.786170717910863, 209178.203225186560303 ], [ 449597.834498946729582, 209168.296342625340912 ], [ 449596.037017018767074, 209162.598068104649428 ], [ 449594.635430051886942, 209157.749574401415884 ], [ 449593.489340753294528, 209153.800761002057698 ], [ 449592.483448621933348, 209149.75204915588256 ], [ 449591.090058635687456, 209143.803878359554801 ], [ 449589.836866079596803, 209137.855707044887822 ], [ 449588.583574678166769, 209132.347426586144138 ], [ 449587.53648108971538, 209127.448932644387241 ], [ 449586.134791135787964, 209121.450762991677038 ], [ 449585.23609691724414, 209117.352051845111419 ], [ 449584.386904273298569, 209114.203020730405115 ], [ 449583.13361669681035, 209110.154209929751232 ], [ 449581.534134301240556, 209105.65560985886259 ], [ 449571.93691711948486, 209069.906592334969901 ], [ 449570.535329021629877, 209064.608308285998646 ], [ 449569.339740118943155, 209060.449499689682852 ], [ 449568.589446590165608, 209057.650361003587022 ], [ 449569.08413319644751, 209056.000893448712304 ], [ 449569.488121599366423, 209054.401425209071022 ], [ 449569.785014188557398, 209053.651639672229066 ], [ 449571.334980235784315, 209051.552277338225394 ], [ 449573.585831579053774, 209048.753126821306068 ], [ 449574.237217655871063, 209048.003339881775901 ], [ 449574.938002824026626, 209047.253552748996299 ], [ 449575.688287343946286, 209046.603763332532253 ], [ 449577.988641823059879, 209045.354180300084408 ], [ 449580.783687606512103, 209044.254492185427807 ], [ 449585.590394865663256, 209042.555008616647683 ], [ 449598.139151920506265, 209037.80635792191606 ], [ 449604.933020568219945, 209035.307083067018539 ], [ 449608.733847338880878, 209034.00749506696593 ], [ 449613.837448601960205, 209032.108114372822456 ], [ 449618.182564319460653, 209030.408532509463839 ], [ 449619.633636219310574, 209029.858738191018347 ], [ 449621.08470796153415, 209029.248945119499695 ], [ 449622.337982970115263, 209028.499155740777496 ], [ 449623.483959818491712, 209027.699367826397065 ], [ 449625.034012857649941, 209020.651508195966017 ], [ 449624.786712944682222, 209018.95204450719757 ], [ 449623.632426550902892, 209016.053009366733022 ], [ 449622.23894298216328, 209012.554087662952952 ], [ 449620.886858128593303, 209008.855169960006606 ], [ 449620.284965257509612, 209007.355603542469908 ], [ 449619.790270286321174, 209005.806137734907679 ], [ 449619.485172224289272, 209004.406568058009725 ], [ 449619.33677128207637, 209003.00699775305111 ], [ 449619.386263557884376, 209000.407751609804109 ], [ 449619.320262019347865, 208999.358073698065709 ], [ 449620.383830154314637, 208994.659567154070828 ], [ 449621.488599075993989, 208990.550848163082264 ], [ 449622.288372579670977, 208986.052138497820124 ], [ 449622.486258456134237, 208982.053420846234076 ], [ 449622.585149821534287, 208979.454174492682796 ], [ 449622.58514300553361, 208976.855028533085715 ], [ 449622.288340596598573, 208973.855892089079134 ], [ 449621.983232834900264, 208968.757499323342927 ], [ 449621.28242052544374, 208959.150401918101124 ], [ 449620.985609466850292, 208952.852334081602748 ], [ 449620.985591640230268, 208946.054475438548252 ], [ 449620.482583586650435, 208939.456514684774447 ], [ 449619.88898034702288, 208934.058129356999416 ], [ 449619.682880205160473, 208932.558661378454417 ], [ 449617.984385727380868, 208922.751672259473708 ], [ 449617.382484478177503, 208918.05307244026335 ], [ 449616.986679176858161, 208913.254573861369863 ], [ 449616.88776605471503, 208907.556292789056897 ], [ 449617.184545392112341, 208901.758112170326058 ], [ 449617.786415444978047, 208894.560259404766839 ], [ 449618.487188368337229, 208889.151969003374688 ], [ 449620.985381303529721, 208865.859043099801056 ], [ 449621.686148474924266, 208858.261398186441511 ], [ 449622.288023995177355, 208853.153001911588944 ], [ 449623.186695125710685, 208848.454395874287002 ], [ 449624.588348338962533, 208840.456856319040526 ], [ 449625.981700912408996, 208832.159423015196808 ], [ 449627.482252294546925, 208824.161882998247165 ], [ 449628.488120889698621, 208819.253380818408914 ], [ 449629.988678824855015, 208813.755088812671602 ], [ 449630.986342867603526, 208807.057123837003019 ], [ 449631.78600871632807, 208799.65937423001742 ], [ 449632.585777447966393, 208793.361301752971485 ], [ 449633.385544076096267, 208786.263445889460854 ], [ 449633.987414058938157, 208779.05569313414162 ], [ 449635.182864230300765, 208764.959952845645603 ], [ 449635.487947825342417, 208758.96176100539742 ], [ 449635.586835579364561, 208753.163566396280658 ], [ 449635.182835284620523, 208748.854846742877271 ], [ 449634.984934443724342, 208746.35569318785565 ], [ 449634.886031596921384, 208743.75644104037201 ], [ 449634.886029441375285, 208742.556762934895232 ], [ 449635.08382363623241, 208741.357183982850984 ], [ 449635.388916030409746, 208740.257502758235205 ], [ 449635.982603277370799, 208739.25781848031329 ], [ 449634.589127197628841, 208738.25814263173379 ], [ 449633.789440340653528, 208737.358362445200328 ], [ 449632.783557471935637, 208736.558681301481556 ], [ 449631.184785548481159, 208735.759402663912624 ], [ 449630.186402723134961, 208735.059119673911482 ], [ 449629.18871881312225, 208733.75954761065077 ], [ 449627.787142005981877, 208732.25998090847861 ], [ 449626.467964092909824, 208730.990409659454599 ], [ 449623.483214513398707, 208728.361170256219339 ], [ 449619.789577743620612, 208725.56203694496071 ], [ 449615.287855393311474, 208722.463012503518257 ], [ 449611.48692101042252, 208719.863775967853144 ], [ 449607.68598612054484, 208716.964744883880485 ], [ 449603.786152361077257, 208713.655721670598723 ], [ 449601.782586054410785, 208711.756364746426698 ], [ 449594.288012524193618, 208704.858422058459837 ], [ 449591.789754360041115, 208702.359278120216914 ], [ 449588.087816907442175, 208698.960255632875487 ], [ 449584.187982972478494, 208695.461335781321395 ], [ 449580.486046272097155, 208692.462305973400362 ], [ 449574.986640970106237, 208688.363603729929309 ], [ 449572.290587086055893, 208686.16425509902183 ], [ 449567.582667376031168, 208682.16544766293373 ], [ 449562.990245380147826, 208678.056741713488009 ], [ 449559.58510384010151, 208675.357605111028533 ], [ 449555.685271828609984, 208672.858366935339291 ], [ 449551.183549973648041, 208669.759342176665086 ], [ 449547.58881167677464, 208666.860209964506794 ], [ 449543.688878046697937, 208663.361289916792884 ], [ 449540.588829783140682, 208659.962364683218766 ], [ 449536.383900523476768, 208655.66366040793946 ], [ 449533.58884749643039, 208652.764524780795909 ], [ 449529.985908976872452, 208649.565597967884969 ], [ 449526.687865326763131, 208646.666464418172836 ], [ 449523.291021847166121, 208642.757649603998289 ], [ 449520.487668226705864, 208639.35872303287033 ], [ 449519.391086591233034, 208638.159049394540489 ], [ 449518.286304945009761, 208636.859477603225969 ], [ 449517.387619474437088, 208635.559904948051553 ], [ 449516.884726654447149, 208634.260230642859824 ], [ 449516.488931848434731, 208632.960655892617069 ], [ 449516.29103419627063, 208632.160871235944796 ], [ 449516.183835025236476, 208631.461084392678458 ], [ 449516.291031706670765, 208630.661398467433173 ], [ 449516.587824864545837, 208629.861611751781311 ], [ 449517.189712520048488, 208629.161821953079198 ], [ 449517.783400659216568, 208628.661928556102794 ], [ 449523.686681136197876, 208622.763711105450056 ], [ 449526.786818165739533, 208619.56475632020738 ], [ 449530.884535283781588, 208615.56591193942586 ], [ 449536.886814230063464, 208609.95758892619051 ], [ 449551.785313637345098, 208596.1617779636872 ], [ 449555.990228534443304, 208592.162933283369057 ], [ 449561.98420733155217, 208586.564610332425218 ], [ 449567.887587739387527, 208580.966287807095796 ], [ 449571.688509502972011, 208576.667550349666271 ], [ 449574.986441798217129, 208573.058702429349069 ], [ 449578.482271605054848, 208570.159540795430075 ], [ 449581.887403599976096, 208567.560274091083556 ], [ 449588.689466811076272, 208561.862049856921658 ], [ 449593.685866779007483, 208557.963200323458295 ], [ 449601.889502267702483, 208551.465085009636823 ], [ 449604.989639991021249, 208548.96591782674659 ], [ 449610.785823991871439, 208544.567174222203903 ], [ 449618.082478108932264, 208539.158842920209281 ], [ 449622.485289619769901, 208535.659888694877736 ], [ 449628.281472549773753, 208530.761354324815329 ], [ 449632.082296486536507, 208527.962189850746654 ], [ 449637.985678385535721, 208523.663444164383691 ], [ 449642.2812926445622, 208520.66438135842327 ], [ 449644.886640482582152, 208518.764905399468262 ], [ 449648.184573541162536, 208515.865744868759066 ], [ 449651.581504906876944, 208513.066582123050466 ], [ 449655.08563460840378, 208510.467415304272436 ], [ 449656.685101944138296, 208508.967836175055709 ], [ 449658.688660069718026, 208506.568571830983274 ], [ 449664.18794613488717, 208500.560359194583725 ], [ 449669.481136187387165, 208494.662145434995182 ], [ 449675.681307881546672, 208488.064140830887482 ], [ 449678.080557753855828, 208485.264982257038355 ], [ 449680.686002820846625, 208481.965931996121071 ], [ 449687.982748024514876, 208472.268879727984313 ], [ 449689.285420226631686, 208470.459407544170972 ], [ 449693.086339052882977, 208465.160989068739582 ], [ 449697.183951330371201, 208459.362778568116482 ], [ 449699.987291598401498, 208455.563936746562831 ], [ 449703.582015853840858, 208451.165302725799847 ], [ 449706.879945462511387, 208446.666571751702577 ], [ 449710.581965373770799, 208441.06825929909246 ], [ 449714.885773339483421, 208435.160050130507443 ], [ 449718.282698890252504, 208429.56173896510154 ], [ 449722.784403041878249, 208423.663528892328031 ], [ 449725.579343622666784, 208420.064683589618653 ], [ 449727.879693110880908, 208416.265743940079119 ], [ 449729.685352464905009, 208412.766800790850539 ], [ 449730.485033983248286, 208410.967430545191746 ], [ 449731.383813823049422, 208409.267858077713754 ], [ 449733.881961247941945, 208406.368801195116248 ], [ 449737.278891531866975, 208403.369642571371514 ], [ 449740.585024460160639, 208400.870475161878858 ], [ 449745.284628786554094, 208397.161524382303469 ], [ 449749.085551957250573, 208394.462358700868208 ], [ 449751.682698955875821, 208392.362986833613832 ], [ 449753.686257133085746, 208390.263617335585877 ], [ 449756.085506294853985, 208387.364460934186354 ], [ 449758.385756339994259, 208383.965514095092658 ], [ 449760.282113794353791, 208380.466570707212668 ], [ 449761.980574581364635, 208376.767731777101289 ], [ 449763.786233135149814, 208372.968794267333578 ], [ 449765.484596612513997, 208370.669529694365337 ], [ 449769.87919786432758, 208362.561960968247149 ], [ 449771.379763872653712, 208359.662808200577274 ], [ 449773.779009184392635, 208354.86428673035698 ], [ 449775.98035957897082, 208350.765553219302092 ], [ 449777.184132916503586, 208348.766185144952033 ], [ 449779.781272859603632, 208343.167877605475951 ], [ 449781.578631229000166, 208339.269042053143494 ], [ 449783.285291102307383, 208335.270208705915138 ], [ 449783.977873486583121, 208332.970948170986958 ], [ 449787.382992914295755, 208324.763385397673119 ], [ 449788.281670983473305, 208322.264227733074222 ], [ 449789.48543854575837, 208317.365712912345771 ], [ 449790.483108619344421, 208311.767411751032341 ], [ 449791.678576706850436, 208307.068793310783803 ], [ 449793.179136236198246, 208300.970599372754805 ], [ 449795.182584607915487, 208294.062718346889596 ], [ 449796.180256399267819, 208289.364200707757846 ], [ 449796.881033022655174, 208284.265691573033109 ], [ 449797.680803606286645, 208277.067920599482022 ], [ 449798.480577145062853, 208271.369622101308778 ], [ 449799.68424082302954, 208264.571742230793461 ], [ 449801.481687824940309, 208255.064609812223352 ], [ 449802.982245414576028, 208248.066732493927702 ], [ 449803.68302177003352, 208242.868325234565418 ], [ 449803.979810765362345, 208240.169173651083838 ], [ 449804.482795835589059, 208237.469921275041997 ], [ 449805.678265735274181, 208233.771084578882437 ], [ 449807.384922115423251, 208228.172780807013623 ], [ 449810.58394564606715, 208220.365111873310525 ], [ 449817.179890804633033, 208205.769554621307179 ], [ 449819.183343798504211, 208201.370927744137589 ], [ 449820.881801989977248, 208196.672307561384514 ], [ 449821.97837565781083, 208193.973152956634294 ], [ 449823.083149363053963, 208191.373896485078149 ], [ 449825.680291545926593, 208187.265162053576205 ], [ 449828.277432717790361, 208182.666536636010278 ], [ 449831.179665819741786, 208176.968230284808669 ], [ 449834.980575655761641, 208168.270875669666566 ], [ 449837.181923277676105, 208163.172461017384194 ], [ 449839.482267766899895, 208157.4741570345941 ], [ 449842.079405718075577, 208151.366059480176773 ], [ 449845.179434436606243, 208145.467856178467628 ], [ 449850.777709586312994, 208136.770494928874541 ], [ 449852.080379346327391, 208134.171237810864113 ], [ 449853.078052287106402, 208130.272405760595575 ], [ 449853.67993525066413, 208127.573253140551969 ], [ 449854.380716111394577, 208124.774101989169139 ], [ 449856.178072052600328, 208120.065481829806231 ], [ 449858.88241040322464, 208115.266959918430075 ], [ 449867.283920563175343, 208101.27118585142307 ], [ 449869.881062911415938, 208097.472346018068492 ], [ 449873.58298093569465, 208092.173929654760286 ], [ 449876.575915835390333, 208088.475086528109387 ], [ 449879.478050985373557, 208084.066356831870507 ], [ 449881.976295750704594, 208080.567411910335068 ], [ 449885.777213804831263, 208076.268776858516503 ], [ 449888.976244845835026, 208072.669831188744865 ], [ 449891.276493763551116, 208069.370783368533012 ], [ 449893.675738257938065, 208064.872157295816578 ], [ 449895.679290965315886, 208060.673427185742185 ], [ 449897.575646551151294, 208056.874590118706692 ], [ 449900.576780025148764, 208052.675856320362072 ], [ 449903.281018116511405, 208047.967333035252523 ], [ 449906.076054450881202, 208043.26870925485855 ], [ 449909.176185931486543, 208039.069975144986529 ], [ 449913.875681935925968, 208032.671975672477856 ], [ 449918.880371566920076, 208026.073878803581465 ], [ 449923.777864036906976, 208019.875775005668402 ], [ 449928.37846341682598, 208014.267461464798544 ], [ 449940.976688569178805, 207999.371989886916708 ], [ 449943.079042204888538, 207996.672831972769927 ], [ 449951.579557866672985, 207987.275574226048775 ], [ 449954.679590656538494, 207983.876625612552743 ], [ 449956.180257133266423, 207981.777258877293207 ], [ 449958.480506185849663, 207978.76820602157386 ], [ 449963.377999409276526, 207973.169891493627802 ], [ 449970.674741821945645, 207965.572205181175377 ], [ 449974.673454679083079, 207961.073473709286191 ], [ 449976.67701155616669, 207959.07410335005261 ], [ 449978.375475418462884, 207957.574524866591673 ], [ 449984.27874783182051, 207951.476416075311136 ], [ 449986.381201435578987, 207948.877156475558877 ], [ 449987.576674781681504, 207947.277681696403306 ], [ 449989.976020400295965, 207943.668739702145103 ], [ 449993.974728001805488, 207936.870850891806185 ], [ 449998.773219155962579, 207929.672966615762562 ], [ 450005.82265751180239, 207918.376450083684176 ], [ 450007.925109200878069, 207914.977405378362164 ], [ 450012.080515132867731, 207908.919302481575869 ], [ 450019.476153442461509, 207900.771726613398641 ], [ 450021.97429545619525, 207896.522996278246865 ], [ 450022.774077245383523, 207895.323415609891526 ], [ 450022.823576060531195, 207895.223417283210438 ], [ 450022.922473915969022, 207895.123418778763153 ], [ 450022.980172572890297, 207895.023520420480054 ], [ 450023.079170426179189, 207894.923521915392485 ], [ 450023.128569243359379, 207894.82352358935168 ], [ 450023.227567097521387, 207894.723525083565619 ], [ 450023.524360774317756, 207894.473628642212134 ], [ 450024.728135604294948, 207893.673839118448086 ], [ 450029.279341708752327, 207891.224568094010465 ], [ 450033.327558121934999, 207889.025294261693489 ], [ 450040.129619195533451, 207886.026125367614441 ], [ 450041.926980996795464, 207884.576545766729396 ], [ 450051.029288688965607, 207877.7786390731344 ], [ 450052.925647035590373, 207875.669271374936216 ], [ 450053.972723839920945, 207874.419590790639631 ], [ 450054.929102406196762, 207873.170010528818239 ], [ 450056.47916749183787, 207871.070643897634 ], [ 450056.677062848117203, 207870.72074967622757 ], [ 450057.171751635731198, 207870.020960880152415 ], [ 450057.427345983334817, 207869.721065523684956 ], [ 450057.674740375601687, 207869.371171125967521 ], [ 450058.07873092655791, 207868.671382653410546 ], [ 450060.329574971983675, 207863.32297377998475 ], [ 450062.176420370640699, 207855.125519200460985 ], [ 450062.877199196722358, 207852.156374304322526 ], [ 450063.50378146301955, 207850.217011715169065 ], [ 450063.701675100543071, 207849.337228994467296 ], [ 450063.907769832585473, 207848.897437250998337 ], [ 450064.023266984557267, 207848.687441130750813 ], [ 450064.18816286069341, 207848.367547082772944 ], [ 450064.311759882955812, 207848.167650732037146 ], [ 450064.377758426941, 207848.107651722675655 ], [ 450064.427257348492276, 207848.067652362107765 ], [ 450064.476656300481409, 207848.037652801896911 ], [ 450064.526155222090892, 207847.997653442027513 ], [ 450064.583854013471864, 207847.967653850617353 ], [ 450064.63335299177561, 207847.94765408715466 ], [ 450064.69925162254367, 207847.917654462449718 ], [ 450064.757050439133309, 207847.897654666448943 ], [ 450064.872448134701699, 207847.877654666488525 ], [ 450065.012645347393118, 207847.857754574739374 ], [ 450069.349455224408302, 207845.878279619908426 ], [ 450071.707405699882656, 207844.618696985417046 ], [ 450075.104333396360744, 207842.469328839797527 ], [ 450076.423503277415875, 207840.919855817919597 ], [ 450076.571899816626683, 207840.719959376496263 ], [ 450076.728596336324699, 207840.569961882545613 ], [ 450076.876992875302676, 207840.37006544257747 ], [ 450077.272783168475144, 207839.670278335863259 ], [ 450077.627274265279993, 207838.970491377171129 ], [ 450078.427053550025448, 207837.171025305986404 ], [ 450079.276231871859636, 207835.371559061284643 ], [ 450079.622523128869943, 207834.671772131579928 ], [ 450080.026513261313085, 207833.971984995878302 ], [ 450080.174909513792954, 207833.672090593841858 ], [ 450080.372804802493192, 207833.372196019743569 ], [ 450080.521201055846177, 207833.072301621257793 ], [ 450080.72739618254127, 207832.772407018113881 ], [ 450081.320982478442602, 207832.022620230156463 ], [ 450081.724972895812243, 207831.422831049421802 ], [ 450085.121897439355962, 207828.173785363847855 ], [ 450085.77318403677782, 207827.923888152872678 ], [ 450086.474069667048752, 207827.673890770296566 ], [ 450087.125356406962965, 207827.473992538230959 ], [ 450089.128915943671018, 207826.973995631211437 ], [ 450089.326812088023871, 207826.973994928121101 ], [ 450089.574107127264142, 207826.924095070804469 ], [ 450089.772003129008226, 207826.874195383396 ], [ 450090.777883530361578, 207826.874191807757597 ], [ 450091.322073070623446, 207826.924088853411376 ], [ 450091.874462594219949, 207827.024084843520541 ], [ 450097.97564743552357, 207828.323636599816382 ], [ 450099.575217414065264, 207828.723522741522174 ], [ 450100.424401441065129, 207828.923515636590309 ], [ 450102.823655696469359, 207829.273399957281072 ], [ 450103.524542327213567, 207829.373295424564276 ], [ 450105.025113663519733, 207829.573286004306283 ], [ 450105.775399188336451, 207829.623282315966208 ], [ 450106.674081823206507, 207829.673278097296134 ], [ 450107.622163494233973, 207829.723173710575793 ], [ 450109.823620318435133, 207829.623267925519031 ], [ 450112.57736638066126, 207829.523160178621765 ], [ 450114.523228470468894, 207829.52315325953532 ], [ 450115.273513709602412, 207829.473251614428591 ], [ 450117.623267929884605, 207829.473243260115851 ], [ 450120.327616100083105, 207829.773127519991249 ], [ 450123.922347639338113, 207830.323003508732654 ], [ 450127.121386887971312, 207830.872780907549895 ], [ 450130.221527921617962, 207831.372659677581396 ], [ 450134.921039084903896, 207832.322323575033806 ], [ 450139.027061526372563, 207833.171991627488751 ], [ 450140.577132187550887, 207833.471979992988054 ], [ 450142.077703812974505, 207833.771868535201065 ], [ 450142.374498317134567, 207833.87176543980604 ], [ 450142.72079171432415, 207833.921763185993768 ], [ 450143.025785915437154, 207833.971761082299054 ], [ 450144.823251327965409, 207834.121751630969811 ], [ 450148.170686831173953, 207834.371634629904293 ], [ 450152.177709914685693, 207834.771512226841878 ], [ 450156.770021596283186, 207835.171387740701903 ], [ 450163.671089162526187, 207835.871148929873016 ], [ 450169.475477808853611, 207836.470916059101 ], [ 450175.469563047401607, 207837.170680476236157 ], [ 450176.821637138433289, 207837.320672610250767 ], [ 450179.171492653491441, 207837.770455076824874 ], [ 450186.220859350869432, 207839.170001461636275 ], [ 450191.324462805292569, 207840.169662921165582 ], [ 450193.171327834483236, 207840.519549218763132 ], [ 450195.075891596323345, 207840.819536330236588 ], [ 450197.475145864998922, 207841.169420665828511 ], [ 450198.720122188155074, 207841.369312162918504 ], [ 450200.624685950344428, 207841.669199277705047 ], [ 450204.376114484854043, 207842.229074525763281 ], [ 450208.069843970122747, 207842.728751208574977 ], [ 450212.324262966983952, 207843.378622832649853 ], [ 450212.90965176577447, 207843.448619328381028 ], [ 450215.47380262351362, 207843.728504509490449 ], [ 450216.322986514191143, 207843.878498432051856 ], [ 450217.172270114650019, 207843.92849439533893 ], [ 450218.070952896378003, 207844.028389167331625 ], [ 450218.623342136503197, 207844.028387204627506 ], [ 450218.77173939027125, 207844.078385655302554 ], [ 450218.969635535322595, 207844.07838495291071 ], [ 450219.175731376686599, 207844.028385243320372 ], [ 450219.571523666905705, 207844.028383838536683 ], [ 450219.670421596267261, 207843.978484504506923 ], [ 450219.868317741318606, 207843.978483802813571 ], [ 450220.074413438618649, 207843.878485111461487 ], [ 450220.27230943943141, 207843.828385429922491 ], [ 450220.676300994120538, 207843.628588076098822 ], [ 450220.824697814474348, 207843.528589589404874 ], [ 450220.973094491870143, 207843.378592120949179 ], [ 450221.170989196340088, 207842.878801620157901 ], [ 450221.269985539314803, 207842.278913514688611 ], [ 450221.368882171809673, 207841.7791233608732 ], [ 450221.476078470237553, 207841.219234411313664 ], [ 450221.67397173383506, 207840.219554112642072 ], [ 450221.723369186569471, 207839.669765161233954 ], [ 450221.772866781218909, 207839.169875186285935 ], [ 450221.77286519651534, 207838.620086405484471 ], [ 450222.424238473118749, 207833.751583461533301 ], [ 450222.523129024193622, 207831.142236368556041 ], [ 450223.240394560387358, 207824.034578891296405 ], [ 450223.265193183498923, 207823.724685125111137 ], [ 450224.922327748499811, 207812.228113879391458 ], [ 450230.973984606564045, 207768.821478237689007 ], [ 450236.621655309456401, 207727.524100894457661 ], [ 450240.125606410671026, 207699.622657763713505 ], [ 450248.419845374068245, 207630.673735033837147 ], [ 450249.31850601680344, 207623.126085817522835 ], [ 450251.371401351003442, 207600.782834357116371 ], [ 450256.870516383904032, 207539.38166740257293 ], [ 450261.017577354272362, 207484.778466508258134 ], [ 450262.872568317514379, 207459.636172763712239 ], [ 450264.274179239117075, 207438.332702326588333 ], [ 450265.568593543488532, 207417.479023086256348 ], [ 450266.071465034969151, 207411.031052808917593 ], [ 450266.417739444295876, 207404.532984124554787 ], [ 450266.417739010183141, 207404.383087183174212 ], [ 450266.467237607226707, 207404.233090062392876 ], [ 450266.467236594005954, 207403.883197201183066 ], [ 450266.51673519203905, 207403.733300079940818 ], [ 450266.516733165772166, 207403.033514354669023 ], [ 450266.467233699338976, 207402.883517594949808 ], [ 450266.467233120638411, 207402.683621672564186 ], [ 450266.417733799957205, 207402.583623893908225 ], [ 450266.417733221198432, 207402.383727970067412 ], [ 450266.368333898310084, 207402.283730192109942 ], [ 450266.219835790863726, 207401.933837867632974 ], [ 450265.824141941673588, 207401.383950523857493 ], [ 450265.469547723827418, 207400.984159964194987 ], [ 450265.568535365804564, 207397.385233028093353 ], [ 450265.76643120351946, 207397.28523435088573 ], [ 450265.923027994576842, 207397.235234802705236 ], [ 450266.022025767422747, 207397.135336480569094 ], [ 450266.120923687762115, 207397.085337142692879 ], [ 450266.623912396607921, 207396.585445517266635 ], [ 450266.722810027655214, 207396.435548217617907 ], [ 450266.821707802242599, 207396.335549897281453 ], [ 450266.871206398995128, 207396.185552778595593 ], [ 450267.06910165771842, 207395.885558178066276 ], [ 450267.374193082447164, 207394.985975424642675 ], [ 450269.171454077004455, 207359.136900252080522 ], [ 450269.171452774258796, 207358.6871094283415 ], [ 450269.121953453694005, 207358.587011650146451 ], [ 450269.072453988890629, 207358.437114887870848 ], [ 450270.416370887658559, 207338.833209929754958 ], [ 450270.416366543387994, 207337.333640523487702 ], [ 450270.523556191008538, 207334.484498254721984 ], [ 450270.523552281199954, 207333.134925790131092 ], [ 450270.474049484997522, 207331.835352480062284 ], [ 450270.416346705111209, 207330.485680223384406 ], [ 450270.416342940181494, 207329.186106735549401 ], [ 450270.556435042002704, 207327.406642526446376 ], [ 450270.721325671882369, 207325.287285162310582 ], [ 450270.968715179886203, 207323.337924031715374 ], [ 450272.221870765904896, 207316.480059368885122 ], [ 450273.565825323632453, 207309.881989072426222 ], [ 450273.771917810605373, 207308.682412794732954 ], [ 450274.01930948800873, 207307.482736366626341 ], [ 450274.217202135303523, 207306.283160113671329 ], [ 450274.217201700608712, 207306.133163176302332 ], [ 450274.266600442992058, 207306.033165036526043 ], [ 450274.2666000087047, 207305.883268095145468 ], [ 450274.316098749055527, 207305.783269953972194 ], [ 450274.373797185136937, 207305.633372800890356 ], [ 450274.118198279640637, 207304.283701266394928 ], [ 450274.068698960007168, 207304.18380348518258 ], [ 450273.969800463004503, 207304.033806903928053 ], [ 450273.771904049674049, 207303.9338096647989 ], [ 450273.623506666568574, 207303.833912241156213 ], [ 450273.417410413909238, 207303.733915033168159 ], [ 450273.120616083149798, 207303.683917136862874 ], [ 450272.766022883937694, 207303.633919446612708 ], [ 450272.469228553120047, 207303.583921548211947 ], [ 450270.770761534222402, 207303.484029774088413 ], [ 450265.823859159776475, 207303.733942701015621 ], [ 450259.969974552572239, 207303.983858933032025 ], [ 450257.966414088034071, 207304.083764195558615 ], [ 450255.971153606951702, 207304.233868403534871 ], [ 450255.418764426896814, 207304.233870415075216 ], [ 450255.220868447737303, 207304.283770118781831 ], [ 450254.668479267740622, 207304.28377213247586 ], [ 450254.470583289803471, 207304.333771832170896 ], [ 450254.322186341218185, 207304.383771353401244 ], [ 450254.116090522904415, 207304.433771087089553 ], [ 450253.86869551386917, 207304.483770963794086 ], [ 450253.571901616407558, 207304.583770006371196 ], [ 450253.316307056928053, 207304.733667880238499 ], [ 450253.069012190564536, 207304.83366673940327 ], [ 450252.574322748754639, 207305.13356242509326 ], [ 450246.217449582298286, 207305.933369266451336 ], [ 450246.168052283930592, 207306.533157210913487 ], [ 450244.716891117510386, 207310.132089062361047 ], [ 450243.768711714074016, 207310.831878237251658 ], [ 450242.820532164536417, 207311.481668430438731 ], [ 450241.616858053952456, 207312.281456497090403 ], [ 450240.37188475090079, 207313.081144712865353 ], [ 450239.118611465848517, 207313.830933979013935 ], [ 450236.917258339526597, 207315.130515476281289 ], [ 450234.616906717303209, 207316.280200396140572 ], [ 450233.973820179526228, 207316.580096620018594 ], [ 450233.322433659224771, 207316.830093887168914 ], [ 450232.621648107015062, 207317.079991339589469 ], [ 450231.970361585146748, 207317.329888612846844 ], [ 450231.269475890905596, 207317.529887082404457 ], [ 450230.618189253262244, 207317.739785174257122 ], [ 450229.917303413327318, 207317.88978466775734 ], [ 450229.373214358813129, 207317.989684607076924 ], [ 450228.820725323981605, 207318.03968559828354 ], [ 450228.268336432229262, 207318.13968556834152 ], [ 450227.724247232545167, 207318.189686531201005 ], [ 450227.221257228695322, 207318.239687342545949 ], [ 450224.269615038763732, 207318.239698091521859 ], [ 450223.667726682499051, 207318.189701302617323 ], [ 450222.47214952117065, 207317.989709739398677 ], [ 450221.91976005223114, 207317.889813792018685 ], [ 450221.474568338599056, 207317.739818473230116 ], [ 450221.021076902281493, 207317.629822367744055 ], [ 450220.567585351644084, 207317.479927082487848 ], [ 450220.320289906580001, 207317.37993002391886 ], [ 450220.122393349418417, 207317.229933804483153 ], [ 450219.924496937077492, 207317.130036564893089 ], [ 450219.718400540528819, 207316.980040375899989 ], [ 450219.520504127664026, 207316.88004313892452 ], [ 450219.124711014039349, 207316.580150699592195 ], [ 450218.918614762136713, 207316.480253488349263 ], [ 450218.720718205149751, 207316.33025727031054 ], [ 450217.418041410972364, 207315.530478339700494 ], [ 450216.22256237413967, 207314.680800035304856 ], [ 450215.769070535199717, 207314.430806789139751 ], [ 450215.373377708136104, 207314.230912311177235 ], [ 450214.969284901919309, 207313.981018881953787 ], [ 450214.573592219152488, 207313.831023384002037 ], [ 450214.218998731696047, 207313.681127736228518 ], [ 450213.518211880815215, 207313.481134371715598 ], [ 450213.122419344435912, 207313.381137854827102 ], [ 450212.767925999010913, 207313.281141185667366 ], [ 450212.372133462922648, 207313.181244666920975 ], [ 450212.01764026255114, 207313.131246979522984 ], [ 450211.621847725997213, 207313.031150463037193 ], [ 450210.921060875989497, 207312.831357096263673 ], [ 450207.474725061911158, 207311.68169311771635 ], [ 450206.320446373953018, 207311.23190650268225 ], [ 450205.174367236031685, 207310.68202190194279 ], [ 450202.82460936991265, 207309.332458011165727 ], [ 450201.167338805389591, 207308.282785477058496 ], [ 450199.468868904514238, 207307.183114112063777 ], [ 450198.718581872526556, 207306.583329091838095 ], [ 450198.017793870996684, 207305.983543888200074 ], [ 450197.267506838135887, 207305.383658868377097 ], [ 450196.574918676458765, 207304.783873635751661 ], [ 450195.321740054758266, 207303.684200650022831 ], [ 450194.051961672725156, 207302.55452833767049 ], [ 450199.51832326350268, 207291.687930226617027 ], [ 450189.772804109321442, 207288.189037196803838 ], [ 450189.368811591994017, 207288.039041732845362 ], [ 450188.923619882087223, 207287.889046418305952 ], [ 450187.71984217048157, 207287.439259992330335 ], [ 450187.324149346561171, 207287.239265520416666 ], [ 450186.268768296111375, 207286.639481612539385 ], [ 450181.07446142815752, 207283.6403617914184 ], [ 450175.418462578149047, 207280.281451005488634 ], [ 450173.522096570115536, 207279.181780376879033 ], [ 450171.675229592481628, 207278.082109568407759 ], [ 450165.821332647989038, 207274.033413604542147 ], [ 450158.92035378923174, 207269.134938819159288 ], [ 450150.873295104771387, 207263.436684567888733 ], [ 450142.224446653795894, 207257.188643759058323 ], [ 450139.973586030537263, 207255.539185667294078 ], [ 450137.722725265892223, 207253.839628603484016 ], [ 450135.521263534086756, 207252.140271353244316 ], [ 450134.573179820610676, 207251.340491152368486 ], [ 450133.57549707905855, 207250.540711136301979 ], [ 450131.670929531101137, 207248.841252804617397 ], [ 450131.019540577312, 207248.241467438114341 ], [ 450129.725162189919502, 207246.931898915907368 ], [ 450129.073772949690465, 207246.232115590188187 ], [ 450128.273985900916159, 207245.282337915210519 ], [ 450127.523697882192209, 207244.332660054264124 ], [ 450126.773409721150529, 207243.332983216561843 ], [ 450126.674511372286361, 207243.232985619164538 ], [ 450126.625011912779883, 207243.083088861894794 ], [ 450126.526113564847037, 207242.983091267989948 ], [ 450126.418915235321037, 207242.833094720728695 ], [ 450126.369415919238236, 207242.733196943067014 ], [ 450126.270517426833976, 207242.583200368157122 ], [ 450126.072620732476935, 207242.383305176510476 ], [ 450125.973722241178621, 207242.233308599505108 ], [ 450125.124437168007717, 207241.633523957338184 ], [ 450125.03373877319973, 207241.57352551445365 ], [ 450120.119825232774019, 207238.134613726811949 ], [ 450117.720467107137665, 207236.335159259848297 ], [ 450113.771235353080556, 207233.136139049951453 ], [ 450112.921950139745604, 207232.486355432425626 ], [ 450112.072764780838042, 207231.786472835054155 ], [ 450111.223479568143375, 207231.136789214971941 ], [ 450110.225897119031288, 207230.437007157423068 ], [ 450109.170515803503804, 207229.737225314369425 ], [ 450106.375465872639325, 207228.087769237055909 ], [ 450103.473318472737446, 207226.588110495882574 ], [ 450094.824376014410518, 207222.389527928899042 ], [ 450084.625461957650259, 207217.491065348964185 ], [ 450072.670280616090167, 207211.982821683399379 ], [ 450061.877678530581761, 207207.184159276133869 ], [ 450053.525632031960413, 207203.585463426134083 ], [ 450050.425588971527759, 207202.235802373674233 ], [ 450047.275947027897928, 207200.936240476672538 ], [ 450044.126405369024724, 207199.736676538188476 ], [ 450041.521053752454463, 207198.786905500455759 ], [ 450038.9239021181711, 207197.887233407935128 ], [ 450036.673044122173451, 207197.137456987227779 ], [ 450035.922758265864104, 207196.93756382126594 ], [ 450031.074751203297637, 207196.187796922458801 ], [ 450022.277420882077422, 207195.18814961053431 ], [ 450020.471855864918325, 207195.038159294810612 ], [ 450018.723889860732015, 207194.938167752698064 ], [ 450016.926524824812077, 207194.838276383583434 ], [ 450015.475353142246604, 207194.788282724970486 ], [ 450014.024281599733513, 207194.788288046664093 ], [ 450012.573210200644098, 207194.838292345870286 ], [ 450011.872423943306785, 207194.83829491538927 ], [ 450011.773425743100233, 207194.788296299055219 ], [ 450010.973641427990515, 207194.788299231091514 ], [ 450010.874743510212284, 207194.838298571819905 ], [ 450010.726346420240588, 207194.838299115595873 ], [ 450010.627348503563553, 207194.888298456266057 ], [ 450010.470751575252507, 207194.888299030542839 ], [ 450010.322354627365712, 207194.938198555784766 ], [ 450010.223356710688677, 207194.988197895756457 ], [ 450010.124458935053553, 207195.088196211843751 ], [ 450009.827665182878263, 207195.238194235425908 ], [ 450009.728667408053298, 207195.337992556567769 ], [ 450009.621569651179016, 207195.388091924483888 ], [ 450009.423674101068173, 207195.587988562008832 ], [ 450009.374175355595071, 207195.687986703880597 ], [ 450009.275277437758632, 207195.737986040359829 ], [ 450009.176279806531966, 207195.887983338150661 ], [ 450009.077382029790897, 207195.98788166034501 ], [ 450009.027883285423741, 207196.087879795872141 ], [ 450008.920685814111494, 207196.237877122708596 ], [ 450008.871287209389266, 207196.387774237548001 ], [ 450008.772289720538538, 207196.587770512851421 ], [ 450008.772290146909654, 207196.737667447130661 ], [ 450008.722791401611175, 207196.837665584054776 ], [ 450008.722792112617753, 207197.087560474756174 ], [ 450005.474358235718682, 207197.937355010071769 ], [ 450005.177563487493899, 207197.737360187689774 ], [ 450004.971367389312945, 207197.68746196385473 ], [ 450004.822970014763996, 207197.587464554817416 ], [ 450004.67457278247457, 207197.537466118286829 ], [ 450004.476676379039418, 207197.43746888905298 ], [ 450004.171682076412253, 207197.337572047428694 ], [ 450003.874787756241858, 207197.287574159621727 ], [ 450003.528594403644092, 207197.237576453073416 ], [ 450003.223500244086608, 207197.187578595068771 ], [ 450000.923145498731174, 207197.237586004717741 ], [ 450000.428455484798178, 207197.337585772271268 ], [ 449999.92556548921857, 207197.387486594670918 ], [ 449991.276648172177374, 207201.986024275422096 ], [ 449967.473673688306008, 207222.689888091641478 ], [ 449956.672910952591337, 207231.687143618706614 ], [ 449951.379627187561709, 207236.085873019706924 ], [ 449941.073554695933126, 207245.083126689482015 ], [ 449936.77795052662259, 207249.191858349659014 ], [ 449933.677919211157132, 207251.991012428130489 ], [ 449931.179674965387676, 207254.390272477874532 ], [ 449927.37885992275551, 207258.089210699428804 ], [ 449919.974926510534715, 207265.686882326204795 ], [ 449916.380207129288465, 207269.285821826022584 ], [ 449912.974984594038688, 207273.084556541289203 ], [ 449911.68061419489095, 207274.584130587405525 ], [ 449910.07284937123768, 207275.883809869468678 ], [ 449908.077592421905138, 207277.283388520241715 ], [ 449906.577026060374919, 207278.782863322237972 ], [ 449905.57934956275858, 207280.1824383251369 ], [ 449904.779669748386368, 207281.782008514273912 ], [ 449904.177786932792515, 207283.691371641645674 ], [ 449903.674800740205683, 207285.0909448354505 ], [ 449902.974019268527627, 207286.790512617037166 ], [ 449898.87631676759338, 207292.888602789375 ], [ 449897.779742765822448, 207294.488074060878716 ], [ 449896.378076997294556, 207296.887430075730663 ], [ 449892.478273422515485, 207303.985199049930088 ], [ 449886.673919545079116, 207315.481684938597027 ], [ 449885.981334802927449, 207316.081575186632108 ], [ 449885.173352883604821, 207316.881261769623961 ], [ 449884.076776927628089, 207317.791047146893106 ], [ 449883.680986088991631, 207318.290838359913323 ], [ 449883.178098475676961, 207319.190621777321212 ], [ 449881.776430438039824, 207320.790094154770486 ], [ 449880.877752548200078, 207322.389564691344276 ], [ 449879.979076630086638, 207324.688920906744897 ], [ 449878.676414537825622, 207329.087535628117621 ], [ 449878.379624294408131, 207330.487108061439358 ], [ 449875.180602717446163, 207336.085405129531864 ], [ 449874.174725513556041, 207337.185086286859587 ], [ 449872.979150616331026, 207337.784978363837581 ], [ 449863.077067322796211, 207345.882448687101714 ], [ 449861.881603392306715, 207350.381160946679302 ], [ 449861.378617178997956, 207351.780634129536338 ], [ 449861.377317217644304, 207351.785234043141827 ], [ 449858.377600157167763, 207360.388068849628326 ], [ 449857.775622630666476, 207364.186893268662971 ], [ 449854.8817054379615, 207373.484013468783814 ], [ 449853.57904471544316, 207378.382517920807004 ], [ 449849.976050406286959, 207390.888774981664028 ], [ 449846.076260451809503, 207402.88504354498582 ], [ 449843.380237653618678, 207411.58237526670564 ], [ 449840.577025675331242, 207423.388743708841503 ], [ 449836.578247432596982, 207438.884040943463333 ], [ 449833.091255876643118, 207453.21246019290993 ], [ 449827.064634397160262, 207474.821839530428406 ], [ 449823.378340309893247, 207486.879405958228745 ], [ 449817.079221247870009, 207507.483106801635586 ], [ 449812.181843885045964, 207517.080127959663514 ], [ 449810.503086104406975, 207520.435965295997448 ], [ 449804.264136466023047, 207530.579380083363503 ], [ 449802.576575066894293, 207532.585445089789573 ], [ 449801.982888349622954, 207533.185234947421122 ], [ 449801.875691284076311, 207533.485129191598389 ], [ 449801.578897924919147, 207533.785124121408444 ], [ 449801.480000696959905, 207534.085018335783388 ], [ 449801.282105124439113, 207534.284914957068395 ], [ 449801.183207897411194, 207534.584809170744848 ], [ 449800.977012487419415, 207534.784805818460882 ], [ 449800.878115259401966, 207535.084700034291018 ], [ 449800.482325514720287, 207535.98438303504372 ], [ 449800.38342772697797, 207536.08438134402968 ], [ 449800.078335649333894, 207536.784168111567851 ], [ 449799.278655196074396, 207538.183742332039401 ], [ 449798.775666985660791, 207538.883529816113878 ], [ 449798.676769197860267, 207538.983528123702854 ], [ 449798.280978891707491, 207539.683315219066571 ], [ 449797.778090678795706, 207540.383102699648589 ], [ 449795.576641815074254, 207543.282151265419088 ], [ 449795.180950947455131, 207543.782042454695329 ], [ 449794.677962455200031, 207544.381831983104348 ], [ 449794.076075895573013, 207544.981621871178504 ], [ 449793.581387241836637, 207545.581511367985513 ], [ 449792.979500682034995, 207546.181301253964193 ], [ 449792.78160482889507, 207546.281299918424338 ], [ 449792.179817987023853, 207546.781091853685211 ], [ 449791.577931428037118, 207547.380981739901472 ], [ 449790.877046522102319, 207547.88077403063653 ], [ 449790.283459519851021, 207548.380665934993885 ], [ 449789.582674332952593, 207548.78056027169805 ], [ 449788.881789427541662, 207549.280352564528584 ], [ 449786.177545905229636, 207550.579935700283386 ], [ 449784.479082169826142, 207551.679619301808998 ], [ 449784.182188529986888, 207551.879616273858119 ], [ 449783.778197263658512, 207552.179511589987669 ], [ 449783.481403621670324, 207552.379408565233462 ], [ 449783.176310422131792, 207552.679303522396367 ], [ 449782.879516780260019, 207552.879300496540964 ], [ 449782.582723418541718, 207553.179195422504563 ], [ 449782.376628284284379, 207553.479090021399315 ], [ 449781.881939348648302, 207553.978981569642201 ], [ 449781.684044053894468, 207554.278876138036139 ], [ 449781.37895085348282, 207554.578771097352728 ], [ 449781.181055838475004, 207554.978663619316649 ], [ 449780.777065409231, 207555.578452788002323 ], [ 449780.579270392772742, 207555.978345307870768 ], [ 449778.476820695912465, 207559.277385309804231 ], [ 449775.68179014272755, 207564.585686640173662 ], [ 449773.77723461703863, 207567.184940258972347 ], [ 449770.883302328875288, 207571.183668768557254 ], [ 449767.577081440365873, 207576.382174180878792 ], [ 449763.883369231305551, 207581.980472787574399 ], [ 449761.682021163403988, 207585.17941517411964 ], [ 449760.577148327662144, 207587.178878188307863 ], [ 449758.27690637257183, 207591.877390204113908 ], [ 449757.980013567197602, 207592.377281030814629 ], [ 449757.881116893258877, 207592.877071146387607 ], [ 449757.477127852966078, 207593.976750068424735 ], [ 449757.378231180133298, 207594.476640181441326 ], [ 449757.18033644015668, 207594.976430653128773 ], [ 449757.081339768425096, 207595.476320769696031 ], [ 449756.946345259435475, 207596.499000299896579 ], [ 449755.460780976223759, 207598.900756433897186 ], [ 449752.48985543451272, 207604.791246430540923 ], [ 449750.881192964850925, 207606.982807311869692 ], [ 449749.479625633801334, 207608.882273434603121 ], [ 449746.981385852326639, 207612.980998436280061 ], [ 449743.881366177403834, 207620.078764137171675 ], [ 449739.577574177528732, 207628.676203429815359 ], [ 449737.978014601394534, 207631.975141572824214 ], [ 449736.081760565168224, 207635.184182624216191 ], [ 449734.877990194247104, 207637.383541877323296 ], [ 449733.781418565078638, 207639.882794599223416 ], [ 449730.978191389353015, 207646.380771498894319 ], [ 449730.178412848035805, 207648.480031344515737 ], [ 449729.477630982990377, 207650.079701077949721 ], [ 449728.479955190210603, 207651.77916983072646 ], [ 449727.581277464691084, 207653.478638225991745 ], [ 449726.682600851869211, 207655.577998427324928 ], [ 449725.689626779290847, 207657.929253800306469 ], [ 449717.831723505631089, 207673.509362669312395 ], [ 449709.371985941019375, 207708.5186753749731 ], [ 449688.74247653078055, 207740.268098340020515 ], [ 449664.402974655095022, 207748.72801192413317 ], [ 449642.743396181380376, 207748.418095743167214 ], [ 449610.954091725405306, 207775.817647315212525 ], [ 449603.864262078132015, 207787.467433617741335 ], [ 449587.564595268398989, 207793.077376698725857 ], [ 449572.534924909938127, 207806.407156786473934 ], [ 449528.715807375498116, 207816.777100234932732 ], [ 449492.724315017403569, 207819.059881730063353 ], [ 449486.129841965448577, 207818.488916976551991 ], [ 449471.45392395183444, 207817.01939951220993 ], [ 449465.583538353617769, 207817.019420455675572 ], [ 449453.686176644521765, 207819.378714431775734 ], [ 449452.383501757052727, 207819.278721132257488 ], [ 449451.089027528709266, 207819.478721639607102 ], [ 449449.48945770598948, 207819.978518650168553 ], [ 449448.384676465357188, 207820.378416947030928 ], [ 449446.785203683539294, 207820.97821405652212 ], [ 449444.583741072972771, 207821.778010609152261 ], [ 449440.189215440768749, 207823.277605744602624 ], [ 449437.089168290491216, 207824.477199410670437 ], [ 449434.384814539866056, 207825.576892805984244 ], [ 449431.589761686511338, 207826.476690853131004 ], [ 449428.687510544317774, 207827.376389541488606 ], [ 449423.691093692614231, 207828.576094475050922 ], [ 449419.989155050367117, 207829.375799975765403 ], [ 449418.191785423783585, 207829.975698304828256 ], [ 449416.287218334327918, 207830.875391126261093 ], [ 449413.887959698564373, 207831.975082780467346 ], [ 449409.98802779201651, 207834.074462846969254 ], [ 449403.787835932802409, 207837.373431997664738 ], [ 449400.588891166960821, 207838.873020254366565 ], [ 449397.88453877257416, 207840.472603543195873 ], [ 449391.585449051228352, 207843.981569120718632 ], [ 449385.591353913070634, 207847.680431058921386 ], [ 449381.889416992722545, 207850.279705877532251 ], [ 449377.684488228580449, 207852.978881860442925 ], [ 449368.491443721519317, 207858.777131136099342 ], [ 449365.589192586485296, 207860.47661747969687 ], [ 449363.69282524951268, 207862.076199645583984 ], [ 449361.491462466598023, 207863.47578726237407 ], [ 449359.891990080126561, 207864.875371295027435 ], [ 449358.391416112426668, 207866.274954726512078 ], [ 449355.884959225542843, 207868.374331391532905 ], [ 449350.591650782211218, 207873.172875418153126 ], [ 449346.889714394579642, 207876.271940921607893 ], [ 449344.185361662239302, 207879.081105764547829 ], [ 449342.387993263546377, 207881.080479977012146 ], [ 449340.491627325420268, 207883.679743825108744 ], [ 449339.090052609390114, 207885.679115673352499 ], [ 449337.490480592823587, 207887.378594156936742 ], [ 449335.989908031537198, 207889.777859284775332 ], [ 449332.386872459843289, 207894.576493073313031 ], [ 449329.888718097761739, 207898.575234887830447 ], [ 449328.190248496190179, 207900.874602967349347 ], [ 449326.887573181535117, 207903.573761406820267 ], [ 449326.186687263601925, 207905.573029055376537 ], [ 449325.387002326606307, 207907.172704580705613 ], [ 449324.191424117423594, 207909.072076963784639 ], [ 449322.987646180263255, 207911.071547569707036 ], [ 449320.992481557303108, 207913.580613529484253 ], [ 449319.491908906202298, 207915.979978569142986 ], [ 449317.892337234457955, 207917.979451482591685 ], [ 449316.490762120462023, 207919.778926878119819 ], [ 449315.187986013537738, 207921.978194385417737 ], [ 449314.190405639528763, 207924.577452782192267 ], [ 449313.09382552059833, 207926.276928189967293 ], [ 449312.18684209685307, 207927.776506131747738 ], [ 449311.486055398825556, 207929.275982861116063 ], [ 449309.086799709766638, 207933.574718423071317 ], [ 449308.386013290844858, 207935.27419148926856 ], [ 449307.990221309126355, 207936.473871893773321 ], [ 449307.586229600245133, 207937.773450518550817 ], [ 449307.487232908722945, 207938.973129177000374 ], [ 449307.190439208759926, 207940.072710826178081 ], [ 449306.786447497201152, 207941.37238944764249 ], [ 449306.192860381968785, 207943.771649084577803 ], [ 449305.237580424989574, 207947.157892802963033 ], [ 449286.730219393619336, 207979.185315291164443 ], [ 449286.553022767009679, 207979.586808978754561 ], [ 449285.761934140697122, 207978.791128140583169 ], [ 449283.428676862386055, 207982.88986672979081 ], [ 449281.293216564692557, 207987.078602497233078 ], [ 449279.100057725212537, 207991.667231261788402 ], [ 449276.94809824047843, 207996.275859401095659 ], [ 449275.54652475315379, 207999.374910800135694 ], [ 449274.862137733201962, 208000.914386584889144 ], [ 449272.833976319700014, 208005.573013045301195 ], [ 449270.888113643683027, 208010.271638277859893 ], [ 449264.490137556975242, 208026.67667478142539 ], [ 449262.519577290397137, 208032.884672411193606 ], [ 449260.491317876090761, 208039.072870711388532 ], [ 449255.494926858926192, 208060.876299837778788 ], [ 449254.983741719450336, 208065.78481279494008 ], [ 449254.41485747997649, 208070.693226082483307 ], [ 449253.779974242963362, 208075.581840103433933 ], [ 449253.08739190507913, 208080.470354446966667 ], [ 449252.238212210300844, 208085.498767116863746 ], [ 449251.092137092549819, 208090.477282379288226 ], [ 449250.572747579717543, 208092.166654368280433 ], [ 449249.970859330613166, 208093.836227186315227 ], [ 449249.327771697484422, 208095.485800606256817 ], [ 449248.684684061794542, 208097.135274020954967 ], [ 449248.057996180665214, 208098.794747158070095 ], [ 449247.489107418514322, 208100.474219599098433 ], [ 449246.598725404881407, 208103.393371129059233 ], [ 449245.774242366664112, 208106.322522099653725 ], [ 449245.007458461157512, 208109.281472188071348 ], [ 449244.380872382374946, 208112.260721104044933 ], [ 449243.894384147017263, 208115.26976867771009 ], [ 449243.630591486929916, 208117.599027450953145 ], [ 449243.432697793934494, 208119.928385852021165 ], [ 449243.127609027724247, 208124.616901583678555 ], [ 449242.938015202176757, 208126.946259930962697 ], [ 449242.690622279769741, 208129.275518603622913 ], [ 449242.422229329007678, 208131.347182127239648 ], [ 449239.698688746953849, 208143.599072757118847 ], [ 449239.664789416710846, 208143.701171073305886 ], [ 449239.609890479245223, 208143.85026864829706 ], [ 449209.421846349607222, 208206.766282586962916 ], [ 449193.691129434388131, 208235.873334757285193 ], [ 449177.489929571864195, 208273.272035831527319 ], [ 449165.303939136269037, 208289.557102719205432 ], [ 449159.425249452353455, 208304.722455375769641 ], [ 449156.861112184007652, 208322.796936168975662 ], [ 449153.357077256892808, 208331.454395592154469 ], [ 449152.704205036687199, 208345.34004309080774 ], [ 449105.244604040170088, 208483.231650234840345 ], [ 449105.05020762141794, 208483.738241891493089 ], [ 449103.063146210624836, 208490.556226257642265 ], [ 449102.222163159982301, 208493.955167815438472 ], [ 449102.065566665842198, 208494.874851629021578 ], [ 449101.925369920907542, 208495.794635353668127 ], [ 449101.809872812125832, 208496.724318765744101 ], [ 449101.735675075149629, 208497.654001959075686 ], [ 449101.686276801978238, 208498.453787427104544 ], [ 449101.463684576563537, 208502.052722034277394 ], [ 449101.481984786689281, 208502.45361452572979 ], [ 449097.94826095236931, 208520.89989181625424 ], [ 449097.41537009930471, 208521.766678559652064 ], [ 449097.093875661492348, 208522.326569881173782 ], [ 449096.780581099621486, 208522.886361157870851 ], [ 449096.491986185603309, 208523.466251936275512 ], [ 449095.316517580708023, 208534.637451387068722 ], [ 449091.092008313746192, 208556.689565287088044 ], [ 449091.050309097394347, 208556.816063158679754 ], [ 449091.006009925156832, 208556.945360996935051 ], [ 449067.424419759947341, 208601.515057168435305 ], [ 449014.905255604535341, 208639.884613240312319 ], [ 448957.764746877423022, 208669.460352154332213 ], [ 448951.694539713440463, 208671.061952941061463 ], [ 448947.13511041860329, 208673.211235848604701 ], [ 448933.46502233465435, 208679.719383290968835 ], [ 448928.89729307347443, 208681.868766154861078 ], [ 448922.26019537699176, 208684.557949331589043 ], [ 448915.416900228243321, 208686.74724284914555 ], [ 448908.499405886803288, 208688.666841757018119 ], [ 448896.329791458323598, 208691.805944211548194 ], [ 448884.094377653440461, 208694.665052160271443 ], [ 448875.45360894332407, 208696.524560719437432 ], [ 448866.78824044985231, 208698.264071614015847 ], [ 448858.098072160617448, 208699.863685225136578 ], [ 448846.604645995714236, 208701.643109493714292 ], [ 448835.061720147496089, 208703.012741659069434 ], [ 448810.969985452422407, 208708.061367482237983 ], [ 448766.167066235735547, 208720.067965388763696 ], [ 448710.167418010008987, 208738.462596964556724 ], [ 448677.369116679648869, 208750.469132439990062 ], [ 448647.769768991216552, 208765.664590623870026 ], [ 448645.782699552946724, 208766.83427793829469 ], [ 448643.820430000545457, 208768.033864023222122 ], [ 448641.882860119454563, 208769.283549010870047 ], [ 448639.961790013243444, 208770.563133334042504 ], [ 448638.073719444917515, 208771.882716714753769 ], [ 448636.210348538996186, 208773.242399194976315 ], [ 448634.379977159725968, 208774.631880933244247 ], [ 448632.574305441463366, 208776.061461770441383 ], [ 448631.082028863718733, 208777.301144799625035 ], [ 448629.622651837591548, 208778.590726684953552 ], [ 448628.204574228497222, 208779.920307588821743 ], [ 448626.819396160368342, 208781.289987548370846 ], [ 448625.491917275241576, 208782.709466247702949 ], [ 448624.197537919040769, 208784.159044195956085 ], [ 448622.96895763440989, 208785.66862064943416 ], [ 448621.847675681055989, 208787.10819794703275 ], [ 448620.759293250273913, 208788.567774693714455 ], [ 448619.704010341898538, 208790.047250890638679 ], [ 448618.673427078465465, 208791.546826576581225 ], [ 448617.667543470393866, 208793.07640155160334 ], [ 448616.702859253680799, 208794.61587613687152 ], [ 448615.771174570312724, 208796.18544996692799 ], [ 448614.872489400557242, 208797.764923448266927 ], [ 448613.998503877373878, 208799.364496410184074 ], [ 448608.370195040130056, 208807.593263075454161 ], [ 448608.351495336159132, 208807.613462771463674 ], [ 448608.299796179519035, 208807.69606140704127 ], [ 448604.904351084958762, 208812.66048104170477 ], [ 448595.200108367018402, 208827.665935648081359 ], [ 448586.619648209307343, 208842.358991156157572 ], [ 448585.385668154340237, 208844.331858772202395 ], [ 448584.201387053239159, 208845.96033289009938 ], [ 448582.799709913902916, 208848.459591068967711 ], [ 448582.098921909404453, 208850.359057441644836 ], [ 448581.398033987847157, 208852.358421859622467 ], [ 448579.699664512241725, 208858.666507024900056 ], [ 448577.803299636056181, 208866.963954295730218 ], [ 448573.903470577555709, 208882.759165185038 ], [ 448568.4040715037263, 208906.561927927774377 ], [ 448567.299292410491034, 208912.160224167455453 ], [ 448567.200298698153347, 208917.858513247105293 ], [ 448566.903506256348919, 208921.657340504054446 ], [ 448564.702144372044131, 208928.765112980268896 ], [ 448561.099106424837373, 208940.161709006584715 ], [ 448560.505515898054, 208941.161392572161276 ], [ 448560.101422695675865, 208942.261073193512857 ], [ 448560.101423531596083, 208943.260753655747976 ], [ 448560.29932232608553, 208945.260113542957697 ], [ 448560.802318111236673, 208948.958938607189339 ], [ 448560.299332698050421, 208957.656371253950056 ], [ 448560.200441586261149, 208966.563597676635254 ], [ 448559.80465071706567, 208970.622420436295215 ], [ 448560.554942377493717, 208973.641457462043036 ], [ 448560.604442204872612, 208974.291244498745073 ], [ 448560.662141913664527, 208974.941031496506184 ], [ 448560.736341384646948, 208975.590818398632109 ], [ 448560.81054084666539, 208976.230605499760713 ], [ 448558.625686967454385, 208993.605277495109476 ], [ 448559.474881100468338, 209001.252923498861492 ], [ 448561.684555952262599, 209009.250455368252005 ], [ 448563.935435596271418, 209023.526064193167258 ], [ 448564.06734031601809, 209031.343710615707096 ], [ 448566.277021895395592, 209046.988892722292803 ], [ 448567.63741183601087, 209058.035469279217068 ], [ 448571.042571310186759, 209067.552564575336874 ], [ 448573.928338486817665, 209077.249559077084996 ], [ 448578.009586500120349, 209084.387397043057717 ], [ 448581.249845842598006, 209090.655556554615032 ], [ 448582.198034991044551, 209093.654492618574295 ], [ 448582.700929292710498, 209095.304157547128852 ], [ 448583.954214074707124, 209098.253192894218955 ], [ 448585.603194190072827, 209102.262005293741822 ], [ 448586.955377647071145, 209105.261039088713005 ], [ 448589.493745883344673, 209110.054931157152168 ], [ 448592.918406699376646, 209120.480207884334959 ], [ 448593.097904767899308, 209121.156193640257698 ], [ 448594.647986975149252, 209125.754694891045801 ], [ 448595.901171544508543, 209128.303837959712837 ], [ 448601.499500150908716, 209136.861339027876966 ], [ 448601.853995366662275, 209137.111232154071331 ], [ 448602.348688876547385, 209137.661018619546667 ], [ 448602.752783716074191, 209138.260904599446803 ], [ 448605.152052059245761, 209140.710143193718977 ], [ 448606.199138747237157, 209142.309605972841382 ], [ 448607.45232252869755, 209143.909067601372954 ], [ 448609.00240273354575, 209146.158414809033275 ], [ 448611.088375600520521, 209148.638054494047537 ], [ 448611.104275394522119, 209148.657654017792083 ], [ 448651.001953726750799, 209189.505126738455147 ], [ 448680.601413738855626, 209259.053685781371314 ], [ 448684.031687656708527, 209278.753976694424637 ], [ 448684.031187667045742, 209278.757176635263022 ], [ 448681.402229797327891, 209283.961789008986671 ], [ 448681.310731145436876, 209284.035788076813333 ], [ 448681.1623333208845, 209284.145786761771888 ], [ 448680.997435714118183, 209284.245785744104069 ], [ 448680.717039762123022, 209284.395684405346401 ], [ 448679.942050888785161, 209284.755581788893323 ], [ 448679.900851481361315, 209284.775581633788534 ], [ 448679.463857795461081, 209285.01557942351792 ], [ 448679.018664244213142, 209285.275476873095613 ], [ 448678.812467252253555, 209285.415375305630732 ], [ 448678.573370748548768, 209285.5853733298718 ], [ 448678.482672069396358, 209285.645372673403472 ], [ 448678.210676064249128, 209285.855270103202201 ], [ 448678.128177283273544, 209285.925269198894966 ], [ 448678.037478614714928, 209285.995268341328483 ], [ 448677.963279718533158, 209286.065267391735688 ], [ 448677.880780948093161, 209286.145166290982161 ], [ 448677.740683083073236, 209286.325163549103308 ], [ 448677.707683594606351, 209286.375162752403412 ], [ 448677.583985578035936, 209286.625058533158153 ], [ 448677.485087229753844, 209286.884953973232768 ], [ 448677.402588674915023, 209287.164848921936937 ], [ 448677.328390006208792, 209287.444843821343966 ], [ 448677.311890310258605, 209287.514742537226994 ], [ 448677.237691630492918, 209287.784737634880003 ], [ 448677.122294105065521, 209288.594422311813105 ], [ 448677.072795093874447, 209288.87441706674872 ], [ 448676.998596412769984, 209289.144312167016324 ], [ 448676.924397721537389, 209289.404207464074716 ], [ 448676.81719948729733, 209289.664102953742258 ], [ 448676.718301126325969, 209289.914098590263166 ], [ 448676.611102891736664, 209290.173994077835232 ], [ 448676.48740487388568, 209290.42388985992875 ], [ 448676.372006730875, 209290.663785792887211 ], [ 448673.40385715541197, 209299.351231483393349 ], [ 448672.851366458053235, 209300.901404088013805 ], [ 448672.200079053058289, 209304.249741769745015 ], [ 448671.903285512002185, 209306.449000075925142 ], [ 448671.35089987097308, 209312.727079343923833 ], [ 448670.600619031174574, 209320.954621295561083 ], [ 448669.515447908313945, 209333.981770474463701 ], [ 448669.256154221482575, 209336.552821239922196 ], [ 448669.248454377637245, 209336.599820359260775 ], [ 448669.231654688017443, 209336.674518980784342 ], [ 448661.052598764013965, 209366.751073752937373 ], [ 448661.053398767253384, 209366.764073492842726 ], [ 448661.349801963777281, 209373.648535903834272 ], [ 448663.798579349357169, 209383.905418929643929 ], [ 448662.998794546292629, 209387.95414380467264 ], [ 448661.605429211340379, 209402.799559210077859 ], [ 448661.349834428809118, 209404.449128194071818 ], [ 448661.201537502580322, 209405.45030932885129 ], [ 448662.405239466577768, 209422.803459673479665 ], [ 448656.600722934177611, 209427.302005938137881 ], [ 448656.402925773174502, 209427.452104172960389 ], [ 448656.303927325003315, 209427.652000826783478 ], [ 448656.254528202931397, 209427.851997181365732 ], [ 448655.99893245176645, 209428.601783938938752 ], [ 448655.652638294734061, 209429.701364342647139 ], [ 448655.677338450332172, 209430.171254923741799 ], [ 448661.349863174196798, 209431.700790471571963 ], [ 448661.753857910633087, 209431.900684086431284 ], [ 448662.298050747893285, 209432.100676851230673 ], [ 448664.004728469008114, 209432.900350753683597 ], [ 448666.305098418786656, 209433.949916126963217 ], [ 448668.75386620813515, 209434.849783553974703 ], [ 448670.40284472971689, 209435.649457786406856 ], [ 448673.247307662211824, 209436.999113922182005 ], [ 448680.700811163696926, 209441.047788796771783 ], [ 448682.250791010505054, 209441.79756458447082 ], [ 448685.054054732201621, 209443.297017950913869 ], [ 448686.447536709951237, 209444.046794679597951 ], [ 448689.201301015564241, 209445.446250304230489 ], [ 448701.651239639613777, 209451.604452868341468 ], [ 448708.750147517421283, 209454.903344386140816 ], [ 448716.648745055543259, 209458.512224822363351 ], [ 448716.599346119444817, 209458.852118382463232 ], [ 448718.198825348983519, 209459.551894774893299 ], [ 448719.946702933055349, 209460.55156431189971 ], [ 448722.148174404515885, 209461.551231080375146 ], [ 448724.349546062992886, 209462.700794866774231 ], [ 448724.803138177259825, 209461.209621687128674 ], [ 448743.900275331456214, 209456.999889059283305 ], [ 448773.799878981779329, 209462.749592718668282 ], [ 448786.299710530147422, 209462.89951362053398 ], [ 448786.809498933318537, 209459.300782281556167 ], [ 448786.813298882800154, 209459.301382247824222 ], [ 448786.881897958635818, 209459.302781800681259 ], [ 448805.230351389502175, 209460.137853520922363 ], [ 448810.096986192278564, 209460.501016661524773 ], [ 448813.799036564654671, 209460.750989144085906 ], [ 448823.247709726216272, 209461.250721666729078 ], [ 448825.836675437749363, 209461.720596515573561 ], [ 448828.697636869794223, 209461.750578507664613 ], [ 448829.546824920340441, 209461.400680344551802 ], [ 448830.379013523401227, 209461.282377647527028 ], [ 448831.807394335861318, 209461.347267657576595 ], [ 448831.847693796618842, 209461.350267353584059 ], [ 448831.893493194773328, 209461.362266835174523 ], [ 448835.534945577266626, 209462.446422973938752 ], [ 448844.552728178154211, 209465.449307926173788 ], [ 448855.55148555082269, 209469.398061749408953 ], [ 448857.546759743825532, 209470.147834544884972 ], [ 448857.851755706069525, 209470.197731683962047 ], [ 448863.136788221425377, 209472.756848101562355 ], [ 448863.144688173488248, 209472.797047246014699 ], [ 448863.524286051397212, 209474.836204005056061 ], [ 448866.764549598563462, 209479.714686284540221 ], [ 448868.611426778836176, 209481.094247295579407 ], [ 448870.895298563526012, 209482.793699200323317 ], [ 448872.552578213158995, 209484.103362757246941 ], [ 448874.902348990377504, 209485.702816245320719 ], [ 448881.54776586452499, 209489.851492171816062 ], [ 448885.134321667370386, 209492.500716924725566 ], [ 448885.348717047891114, 209491.351038724300452 ], [ 448897.295668806589674, 209499.348504515481181 ], [ 448900.948223136481829, 209501.51783840265125 ], [ 448903.199094996205531, 209502.847397790290415 ], [ 448909.646616708370857, 209508.095752401684877 ], [ 448914.799752039776649, 209510.894864252593834 ], [ 448916.391031760023907, 209511.554641145688947 ], [ 448918.048210648237728, 209512.244417024136055 ], [ 448919.400393484684173, 209512.844196595193353 ], [ 448921.197771233215462, 209513.993862331146374 ], [ 448922.970449305779766, 209515.133528411854059 ], [ 448926.095310671138577, 209517.142868592520244 ], [ 448926.944500102894381, 209517.642753266263753 ], [ 448927.793789695715532, 209518.242535922327079 ], [ 448928.799677849747241, 209519.252209335856605 ], [ 448929.55816869426053, 209519.871992144151591 ], [ 448930.448657950444613, 209520.601771916786674 ], [ 448932.551132476713974, 209522.251325625926256 ], [ 448935.197699498326983, 209523.750778997375164 ], [ 448936.030489170050714, 209524.250663754646666 ], [ 448942.758405791129917, 209528.289340561488643 ], [ 448948.200038421317004, 209531.548341006739065 ], [ 448948.480337205284741, 209533.087908152141608 ], [ 448953.443875068333, 209535.597026651492342 ], [ 448955.546349072654266, 209536.846688337856904 ], [ 448956.543936752481386, 209537.446470021037385 ], [ 448959.347202254575677, 209539.195917234115768 ], [ 448961.548675384954549, 209540.695473226311151 ], [ 448961.697073572548106, 209540.795370283885859 ], [ 448967.699400148645509, 209544.744153065723367 ], [ 448968.169294338615146, 209545.014044683019165 ], [ 448969.79357425426133, 209545.943815759033896 ], [ 448971.84654942585621, 209547.443272625387181 ], [ 448974.254120342666283, 209549.212721806776244 ], [ 448974.14692216104595, 209549.442717817204539 ], [ 448974.697215328516904, 209549.736808432848193 ], [ 448975.548604760842863, 209550.192493901588023 ], [ 448975.944298811256886, 209549.79259954218287 ], [ 448976.059797340887599, 209549.832598012057133 ], [ 448977.593277951469645, 209550.442376113205682 ], [ 448978.549765807925723, 209550.792263067152817 ], [ 448979.398955179844052, 209551.192149679700378 ], [ 448980.545041025558021, 209551.84192937600892 ], [ 448981.600328340311535, 209552.641706591064576 ], [ 448990.15862529858714, 209558.95962514472194 ], [ 448995.748758133384399, 209563.098406283475924 ], [ 448996.647448970354162, 209564.697868210845627 ], [ 448996.894746292906348, 209565.047759563894942 ], [ 448997.199842848058324, 209565.397650557977613 ], [ 448997.595638023689389, 209565.647543011582457 ], [ 448999.698111306177452, 209566.34731566766277 ], [ 449000.448401335917879, 209566.347310980316252 ], [ 449001.998380915087182, 209566.447299261926673 ], [ 449002.798170638328884, 209566.64719020598568 ], [ 449003.548461196012795, 209566.947179424634669 ], [ 449006.219826968852431, 209567.666948109923396 ], [ 449013.409438639355358, 209571.715620881586801 ], [ 449017.489488632185385, 209574.050847876293119 ], [ 449014.446826306637377, 209572.525897922343574 ], [ 449010.016887822013814, 209574.055894562741742 ], [ 449031.146619762701448, 209580.895623055810574 ], [ 449020.497551405802369, 209575.558498381520621 ], [ 449022.544825290329754, 209576.144173647626303 ], [ 449025.100794074242003, 209577.643727130489424 ], [ 449033.296293160878122, 209581.942388264171313 ], [ 449038.045334583206568, 209584.341609608265571 ], [ 449038.639027226774488, 209584.621500184002798 ], [ 449038.894624058739282, 209584.741496135829948 ], [ 449039.644914847158361, 209585.141383279464208 ], [ 449042.893375748477411, 209587.290619099396281 ], [ 449043.627167019760236, 209587.830503488483373 ], [ 449047.997015082335565, 209591.049510423792526 ], [ 449050.643683652044274, 209592.998854044941254 ], [ 449051.443474271160085, 209593.648635764897335 ], [ 449055.574125339684542, 209596.727646977815311 ], [ 449062.095948199508712, 209601.596106569166295 ], [ 449064.49522005696781, 209603.495552671723999 ], [ 449066.012302137329243, 209604.625220045389142 ], [ 449069.829657090420369, 209607.474337786494289 ], [ 449073.79551035532495, 209610.443352102302015 ], [ 449082.683604912774172, 209616.641369250253774 ], [ 449083.549294647411443, 209617.24125150864711 ], [ 449084.546978130063508, 209615.491780957498122 ], [ 449087.539842140162364, 209617.301125025027432 ], [ 449088.842626581259537, 209618.140899605292361 ], [ 449094.135863541276194, 209621.619794920028653 ], [ 449094.399660394759849, 209621.789789768692572 ], [ 449096.691832523385528, 209622.989350695803296 ], [ 449098.109916158660781, 209624.17901735776104 ], [ 449100.105193310708273, 209625.938468693115283 ], [ 449100.393788846442476, 209625.598573821014725 ], [ 449101.622274525114335, 209626.548246585356537 ], [ 449104.194744571344927, 209628.547589327034075 ], [ 449105.794225577265024, 209629.597257678688038 ], [ 449105.812425349198747, 209629.603257437527645 ], [ 449124.245502930600196, 209639.693833455618005 ], [ 449098.725887924083509, 209665.123475383617915 ], [ 449100.745865844481159, 209667.353416787635069 ], [ 449128.596146800438873, 209640.214995071699377 ], [ 449129.094440712651704, 209640.443787205731496 ], [ 449129.34183816681616, 209640.793678450514562 ], [ 449129.696334212610964, 209641.143569014791865 ], [ 449130.092129515716806, 209641.393461363564711 ], [ 449132.095705612911843, 209642.593223985633813 ], [ 449132.796497416566126, 209643.093109262641519 ], [ 449132.80959720176179, 209643.071909613441676 ], [ 449133.183992791105993, 209643.322902075655293 ], [ 449135.748161986412015, 209644.742456600943115 ], [ 449136.448953695420641, 209645.192342896247283 ], [ 449137.941335721930955, 209645.992016963718925 ], [ 449139.549116544076242, 209646.941787213319913 ], [ 449140.39830641343724, 209647.441571533505339 ], [ 449141.25579633860616, 209648.021454153757077 ], [ 449143.646868260926567, 209649.640905635198578 ], [ 449144.49605834344402, 209650.240687893296126 ], [ 449146.573833803588059, 209651.570247315627057 ], [ 449148.544310559052974, 209652.839908645139076 ], [ 449150.341789141355548, 209653.889575591951143 ], [ 449152.295766193768941, 209655.189136394299567 ], [ 449157.968400121317245, 209659.197917701851111 ], [ 449164.242828886257485, 209664.466269163764082 ], [ 449162.288760025752708, 209667.135526757512707 ], [ 449158.586718736507464, 209672.084048694814555 ], [ 449154.975475587649271, 209676.742576074670069 ], [ 449154.076789581391495, 209677.832259441202041 ], [ 449152.386615764640737, 209679.821629401820246 ], [ 449150.655142390693072, 209681.771100465964992 ], [ 449149.608058406389318, 209682.910783776431344 ], [ 449144.1416423812625, 209689.078892224119045 ], [ 449141.734079612942878, 209691.938049010757823 ], [ 449139.565712967712898, 209694.437311667366885 ], [ 449138.864923930261284, 209695.336997715581674 ], [ 449138.172334802802652, 209696.246683506818954 ], [ 449137.512745263869874, 209697.166368878097273 ], [ 449137.30654857942136, 209697.476363844703883 ], [ 449134.709392407909036, 209701.185210638388526 ], [ 449134.346698754001409, 209701.765102194214705 ], [ 449133.959105395129882, 209702.334894103172701 ], [ 449133.728309294790961, 209702.654789642314427 ], [ 449133.324316120357253, 209703.214581840846222 ], [ 449132.903823102649767, 209703.754474519751966 ], [ 449132.466830241435673, 209704.274267676402815 ], [ 449132.1452354042558, 209704.624163246597163 ], [ 449131.831940373696852, 209704.944159321312327 ], [ 449131.518645287491381, 209705.244055768183898 ], [ 449131.427946689946111, 209705.323954869236331 ], [ 449131.188850414531771, 209705.543952324136626 ], [ 449131.164150819648057, 209705.573951924045105 ], [ 449129.42447835142957, 209707.333430447790306 ], [ 449128.715389547985978, 209708.043221830390394 ], [ 449128.022800553881098, 209708.76301291846903 ], [ 449127.346711398393381, 209709.502703528909478 ], [ 449127.247813017689623, 209709.622701937740203 ], [ 449126.588223700120579, 209710.382492068398278 ], [ 449125.953334086458199, 209711.152281854941975 ], [ 449125.705938159604557, 209711.4621776844142 ], [ 449125.128847791638691, 209712.231967095693108 ], [ 449124.551657449046616, 209713.011656319024041 ], [ 449124.015766595141031, 209713.80144509091042 ], [ 449119.563539585738908, 209719.309771393192932 ], [ 449115.383308387827128, 209724.628199461265467 ], [ 449113.849733946146443, 209726.707570677797776 ], [ 449113.330344201414846, 209727.997150036797393 ], [ 449121.698939351947047, 209729.246672599518206 ], [ 449137.331443638249766, 209731.575828052416909 ], [ 449143.844962149683852, 209732.545567845867481 ], [ 449145.345543456322048, 209732.795453482307494 ], [ 449148.997997941973154, 209733.395218679972459 ], [ 449152.246557944919914, 209734.09498463361524 ], [ 449155.4950185350026, 209734.994746869604569 ], [ 449159.295973009837326, 209736.244299016834702 ], [ 449165.694097007624805, 209738.543514834775124 ], [ 449171.894324226886965, 209741.042728216620162 ], [ 449181.994409916340373, 209746.491061517386697 ], [ 449201.848285367304925, 209756.937738803564571 ], [ 449221.891760094556957, 209767.544311977515463 ], [ 449240.89644730911823, 209777.491204222722445 ], [ 449254.797391651081853, 209784.538983401434962 ], [ 449255.094288362015504, 209784.698878511728253 ], [ 449266.142565824731719, 209790.537098641798366 ], [ 449285.196653882157989, 209800.143997080915142 ], [ 449295.140044150059111, 209805.292337234772276 ], [ 449297.992812632292043, 209806.741891889541876 ], [ 449298.561706385982689, 209807.041782645101193 ], [ 449315.340222145430744, 209815.749012616230175 ], [ 449316.445101400720887, 209813.739642807864584 ] ] ] } }
]
}
