{
"type": "FeatureCollection",
"name": "port_meadow_green",
"crs": { "type": "name", "properties": { "name": "urn:ogc:def:crs:OGC:1.3:CRS84" } },
"features": [
{ "type": "Feature", "properties": { "Area_ha": 169.03711599868535, "Shape_Length": 7422.8204526238578, "Shape_Area": 1690371.1599868536 }, "geometry": { "type": "Polygon", "coordinates": [ [ [ -1.286455122734026, 51.784824399165565 ], [ -1.28644219365983, 51.784802290521 ], [ -1.286433559409759, 51.784804763763191 ], [ -1.286427555947153, 51.78480643566656 ], [ -1.286397060410929, 51.784815059315655 ], [ -1.286220732038773, 51.784657497749492 ], [ -1.286044696000603, 51.784511712546347 ], [ -1.285785764991919, 51.784294324111485 ], [ -1.285724341361069, 51.784240468820151 ], [ -1.285675712487766, 51.78419388145705 ], [ -1.285526238175941, 51.784069380672797 ], [ -1.2853710235964, 51.783937562852444 ], [ -1.285104312069335, 51.783706192858759 ], [ -1.284954807296413, 51.78357629822947 ], [ -1.284909771243154, 51.783536923537163 ], [ -1.284904922991192, 51.783533568219084 ], [ -1.284885404082704, 51.783520775562515 ], [ -1.284828803780278, 51.78347189337309 ], [ -1.284826342487554, 51.783453720698276 ], [ -1.284703768012389, 51.78333666257268 ], [ -1.284697022093943, 51.783332397484948 ], [ -1.28468851016812, 51.783326503242115 ], [ -1.284677242721131, 51.783318483805765 ], [ -1.284676985192182, 51.783318359959317 ], [ -1.284675311668353, 51.78331684105936 ], [ -1.284547581744398, 51.783206097393958 ], [ -1.284468244625983, 51.783136402372556 ], [ -1.284401807904009, 51.783074785248452 ], [ -1.284275981949162, 51.78295941520804 ], [ -1.284020658351292, 51.782726583487552 ], [ -1.283995696781497, 51.782702791890408 ], [ -1.28398310282583, 51.782690490797187 ], [ -1.283944948814167, 51.782653289433362 ], [ -1.283545043902059, 51.782270300065569 ], [ -1.283479763609795, 51.782209230719843 ], [ -1.283234344251338, 51.781977986083234 ], [ -1.283206215351983, 51.781950399609094 ], [ -1.283139085974744, 51.781887519661815 ], [ -1.283070564527514, 51.781821843919587 ], [ -1.28299414330291, 51.781749469191439 ], [ -1.282934216923593, 51.781692025952871 ], [ -1.282875564054588, 51.781637287806014 ], [ -1.282808419914284, 51.781575305794732 ], [ -1.28274846837293, 51.78151957063222 ], [ -1.282696991253712, 51.781472066411816 ], [ -1.282632118870608, 51.781410099051115 ], [ -1.282562030843824, 51.781345402480092 ], [ -1.282439258679437, 51.781226453467511 ], [ -1.282395719097628, 51.781183400526189 ], [ -1.282331563546725, 51.781121438267519 ], [ -1.282278753616346, 51.781067633687712 ], [ -1.282221668950656, 51.781012005655427 ], [ -1.282161627134341, 51.780954560407778 ], [ -1.282096671564891, 51.78089034533533 ], [ -1.282031823657719, 51.780826939191599 ], [ -1.281959699093099, 51.780755038660651 ], [ -1.281892621671916, 51.780689013177785 ], [ -1.281854522851096, 51.780651196454286 ], [ -1.281853438212639, 51.780650123475624 ], [ -1.28185284964033, 51.780649578611801 ], [ -1.281852816788749, 51.780649547841129 ], [ -1.281816254177359, 51.780613491070838 ], [ -1.281819193911649, 51.780609014322962 ], [ -1.281825334862376, 51.780591074824144 ], [ -1.28182836017846, 51.780581205679297 ], [ -1.281830669457479, 51.780571242250055 ], [ -1.281830890551382, 51.780557311741887 ], [ -1.28185094605225, 51.780528670468236 ], [ -1.281857001398648, 51.780516123364293 ], [ -1.281875688514018, 51.780475788772428 ], [ -1.281895240442982, 51.780433661218446 ], [ -1.281920743045846, 51.78037808769399 ], [ -1.281938775836927, 51.780341344675868 ], [ -1.281957505603979, 51.780298312971667 ], [ -1.28197422605977, 51.780253832204174 ], [ -1.281990088827272, 51.780210782991176 ], [ -1.282005139949956, 51.780173572199516 ], [ -1.282015051983022, 51.780143970752235 ], [ -1.282029542474307, 51.780096868915706 ], [ -1.28204710149147, 51.780044841549604 ], [ -1.282059987335181, 51.780008516652053 ], [ -1.282069828005315, 51.779983408564014 ], [ -1.282083317201208, 51.779954277606699 ], [ -1.282107236102086, 51.77990804251877 ], [ -1.282127554921003, 51.779862773584391 ], [ -1.282145566841122, 51.779819738365184 ], [ -1.282167413153318, 51.779768636266724 ], [ -1.282180213280062, 51.779737703751564 ], [ -1.282196853471394, 51.779698255731461 ], [ -1.282212673045259, 51.77965790358089 ], [ -1.282224878272368, 51.779619236798339 ], [ -1.282227128959693, 51.779612958494212 ], [ -1.282238616738481, 51.779574377243435 ], [ -1.282255443586678, 51.779523245393207 ], [ -1.282259234626411, 51.779510234888818 ], [ -1.282270672457166, 51.779474799349572 ], [ -1.282283566533641, 51.779438024915116 ], [ -1.282312462386963, 51.779349213565816 ], [ -1.282326968571677, 51.779308763471462 ], [ -1.282359343108719, 51.7792267149363 ], [ -1.282372178576314, 51.779193535713368 ], [ -1.282382736332112, 51.779168431971932 ], [ -1.28239854468209, 51.779136169105868 ], [ -1.282423967539994, 51.779085538337299 ], [ -1.282468160939281, 51.778996731265977 ], [ -1.282495025640708, 51.778945659717827 ], [ -1.282516031108765, 51.778902193139515 ], [ -1.282533205166842, 51.778866792565502 ], [ -1.282548361428969, 51.778830481459131 ], [ -1.282569404685312, 51.778777127480325 ], [ -1.282588415888091, 51.77872376110215 ], [ -1.282607365798805, 51.778674349574885 ], [ -1.282623240184273, 51.778630402117756 ], [ -1.282644410679326, 51.778576599340312 ], [ -1.282658020170307, 51.778539829224165 ], [ -1.28267077686741, 51.778511592846357 ], [ -1.282689518609825, 51.778475302689472 ], [ -1.282713342073271, 51.778434999280861 ], [ -1.282857534008095, 51.778114445027036 ], [ -1.282878602815947, 51.778066934524283 ], [ -1.282896523606885, 51.778029650294869 ], [ -1.28290779676687, 51.778004550864715 ], [ -1.282900861884497, 51.777989677597731 ], [ -1.282895234431755, 51.777975261862089 ], [ -1.282891038170491, 51.777968494674781 ], [ -1.2828688725539, 51.777949483397222 ], [ -1.28283664826937, 51.777924118738603 ], [ -1.282827314130105, 51.777917320219061 ], [ -1.282817264022435, 51.777910517332813 ], [ -1.282806482249363, 51.777904609103906 ], [ -1.282773319814982, 51.77789317146965 ], [ -1.282732966184649, 51.777883037750172 ], [ -1.282663541812662, 51.777867333788286 ], [ -1.282482341915124, 51.777823531949394 ], [ -1.2823842306384, 51.777800461643032 ], [ -1.282329328313863, 51.777788441671518 ], [ -1.282255629672264, 51.777770914044716 ], [ -1.282192895758703, 51.77775524973471 ], [ -1.282171942945749, 51.777750178489967 ], [ -1.282150998694077, 51.777744567821728 ], [ -1.282132941185681, 51.777737716001845 ], [ -1.282116445943035, 51.777730424155159 ], [ -1.282094985089639, 51.777666923178145 ], [ -1.282098811655152, 51.777651665990987 ], [ -1.282115954681601, 51.777625704243505 ], [ -1.282136650024448, 51.777594370354947 ], [ -1.282156773840122, 51.777561234734179 ], [ -1.282165711166586, 51.777547806079582 ], [ -1.282173101930226, 51.777533919323993 ], [ -1.282177723399105, 51.777521363446731 ], [ -1.282180073778778, 51.777508793707874 ], [ -1.282179727030748, 51.777485420764052 ], [ -1.282180833271616, 51.777475989452661 ], [ -1.282166088343372, 51.777433653402461 ], [ -1.282150662213622, 51.777396616202324 ], [ -1.282139712142151, 51.777356099752481 ], [ -1.282137414213197, 51.777320131712813 ], [ -1.282136351526292, 51.777296754398108 ], [ -1.282136722197478, 51.777273386731352 ], [ -1.282141451472826, 51.77724644918807 ], [ -1.282146600410945, 51.777200638977774 ], [ -1.282158127234195, 51.777114328167912 ], [ -1.28216332692772, 51.777057731521694 ], [ -1.282164296342796, 51.776996615252642 ], [ -1.282172527242741, 51.776937340644821 ], [ -1.282181900125887, 51.776888858851116 ], [ -1.28218510096209, 51.776875396080584 ], [ -1.282211115776702, 51.776787376345112 ], [ -1.282220509092852, 51.776745186714898 ], [ -1.28222692963751, 51.776702080719673 ], [ -1.282229175515892, 51.776650858962427 ], [ -1.282225700783645, 51.776598704070501 ], [ -1.282218003856137, 51.776533938424059 ], [ -1.282208618422559, 51.776485253126232 ], [ -1.282175732429266, 51.776275616741756 ], [ -1.282166659296789, 51.776207248005683 ], [ -1.282158664553262, 51.776161267650743 ], [ -1.282146309933959, 51.776118945278107 ], [ -1.282127135936811, 51.77604691930123 ], [ -1.282108125057558, 51.775972197854173 ], [ -1.282087517853299, 51.775900163120319 ], [ -1.282073639688591, 51.775855944184165 ], [ -1.28205267614343, 51.775806378981351 ], [ -1.282039172101202, 51.775746072565987 ], [ -1.282028637442379, 51.775679492231816 ], [ -1.282017944519917, 51.775622798556093 ], [ -1.282007365696321, 51.775558914410816 ], [ -1.281999670655755, 51.775494059736189 ], [ -1.281984355312915, 51.775367226226479 ], [ -1.28198078918526, 51.77531327251635 ], [ -1.281980182891358, 51.775261135116928 ], [ -1.281986652418983, 51.775222433314823 ], [ -1.281989876937585, 51.775199982183821 ], [ -1.28199168097574, 51.775176622360924 ], [ -1.281991852086167, 51.775165836658012 ], [ -1.281989156573776, 51.775155034353006 ], [ -1.281984891773505, 51.775145120688471 ], [ -1.281976430190127, 51.77513608052174 ], [ -1.281996768007412, 51.775127216180913 ], [ -1.282008485953214, 51.775119197433966 ], [ -1.2820231779607, 51.775112096861662 ], [ -1.282046462476266, 51.775105052338759 ], [ -1.282061031604134, 51.7750988447373 ], [ -1.282075676049845, 51.77508724916509 ], [ -1.282096202503485, 51.775073891255651 ], [ -1.28211550197024, 51.775062593829958 ], [ -1.282159133897874, 51.775039219581586 ], [ -1.282213063678567, 51.775014380562375 ], [ -1.282278747471061, 51.774986916788095 ], [ -1.282334203660906, 51.774963884370329 ], [ -1.28238970253015, 51.774938156623818 ], [ -1.28244669307282, 51.774908751558485 ], [ -1.282476000730911, 51.774891852475491 ], [ -1.282585599783174, 51.774830498864773 ], [ -1.282622162177085, 51.774808251075356 ], [ -1.282676297195096, 51.774778019272254 ], [ -1.282733314406707, 51.774746906801042 ], [ -1.282787392290235, 51.774720271080128 ], [ -1.282867676698626, 51.774683907509456 ], [ -1.282907062708819, 51.774664372412111 ], [ -1.282975862043103, 51.77462883695965 ], [ -1.283043003062294, 51.774592303224132 ], [ -1.283092736564769, 51.774568337340753 ], [ -1.283149610874653, 51.774546212303846 ], [ -1.283215293421286, 51.774518747999387 ], [ -1.283267802957061, 51.774493000720391 ], [ -1.283324820852836, 51.774461887966694 ], [ -1.283370232099131, 51.774431603581917 ], [ -1.283431783816518, 51.774393327237398 ], [ -1.283472703662036, 51.774367509251242 ], [ -1.283525374379293, 51.774339067276124 ], [ -1.283573583696244, 51.77431329366307 ], [ -1.283623368465616, 51.774278451207387 ], [ -1.283664479499816, 51.774248140514921 ], [ -1.28368054232017, 51.774237451603341 ], [ -1.283696738182881, 51.774225865278517 ], [ -1.283709947202412, 51.774214260759926 ], [ -1.283717420232578, 51.774202620405788 ], [ -1.283723341134716, 51.774190971497163 ], [ -1.283726322926338, 51.774183798491954 ], [ -1.283727976051115, 51.77417751651506 ], [ -1.283726536272079, 51.774170317479701 ], [ -1.283722348796647, 51.774163100810448 ], [ -1.283713725541148, 51.774156756245368 ], [ -1.283705192681464, 51.774152209572016 ], [ -1.283620479083708, 51.774098660759797 ], [ -1.283576005836072, 51.774069626985082 ], [ -1.283517189160163, 51.774033313745889 ], [ -1.283431000027748, 51.773982362356158 ], [ -1.283217049558728, 51.773857015901179 ], [ -1.283156679901198, 51.77382069301391 ], [ -1.283070610439738, 51.773769831997718 ], [ -1.282985854147281, 51.773718978923725 ], [ -1.282931382339619, 51.773679995414014 ], [ -1.282884101819147, 51.773647258761549 ], [ -1.282833852307989, 51.773620885043705 ], [ -1.282784874552067, 51.773597215522607 ], [ -1.282687109226035, 51.773545384672815 ], [ -1.282615255794628, 51.773509890580705 ], [ -1.28249729298115, 51.773450744300575 ], [ -1.282452721350735, 51.773428001540729 ], [ -1.282369348929258, 51.773387942311125 ], [ -1.282264375520504, 51.773338673672569 ], [ -1.282201068105741, 51.773306827063415 ], [ -1.282117767399012, 51.773262274286026 ], [ -1.282063084490121, 51.773236772293444 ], [ -1.281978144980648, 51.773197602337689 ], [ -1.28191632018665, 51.773170259329902 ], [ -1.281878834134801, 51.773152951640547 ], [ -1.281831453689041, 51.773126595008456 ], [ -1.281782624344402, 51.773101128629307 ], [ -1.281732213000924, 51.773077450809161 ], [ -1.281709247330634, 51.773063827330581 ], [ -1.281680553912216, 51.773042079473726 ], [ -1.281601715159749, 51.772987576036329 ], [ -1.281525847648006, 51.77293407972995 ], [ -1.281436936197085, 51.772874211629059 ], [ -1.281402565734853, 51.772848833432327 ], [ -1.281365278476241, 51.772818942697199 ], [ -1.281260918306095, 51.77273111540611 ], [ -1.281242298325463, 51.772714732017853 ], [ -1.281187971960322, 51.772666760065377 ], [ -1.281129417403714, 51.77261426843603 ], [ -1.281089333992316, 51.772579866713521 ], [ -1.281037867627024, 51.7725400024623 ], [ -1.280990716756459, 51.772499264552167 ], [ -1.280937866966582, 51.772448605045142 ], [ -1.280876340530864, 51.772395106082662 ], [ -1.280827912363611, 51.772344473561844 ], [ -1.280763516894916, 51.772291046906162 ], [ -1.280723527202736, 51.772258443870733 ], [ -1.280690733660894, 51.77222408569483 ], [ -1.280665066253557, 51.772192468459998 ], [ -1.280653734491252, 51.772176220365957 ], [ -1.280640952370306, 51.772160860721904 ], [ -1.280605163961107, 51.77213457539159 ], [ -1.280556364956215, 51.772107310438479 ], [ -1.280508810382369, 51.772084548682869 ], [ -1.280441234906252, 51.772050786846663 ], [ -1.280386538665232, 51.772026183102788 ], [ -1.280349201550055, 51.772007078487285 ], [ -1.280320466585017, 51.77198802650107 ], [ -1.280286111715504, 51.771961748945571 ], [ -1.280253262986377, 51.771930986790856 ], [ -1.280226281678952, 51.771899361416381 ], [ -1.280202196836254, 51.771865956420498 ], [ -1.280176572863422, 51.771831641978679 ], [ -1.28015228943313, 51.771810819854146 ], [ -1.280089763462222, 51.771737539084278 ], [ -1.280068432292534, 51.771711341187043 ], [ -1.280034349390431, 51.771667987315936 ], [ -1.280003034311315, 51.7716309424288 ], [ -1.279985875585602, 51.771612860351674 ], [ -1.27994903939041, 51.771562298427803 ], [ -1.279923550345206, 51.771527086532394 ], [ -1.279899390000953, 51.771490983645947 ], [ -1.27988968220184, 51.77147025071276 ], [ -1.279841510517048, 51.771396158576948 ], [ -1.279828844712772, 51.771373610181506 ], [ -1.27981210085852, 51.771329463299679 ], [ -1.27979844377743, 51.771279043269018 ], [ -1.279781791668872, 51.771236694286983 ], [ -1.279760918544536, 51.771181735352265 ], [ -1.279732873697206, 51.771119452305982 ], [ -1.279719088041738, 51.771077121768514 ], [ -1.279709662052881, 51.771031221446464 ], [ -1.279699101791701, 51.770966438925655 ], [ -1.279688327036127, 51.770915137411201 ], [ -1.279671856674178, 51.770853914272863 ], [ -1.279647169190215, 51.770768280909103 ], [ -1.279626425164484, 51.77070523334266 ], [ -1.279617013636752, 51.770658434876388 ], [ -1.279613098898393, 51.770634141816693 ], [ -1.279606196135027, 51.770609829554054 ], [ -1.279589401393937, 51.770576469079209 ], [ -1.279565470683144, 51.770525986079235 ], [ -1.279520229880769, 51.770455507336855 ], [ -1.279426735000683, 51.770323700572142 ], [ -1.279398332008633, 51.770283976890461 ], [ -1.279374391720763, 51.770241583183676 ], [ -1.27935888734914, 51.770217219095564 ], [ -1.279343249870508, 51.770193752411728 ], [ -1.279306202320257, 51.770156582285686 ], [ -1.279269224956323, 51.770115007782429 ], [ -1.279227983932768, 51.770063519498507 ], [ -1.279174149472095, 51.769984988462639 ], [ -1.279142979374556, 51.769938955704205 ], [ -1.279110460643876, 51.769887520841039 ], [ -1.279073699808276, 51.769832375363947 ], [ -1.279029621619544, 51.769779072270737 ], [ -1.278949742248407, 51.769700381452452 ], [ -1.278931237449868, 51.769676897130459 ], [ -1.278917338446204, 51.769641756064686 ], [ -1.278909003060994, 51.769617435870686 ], [ -1.278899248878893, 51.769592207854899 ], [ -1.278873877725647, 51.769549715353477 ], [ -1.27883537648479, 51.76950633401939 ], [ -1.278715635394966, 51.769379758637022 ], [ -1.278678544626952, 51.76934537441764 ], [ -1.278625659568066, 51.769297410078501 ], [ -1.278582819243891, 51.769263889681199 ], [ -1.278541396441534, 51.769223995100816 ], [ -1.278505696074582, 51.76919231582049 ], [ -1.278451233543574, 51.76915333113952 ], [ -1.278405392672831, 51.769120690488386 ], [ -1.278372532953503, 51.769090825940587 ], [ -1.278338410647675, 51.769050167773877 ], [ -1.27830997930165, 51.769012240986534 ], [ -1.278283044062442, 51.768977918960559 ], [ -1.278240157127893, 51.76893990344071 ], [ -1.278201645557344, 51.76889733103792 ], [ -1.278161816908779, 51.768854839550848 ], [ -1.27811749564083, 51.768816815180948 ], [ -1.27805031382509, 51.768758876074742 ], [ -1.277978738409884, 51.76869911081198 ], [ -1.277908659187772, 51.768642951177931 ], [ -1.277842797733958, 51.768592120420777 ], [ -1.277662377984729, 51.768457081906817 ], [ -1.277632300802697, 51.768432628068375 ], [ -1.277510471546265, 51.768347385602816 ], [ -1.277466038005222, 51.76831655146686 ], [ -1.277444593735231, 51.768297543551313 ], [ -1.277411693629329, 51.768270285932644 ], [ -1.277341529692246, 51.768219518364546 ], [ -1.27723688654599, 51.768150561812249 ], [ -1.277179588923364, 51.76810975996289 ], [ -1.277150843403711, 51.768091606237398 ], [ -1.277126447109554, 51.768077973049351 ], [ -1.277041781344928, 51.768022622346784 ], [ -1.277011688993576, 51.767999066475674 ], [ -1.276994595679364, 51.767984579934797 ], [ -1.276960346238545, 51.767951920060149 ], [ -1.276903379284607, 51.767890447499468 ], [ -1.276834880751353, 51.767825307511551 ], [ -1.276734353970602, 51.767723118200919 ], [ -1.276704376860806, 51.767692371781813 ], [ -1.276645033717702, 51.767637536179954 ], [ -1.276539038918856, 51.767563626409128 ], [ -1.27650345043743, 51.767525205578444 ], [ -1.276492033696584, 51.767514349474141 ], [ -1.27649133080996, 51.767513446027941 ], [ -1.276489912117647, 51.767512538177847 ], [ -1.276489090398762, 51.767511634899648 ], [ -1.276487670257554, 51.767510727040616 ], [ -1.276486968820071, 51.767509823603291 ], [ -1.276485548678949, 51.767508915744223 ], [ -1.276481283955415, 51.767506642600516 ], [ -1.276463955823162, 51.767499344813054 ], [ -1.276398359495791, 51.767476919018364 ], [ -1.276340015763501, 51.76745678562132 ], [ -1.276241883126921, 51.76742921524734 ], [ -1.276216047219542, 51.767416022568241 ], [ -1.276085129628174, 51.767354094436037 ], [ -1.276057954162704, 51.767334961069686 ], [ -1.276042961419223, 51.767323632447017 ], [ -1.276029282905389, 51.767312312812251 ], [ -1.27600712391099, 51.767293300228722 ], [ -1.276004306662819, 51.767290136856957 ], [ -1.275997239114623, 51.767283801290574 ], [ -1.275993578610479, 51.767281082287944 ], [ -1.275990044113094, 51.767277914500035 ], [ -1.275984290804129, 51.767271587024091 ], [ -1.275952444497951, 51.767223301418817 ], [ -1.275926861849148, 51.767149437488541 ], [ -1.275917134295127, 51.767122680866436 ], [ -1.275908333820067, 51.767105189109145 ], [ -1.275905592787606, 51.767097261757137 ], [ -1.275902669669041, 51.767093289420302 ], [ -1.275901026287637, 51.767091391145357 ], [ -1.275898682910702, 51.767088500425288 ], [ -1.275896920709462, 51.767086692230023 ], [ -1.275895973006789, 51.767086146921478 ], [ -1.275895261510822, 51.767085782891712 ], [ -1.275894550025877, 51.767085508774237 ], [ -1.27589383852993, 51.76708514474447 ], [ -1.275893006779188, 51.767084869886446 ], [ -1.275892292407308, 51.767084685663391 ], [ -1.275891341839783, 51.767084410073714 ], [ -1.275890507202119, 51.767084225110089 ], [ -1.27588883794879, 51.767084035007336 ], [ -1.275886809332688, 51.76708384359091 ], [ -1.275824252955523, 51.767065660265423 ], [ -1.275790267044877, 51.767054125634658 ], [ -1.275741354184274, 51.767034498676907 ], [ -1.27572246205575, 51.76702045042947 ], [ -1.275720340516314, 51.767018640018371 ], [ -1.275718091534206, 51.767017277484136 ], [ -1.275715969995096, 51.767015467072973 ], [ -1.275710335574195, 51.767009140315409 ], [ -1.275705299584796, 51.767002817243345 ], [ -1.275693969454488, 51.766986567760725 ], [ -1.275681923535253, 51.766970313868256 ], [ -1.275677006370578, 51.766963991526779 ], [ -1.275671253145007, 51.766957664035509 ], [ -1.275669145994727, 51.766954954590105 ], [ -1.275666321598981, 51.766952240726916 ], [ -1.275664214449232, 51.766949531281448 ], [ -1.275661269788694, 51.766946816677383 ], [ -1.275652776492038, 51.766940022746923 ], [ -1.275647008888287, 51.766934594287811 ], [ -1.275598254416993, 51.766905080601099 ], [ -1.27558885316219, 51.766902775783628 ], [ -1.27557873322889, 51.766900465639146 ], [ -1.275569324782996, 51.766898610336789 ], [ -1.275540364963729, 51.766893936325069 ], [ -1.275537497433652, 51.766893918659761 ], [ -1.27553392128682, 51.766893447967114 ], [ -1.275531060935831, 51.766892981683981 ], [ -1.275516485653217, 51.766892891891658 ], [ -1.275508593128702, 51.76689329193016 ], [ -1.275500574579623, 51.766894141651804 ], [ -1.27541198100344, 51.766905280801367 ], [ -1.275388745580699, 51.766908733221818 ], [ -1.2753764120648, 51.766910455469244 ], [ -1.27534159633984, 51.76691338696282 ], [ -1.275331426063405, 51.766914222514565 ], [ -1.275309653888473, 51.766915886591455 ], [ -1.27529877499618, 51.766916269111746 ], [ -1.275285745817423, 51.766916638379634 ], [ -1.275272000856768, 51.766917002335838 ], [ -1.275240115941082, 51.766915907610525 ], [ -1.275200228339942, 51.766914761755274 ], [ -1.275172032640596, 51.76691458797216 ], [ -1.275161168127418, 51.766914072345514 ], [ -1.275127119999224, 51.766913862479015 ], [ -1.275087890616367, 51.7669163171308 ], [ -1.275035723520029, 51.766920939817545 ], [ -1.274989290042145, 51.766925596930697 ], [ -1.274944296781263, 51.766929814243362 ], [ -1.274876063748953, 51.766937932493086 ], [ -1.274816444794433, 51.766945204701194 ], [ -1.27479394093957, 51.766947763292656 ], [ -1.274772154342143, 51.766950325403975 ], [ -1.274767839379228, 51.766951197016475 ], [ -1.274762814357261, 51.766951615587949 ], [ -1.274758387764338, 51.766952037849798 ], [ -1.274732320728049, 51.766953225771914 ], [ -1.274683780095842, 51.766955173302129 ], [ -1.274625660373299, 51.766958410409728 ], [ -1.274559059755908, 51.766961595171971 ], [ -1.274458961840285, 51.766967269701738 ], [ -1.274374769290139, 51.766972143167237 ], [ -1.274287813592799, 51.766977898642871 ], [ -1.274268200294529, 51.766979126288611 ], [ -1.274234085846881, 51.766982960005095 ], [ -1.274131738131586, 51.766994912427471 ], [ -1.274057642314215, 51.767003443575838 ], [ -1.274030830615111, 51.767006424090575 ], [ -1.274003190043842, 51.767008950820248 ], [ -1.273968374158153, 51.767011881906463 ], [ -1.273950305502649, 51.767013567697418 ], [ -1.273922664937127, 51.767016093509099 ], [ -1.273868225613692, 51.767020791561151 ], [ -1.273814631023858, 51.767024953532911 ], [ -1.27375289031404, 51.767030415654212 ], [ -1.273744397871164, 51.767030992593 ], [ -1.273707202675406, 51.767033279522536 ], [ -1.273694876274997, 51.767034552076609 ], [ -1.273682562848597, 51.767034925587517 ], [ -1.273669526426745, 51.767035743293555 ], [ -1.273661522243209, 51.767035693856563 ], [ -1.273659364739984, 51.767036130091888 ], [ -1.273656497202092, 51.767036112380673 ], [ -1.273653518059696, 51.76703564441906 ], [ -1.273647782983981, 51.767035608996267 ], [ -1.273646357137321, 51.767035151527544 ], [ -1.273643489599499, 51.767035133816016 ], [ -1.273640517669557, 51.767034216337585 ], [ -1.2736376573585, 51.767033748210388 ], [ -1.273631832286926, 51.767031915785154 ], [ -1.273629696420694, 51.767031003470528 ], [ -1.273627567766911, 51.767029641639397 ], [ -1.273624772324671, 51.767025130560803 ], [ -1.27362342436619, 51.767019728401749 ], [ -1.273622063417736, 51.767015226183538 ], [ -1.27362059087335, 51.767010182903725 ], [ -1.273617867543256, 51.767001177559315 ], [ -1.273617231054452, 51.766996230254911 ], [ -1.273616585918747, 51.766991731558946 ], [ -1.273616665227152, 51.766986788675837 ], [ -1.273607928862033, 51.766942960056895 ], [ -1.273606872229707, 51.766919491839495 ], [ -1.27359750402058, 51.76685552617527 ], [ -1.273597189378091, 51.766852737852446 ], [ -1.273574835419459, 51.76674922950432 ], [ -1.27349340746396, 51.766358440051249 ], [ -1.273417530297578, 51.765986649993302 ], [ -1.273370783717276, 51.765735488075613 ], [ -1.273260550252197, 51.765114859377348 ], [ -1.273248618038351, 51.76504692168006 ], [ -1.273222096312948, 51.764845860567554 ], [ -1.27315127702204, 51.764293340114421 ], [ -1.273099068459267, 51.763802057854704 ], [ -1.273075819413161, 51.76357584955332 ], [ -1.273058585629375, 51.763384194841173 ], [ -1.273042840235532, 51.763196593574662 ], [ -1.273036484669526, 51.763138577957825 ], [ -1.27303240525996, 51.763080125950808 ], [ -1.273032426897332, 51.763078778299722 ], [ -1.273031731365248, 51.763077425315949 ], [ -1.273031781871735, 51.763074279598001 ], [ -1.273031086325293, 51.763072927513278 ], [ -1.273031187338328, 51.763066636077347 ], [ -1.273031926173867, 51.763065291960842 ], [ -1.273031955028509, 51.763063494793016 ], [ -1.273032686646697, 51.763062600193223 ], [ -1.273032715501307, 51.76306080302539 ], [ -1.273033445670584, 51.763059908416643 ], [ -1.273035647727608, 51.763056775999495 ], [ -1.273041460224014, 51.763051867656486 ], [ -1.273046655573796, 51.763048305081128 ], [ -1.273045740695719, 51.763015940000777 ], [ -1.273042887847204, 51.76301502324214 ], [ -1.273040626158462, 51.763014559699236 ], [ -1.273039206212616, 51.763013652697687 ], [ -1.273037780512902, 51.763013194322774 ], [ -1.273030564934113, 51.763008655002032 ], [ -1.273029153654775, 51.763007298492617 ], [ -1.273027735172674, 51.76300639060085 ], [ -1.273027039641824, 51.763005037617049 ], [ -1.273024215663696, 51.763002322791053 ], [ -1.273019925065301, 51.762994207758702 ], [ -1.272999058332454, 51.762671745068175 ], [ -1.272999123261025, 51.762667701215591 ], [ -1.272999854887819, 51.762666805716869 ], [ -1.273000593703191, 51.762665462499463 ], [ -1.272983951184661, 51.762489092891038 ], [ -1.272984167654753, 51.762475610984602 ], [ -1.272983025789225, 51.76244998611957 ], [ -1.272983220606515, 51.762437852763334 ], [ -1.272984125379655, 51.762426173357653 ], [ -1.272985156188764, 51.762414044270663 ], [ -1.272985343787672, 51.762402360431075 ], [ -1.272983570843816, 51.762386349580382 ], [ -1.272981487655603, 51.762367280693269 ], [ -1.272978184641932, 51.762349732773238 ], [ -1.272961017857946, 51.762287964798567 ], [ -1.272942498078763, 51.762228524376376 ], [ -1.272939685215413, 51.762217721107987 ], [ -1.272936274001671, 51.762206913240867 ], [ -1.272933579945005, 51.762196110706803 ], [ -1.272933601599068, 51.762194762156511 ], [ -1.272932900314066, 51.762193858697771 ], [ -1.272932921953711, 51.762192511046493 ], [ -1.272932219219931, 51.762191607578778 ], [ -1.272931404885881, 51.762190254758757 ], [ -1.272935302932794, 51.762178143399503 ], [ -1.272936034523965, 51.76217724969915 ], [ -1.272937489068288, 51.762175910008175 ], [ -1.272940370733721, 51.762175028702217 ], [ -1.272942535215051, 51.762174143861095 ], [ -1.272945535684119, 51.762173263289561 ], [ -1.272949843021614, 51.762172840359391 ], [ -1.272954987781247, 51.76217242260654 ], [ -1.272959295118578, 51.762171999676006 ], [ -1.272983917871601, 51.762171253683746 ], [ -1.27305555529052, 51.762173943464276 ], [ -1.273140333584181, 51.76217671442712 ], [ -1.273169347876132, 51.762177791987888 ], [ -1.273198234672579, 51.762179320113127 ], [ -1.273206237996526, 51.762179369578369 ], [ -1.273209098025601, 51.762179835917166 ], [ -1.273217101349657, 51.762179885381684 ], [ -1.273219961364436, 51.762180352619247 ], [ -1.273222104209576, 51.762180815424344 ], [ -1.273225083028353, 51.762181283396075 ], [ -1.273228660213043, 51.762181755065782 ], [ -1.273232945903684, 51.762182680675622 ], [ -1.273236627476861, 51.76218405121395 ], [ -1.273240195998093, 51.762184972391182 ], [ -1.273247320074445, 51.762187712888895 ], [ -1.273339306672633, 51.762195472532845 ], [ -1.2733399358548, 51.762200869359255 ], [ -1.273360442004103, 51.76223335550209 ], [ -1.273374078842434, 51.762239731827734 ], [ -1.273387722898158, 51.762245658634974 ], [ -1.273405047078104, 51.762252956863826 ], [ -1.273422969645005, 51.762260257888208 ], [ -1.273441019669213, 51.762267111035094 ], [ -1.27347272675266, 51.76227899193406 ], [ -1.273505889818482, 51.762289534034501 ], [ -1.273515163993225, 51.762292287799134 ], [ -1.27352456561988, 51.762294593688104 ], [ -1.27353468298468, 51.7622969030989 ], [ -1.273544083178881, 51.762299208078375 ], [ -1.273554209192012, 51.762301068878621 ], [ -1.273563615157521, 51.762303014243102 ], [ -1.273573748384029, 51.762304425524889 ], [ -1.273581617068906, 51.762305372356401 ], [ -1.273589614653111, 51.762305871321409 ], [ -1.273597603577202, 51.76230681979375 ], [ -1.273605479459977, 51.762307318005924 ], [ -1.273612759873011, 51.762307812539284 ], [ -1.273655525044348, 51.76230807669576 ], [ -1.273664252774463, 51.762307681042849 ], [ -1.273681603851276, 51.762305989967636 ], [ -1.273689621605124, 51.762305141265436 ], [ -1.273696093435884, 51.762303832553975 ], [ -1.273702679750991, 51.762302884198327 ], [ -1.273709271819668, 51.762301577127943 ], [ -1.273712869201145, 51.762300700223534 ], [ -1.273715758069922, 51.762299369381722 ], [ -1.273718639713854, 51.762298488955707 ], [ -1.273721647386511, 51.762297158847502 ], [ -1.273724529044614, 51.762296277522324 ], [ -1.273730306766326, 51.762293616737068 ], [ -1.273733307213794, 51.76229273704444 ], [ -1.273736196081463, 51.76229140620211 ], [ -1.273755185337633, 51.762284332295287 ], [ -1.273772628636372, 51.762276800175719 ], [ -1.273779235132967, 51.762274593168605 ], [ -1.273784996980714, 51.762272831405397 ], [ -1.273790887739319, 51.762270620876613 ], [ -1.273796642391056, 51.762269307730641 ], [ -1.273801801558635, 51.762267991806119 ], [ -1.273811983801324, 51.762266256440455 ], [ -1.273817732691474, 51.762265392819245 ], [ -1.273822883214382, 51.762264525502637 ], [ -1.273828632089692, 51.762263662779937 ], [ -1.273833775403088, 51.762263244979721 ], [ -1.273839524306868, 51.762262380458402 ], [ -1.273849706518041, 51.762260646887547 ], [ -1.273899804762407, 51.762250619023128 ], [ -1.273916593454563, 51.762246678432128 ], [ -1.273933277770404, 51.762241837172404 ], [ -1.273967516927246, 51.762229914011954 ], [ -1.273991679693611, 51.762220625100774 ], [ -1.274016446574882, 51.762210890352861 ], [ -1.274027403595417, 51.762205565059062 ], [ -1.274037643443229, 51.762200235336771 ], [ -1.274048600473125, 51.762194909141911 ], [ -1.274058721512117, 51.762189578684342 ], [ -1.274077036731212, 51.762179804095453 ], [ -1.274095596771671, 51.762169761278145 ], [ -1.274017963003363, 51.762071576148351 ], [ -1.274159665355308, 51.762040990578832 ], [ -1.274165540219615, 51.76203967815686 ], [ -1.274172011998843, 51.762038369418931 ], [ -1.274189517756334, 51.762034433215021 ], [ -1.274195279572056, 51.762032670532435 ], [ -1.274210656887674, 51.762027372504143 ], [ -1.274286346713593, 51.762000873148807 ], [ -1.274368777497808, 51.761971180297557 ], [ -1.274396411378618, 51.761961463160958 ], [ -1.274423328081339, 51.761951741592746 ], [ -1.274508725264363, 51.761915864797992 ], [ -1.274609415284296, 51.761872441532851 ], [ -1.274726825175363, 51.761821930120981 ], [ -1.274853032932958, 51.761766529467948 ], [ -1.274885881788488, 51.761751900997822 ], [ -1.274918737835401, 51.761736822102385 ], [ -1.274950878117787, 51.7617217405828 ], [ -1.274964729454081, 51.761714634801692 ], [ -1.274979299397344, 51.76170753344956 ], [ -1.275007138128468, 51.761692424494207 ], [ -1.275016662031717, 51.761687090272744 ], [ -1.275035603964694, 51.761675432139697 ], [ -1.275045142254849, 51.761669198881833 ], [ -1.275056866562958, 51.761660731292721 ], [ -1.275067873690656, 51.761652260180306 ], [ -1.27507888801079, 51.761643339549821 ], [ -1.275080335278092, 51.761642449348919 ], [ -1.275081074014832, 51.761641106117906 ], [ -1.275082521282006, 51.761640215917005 ], [ -1.275084095996968, 51.761638876940317 ], [ -1.275084827537023, 51.761637983226322 ], [ -1.275086282000539, 51.761636643508325 ], [ -1.275089177968769, 51.761634864014319 ], [ -1.275090632432039, 51.761633524296236 ], [ -1.275103023509268, 51.761628207742589 ], [ -1.275104346216089, 51.761627676422663 ], [ -1.27517603568369, 51.761597197493387 ], [ -1.275211057379675, 51.761581233641344 ], [ -1.275268735529551, 51.761552825291147 ], [ -1.275281133758401, 51.761547059201426 ], [ -1.2752935377441, 51.761540842685335 ], [ -1.275305935952131, 51.761535077491992 ], [ -1.275320489947108, 51.76152887512206 ], [ -1.27533588134873, 51.761522677910868 ], [ -1.27537661427873, 51.7615080978889 ], [ -1.275418877303534, 51.761494874166893 ], [ -1.27554478995855, 51.761457898475349 ], [ -1.275693259525022, 51.761414768628761 ], [ -1.275867261804032, 51.761366312976364 ], [ -1.276024317952978, 51.761324132912378 ], [ -1.276145841939938, 51.761292523396293 ], [ -1.27619095015935, 51.761280665595187 ], [ -1.276236769760469, 51.761269262615734 ], [ -1.27628257352081, 51.761258758643748 ], [ -1.276320457004727, 51.761250451920681 ], [ -1.276358214475233, 51.761242594870474 ], [ -1.276390933207775, 51.761236054587421 ], [ -1.276401832261759, 51.7612343243079 ], [ -1.276472179170004, 51.761228015538045 ], [ -1.276599780783038, 51.761219812047912 ], [ -1.27662596182364, 51.76121862441957 ], [ -1.276651301174442, 51.761217881169379 ], [ -1.276677356216315, 51.76121714321507 ], [ -1.276698388352864, 51.761216823021996 ], [ -1.276719411860185, 51.761216952333484 ], [ -1.276740428187683, 51.761217531158444 ], [ -1.27675058136409, 51.761217593605473 ], [ -1.276752022853956, 51.761217152909879 ], [ -1.27676361034031, 51.761217224177422 ], [ -1.276765036021803, 51.76121768250723 ], [ -1.276767186038057, 51.761217695730515 ], [ -1.276768613168411, 51.761218154069169 ], [ -1.276770881986116, 51.761218168023056 ], [ -1.276773024837112, 51.761218629864423 ], [ -1.276774451967555, 51.761219088203021 ], [ -1.276775870469606, 51.761219996049903 ], [ -1.276780148963617, 51.761221371047718 ], [ -1.276781568943378, 51.761222277105382 ], [ -1.276783113412308, 51.761222737064649 ], [ -1.276785951880206, 51.761224551868082 ], [ -1.276786654676329, 51.761225455313195 ], [ -1.276788080358316, 51.761225913642683 ], [ -1.276789493130169, 51.761227271015557 ], [ -1.276790911647148, 51.761228177963247 ], [ -1.27679161444341, 51.761229081408274 ], [ -1.27679314601695, 51.761230439511742 ], [ -1.276793840199419, 51.76123179156604 ], [ -1.2767952457922, 51.761233598456073 ], [ -1.276795224268286, 51.761234946108715 ], [ -1.276795927064751, 51.761235849553721 ], [ -1.276795891182015, 51.761238096240824 ], [ -1.276842833393856, 51.761246025674232 ], [ -1.27684716214477, 51.761244254049004 ], [ -1.276850156732603, 51.761243823802317 ], [ -1.27685232110786, 51.761242937989593 ], [ -1.276854478304195, 51.761242501694021 ], [ -1.27685735983471, 51.761241620291386 ], [ -1.276861793014247, 51.761240749329673 ], [ -1.276866101676558, 51.76124032626435 ], [ -1.276871124596567, 51.761239907591161 ], [ -1.276875552060215, 51.761239485256048 ], [ -1.27690887304844, 51.7612401397163 ], [ -1.276916025899537, 51.76124108282243 ], [ -1.276923304744953, 51.761241576242369 ], [ -1.277047952731429, 51.761283689692817 ], [ -1.277389847462356, 51.761471947300734 ], [ -1.277545042445387, 51.761553798535687 ], [ -1.277621102799997, 51.761593816409217 ], [ -1.277769131342044, 51.76167562332089 ], [ -1.277830778861416, 51.761712945080262 ], [ -1.27787529221143, 51.761738386679653 ], [ -1.277911143971186, 51.761760179483936 ], [ -1.277965681725079, 51.761793772908923 ], [ -1.27807186452157, 51.761862738370056 ], [ -1.278123430832751, 51.761895414355855 ], [ -1.278172223067148, 51.761929869737493 ], [ -1.27819076169447, 51.761943466774419 ], [ -1.278213869589267, 51.76195529450839 ], [ -1.278242577367072, 51.76196805483184 ], [ -1.278264103518399, 51.761981669294457 ], [ -1.278278357865324, 51.761994340899747 ], [ -1.278289714890049, 51.762008792966689 ], [ -1.278298161755051, 51.762026012653912 ], [ -1.278305248789208, 51.762038640268031 ], [ -1.278315158616273, 51.762053982573228 ], [ -1.278373654833207, 51.762109171847598 ], [ -1.278389313500142, 51.762123649402739 ], [ -1.278409277947543, 51.762145345458613 ], [ -1.278464763943161, 51.76220950474265 ], [ -1.278547214446734, 51.762313380034257 ], [ -1.278557163136458, 51.76231883490609 ], [ -1.278568755163308, 51.76232609630565 ], [ -1.278584512759072, 51.762334373192864 ], [ -1.278590175655183, 51.762338901747711 ], [ -1.278597332959792, 51.762347035960055 ], [ -1.278617412176342, 51.762361540602456 ], [ -1.27863020376226, 51.762376000536307 ], [ -1.278642895111401, 51.762396752812272 ], [ -1.278661139103491, 51.762436414426119 ], [ -1.278665238798239, 51.76244902369254 ], [ -1.278710786804794, 51.762499639552857 ], [ -1.2787252031931, 51.762509615627792 ], [ -1.278742439613372, 51.762515115183298 ], [ -1.278884748701405, 51.762588795281694 ], [ -1.278901425488869, 51.762629347267392 ], [ -1.27890851279882, 51.762641973945854 ], [ -1.278908530975182, 51.762642015416979 ], [ -1.278950761734599, 51.762719625873004 ], [ -1.27895893991727, 51.762753832780696 ], [ -1.278999538586785, 51.762837675816975 ], [ -1.279017711502367, 51.762881831648528 ], [ -1.279068124837898, 51.762994589468668 ], [ -1.279122911635565, 51.763102788550484 ], [ -1.27916072946709, 51.763181221541799 ], [ -1.279199655632139, 51.763287615925925 ], [ -1.279255376712653, 51.763427281854895 ], [ -1.27930384978182, 51.763556411475321 ], [ -1.279388078449737, 51.76375122617528 ], [ -1.279439764775014, 51.763859957254311 ], [ -1.279528086680955, 51.764045754450152 ], [ -1.279597673195772, 51.764132471319243 ], [ -1.279621517163432, 51.764162791028397 ], [ -1.279710464275327, 51.764254539230521 ], [ -1.279734628934085, 51.764272724529043 ], [ -1.279743145251514, 51.764278169625094 ], [ -1.279744655577823, 51.764280875342948 ], [ -1.279748912998895, 51.764283598785312 ], [ -1.279750303067263, 51.764286303766539 ], [ -1.279753141845756, 51.764288118498584 ], [ -1.279754531914501, 51.764290823479755 ], [ -1.279757490937626, 51.764292639847262 ], [ -1.279758881006781, 51.764295344828405 ], [ -1.279764487072851, 51.764303468565792 ], [ -1.279765905731299, 51.764304376376735 ], [ -1.279770226237615, 51.764310694895052 ], [ -1.279781612916291, 51.764323348747062 ], [ -1.279788800796889, 51.764329684825888 ], [ -1.279790219456644, 51.764330592636526 ], [ -1.279795854120068, 51.764336919202321 ], [ -1.27980304055591, 51.764343255271378 ], [ -1.279834523494385, 51.764369514528923 ], [ -1.279840185305574, 51.764374043913598 ], [ -1.279847387502246, 51.764379480954247 ], [ -1.279856022663115, 51.764384926769765 ], [ -1.279863104590363, 51.764390363972062 ], [ -1.279871739755197, 51.764395809786386 ], [ -1.27987459283043, 51.764396726379957 ], [ -1.279883240848106, 51.764401273150021 ], [ -1.279891876003134, 51.764406719861945 ], [ -1.279901959885585, 51.7644112754232 ], [ -1.279910489084584, 51.764415822362785 ], [ -1.279920585806144, 51.764419479778027 ], [ -1.279930669694325, 51.764424035336845 ], [ -1.279969666532434, 51.764435959108091 ], [ -1.279994118910112, 51.764445996470933 ], [ -1.279998392107515, 51.764447820878551 ], [ -1.280004202797344, 51.764450552922504 ], [ -1.280008474560978, 51.76445237642185 ], [ -1.280012852287269, 51.764455099691936 ], [ -1.280017124037386, 51.764456924090013 ], [ -1.280021381505704, 51.764459646623479 ], [ -1.280024324819599, 51.764462361110986 ], [ -1.280031421075424, 51.764466899268633 ], [ -1.280034245580336, 51.764469613028488 ], [ -1.280038623309854, 51.764472336297636 ], [ -1.280041433519494, 51.764475949091938 ], [ -1.280047201342066, 51.764481377338505 ], [ -1.280050010104035, 51.764484990123719 ], [ -1.280080001687616, 51.764514836672404 ], [ -1.280119741210828, 51.76456280894719 ], [ -1.280146965533874, 51.764586346481593 ], [ -1.280188325344554, 51.764622553747756 ], [ -1.280235487595393, 51.76466958418046 ], [ -1.280288207338107, 51.764720243296594 ], [ -1.280319646512865, 51.7647491986205 ], [ -1.280335369808217, 51.764767272790181 ], [ -1.280368027732682, 51.764809718793643 ], [ -1.280372258124841, 51.764814239392557 ], [ -1.280373619681578, 51.764818741536558 ], [ -1.280379316154187, 51.764828664040856 ], [ -1.280380677697742, 51.764833167083815 ], [ -1.280383473681748, 51.764837678005485 ], [ -1.280384836674907, 51.764842181057254 ], [ -1.280386646572997, 51.764851387453838 ], [ -1.280407828469248, 51.764873112184162 ], [ -1.280450034112518, 51.764926334121888 ], [ -1.280473029725578, 51.764946179983234 ], [ -1.280493066380415, 51.764963381400484 ], [ -1.280528679146629, 51.76500045250225 ], [ -1.28057258313574, 51.765064539884861 ], [ -1.280633715174414, 51.765142216771544 ], [ -1.280656420941945, 51.76517201769974 ], [ -1.280683438546021, 51.765201036687323 ], [ -1.28070056657911, 51.765220916743374 ], [ -1.280716098541505, 51.765243483501294 ], [ -1.280755788269312, 51.765302152101555 ], [ -1.280767076988573, 51.765321096411988 ], [ -1.280777002627504, 51.76533554037141 ], [ -1.280791215897532, 51.765350907876282 ], [ -1.2808039947344, 51.765366266606726 ], [ -1.280816716469767, 51.765385220575212 ], [ -1.280830768586425, 51.76540644756637 ], [ -1.280942402554875, 51.765547217006045 ], [ -1.281059984542938, 51.765862718483035 ], [ -1.281354371597916, 51.766149989043818 ], [ -1.281705841119424, 51.766228202060368 ], [ -1.282019730065608, 51.766227331606991 ], [ -1.282476450386685, 51.766476478514761 ], [ -1.282577522491206, 51.766581842836352 ], [ -1.282812905886946, 51.766633719305538 ], [ -1.283028788682447, 51.766754888604055 ], [ -1.283662255423531, 51.766851987894505 ], [ -1.284183450968441, 51.76687568577352 ], [ -1.284279086659937, 51.766871133877125 ], [ -1.284491950885314, 51.766859215708031 ], [ -1.28457701331955, 51.766859733222191 ], [ -1.284749072191173, 51.766881992803221 ], [ -1.284767962281418, 51.766881208571697 ], [ -1.284786690945488, 51.766883120719974 ], [ -1.28480979787594, 51.766887755058598 ], [ -1.284825749435175, 51.766891447655361 ], [ -1.284848840723185, 51.766896981012671 ], [ -1.284880626489629, 51.766904365479789 ], [ -1.284944090539152, 51.766918234613108 ], [ -1.284988840132903, 51.766929292563844 ], [ -1.285027870303718, 51.766939417502677 ], [ -1.285068243101408, 51.766947753246946 ], [ -1.285110169239523, 51.766956097520961 ], [ -1.285182397444023, 51.766967323336978 ], [ -1.285235925349021, 51.76697483896433 ], [ -1.285261884257901, 51.766980390568548 ], [ -1.285289353934673, 51.766988646915003 ], [ -1.28532396336913, 51.766998744888014 ], [ -1.285380175883616, 51.76701796264647 ], [ -1.28546954927788, 51.767048167728341 ], [ -1.285515689613219, 51.767061931292197 ], [ -1.285554649092642, 51.76707655033411 ], [ -1.285645425979706, 51.767108651963078 ], [ -1.285731756638995, 51.767142433948003 ], [ -1.285785029601558, 51.767166128365574 ], [ -1.285845576882184, 51.767190765156577 ], [ -1.285977963456598, 51.767243702792364 ], [ -1.28601977663801, 51.767259237227847 ], [ -1.286047028572981, 51.767273785025026 ], [ -1.286078728316241, 51.767286561574693 ], [ -1.286101706572599, 51.767299285171646 ], [ -1.286123251784769, 51.767312000064848 ], [ -1.286159273261273, 51.767331094878777 ], [ -1.286235294277236, 51.767374701547929 ], [ -1.286288496939071, 51.767402889117236 ], [ -1.286327285530378, 51.767428382636226 ], [ -1.286353046495534, 51.767446516000696 ], [ -1.286380156976591, 51.7674700513777 ], [ -1.286400182837473, 51.767488149929719 ], [ -1.286423120237349, 51.767503569680009 ], [ -1.286444523975607, 51.767525272171376 ], [ -1.286496053056852, 51.767568730957251 ], [ -1.286531685507255, 51.76760490120607 ], [ -1.286555971082717, 51.767625722938085 ], [ -1.286574464867879, 51.767650104216145 ], [ -1.28658433770356, 51.76766814024262 ], [ -1.28659569878039, 51.767682592407567 ], [ -1.28661275403036, 51.76769977378013 ], [ -1.286629913931008, 51.767717855805458 ], [ -1.286658469117685, 51.767740588872719 ], [ -1.286679873066052, 51.767762292220269 ], [ -1.286702768203595, 51.767780409022322 ], [ -1.286722822646023, 51.767796710347675 ], [ -1.286741388848455, 51.76781659733021 ], [ -1.286755476021724, 51.767840053629747 ], [ -1.286771125181747, 51.767855429107207 ], [ -1.286784055335027, 51.767868990749008 ], [ -1.286793997642182, 51.767882533370006 ], [ -1.286828155010737, 51.767921391943908 ], [ -1.286838069016912, 51.767936732631945 ], [ -1.286843634313666, 51.767947553139415 ], [ -1.286849304284047, 51.767959272503504 ], [ -1.286850568902681, 51.767970066930395 ], [ -1.286854713855572, 51.767979978803631 ], [ -1.286860383818645, 51.767991699066201 ], [ -1.286868645395799, 51.768013321781595 ], [ -1.286882008305434, 51.768043849757362 ], [ -1.287145654429003, 51.768333417835557 ], [ -1.287148165268872, 51.768337043027024 ], [ -1.287159741183111, 51.768329958887747 ], [ -1.2871929711527, 51.768367013487392 ], [ -1.287223322252587, 51.768404859837617 ], [ -1.287254452889864, 51.768446306489842 ], [ -1.287284983750995, 51.76848792932276 ], [ -1.287304854772262, 51.768515914412895 ], [ -1.287314554072681, 51.768529815163461 ], [ -1.287343284060776, 51.768571876627313 ], [ -1.287370815882534, 51.76861429047166 ], [ -1.287461205317467, 51.768762341692081 ], [ -1.287488881693345, 51.768818327716971 ], [ -1.287517397038606, 51.768874140791553 ], [ -1.287586713756487, 51.769070603288753 ], [ -1.287593426827761, 51.769114778212561 ], [ -1.287600976031002, 51.769158957301585 ], [ -1.287609484427572, 51.769202964174269 ], [ -1.287618828961169, 51.769246975211786 ], [ -1.287630422947661, 51.769292257744596 ], [ -1.287646326279818, 51.769337117717626 ], [ -1.287653613700104, 51.769352351610515 ], [ -1.28766209940285, 51.769367414735193 ], [ -1.287671184954491, 51.769382301668365 ], [ -1.287680270526216, 51.769397187701735 ], [ -1.287689117042748, 51.76941216219852 ], [ -1.287697123176643, 51.769427311428714 ], [ -1.287709612688114, 51.769453634216489 ], [ -1.287721145864891, 51.769480041122719 ], [ -1.287731838727954, 51.769506710876257 ], [ -1.287740497138995, 51.769533550828562 ], [ -1.287747121199716, 51.769560646397224 ], [ -1.287750614351673, 51.769581610778715 ], [ -1.287753152555552, 51.76960257027563 ], [ -1.287756910447102, 51.769644749221619 ], [ -1.287759328384182, 51.769665707989759 ], [ -1.287762583901523, 51.769686670931272 ], [ -1.287766180165365, 51.769705319800714 ], [ -1.287803914123613, 51.76981570952254 ], [ -1.287804390919051, 51.769816630412471 ], [ -1.287805165372706, 51.769817975691893 ], [ -1.28823372741964, 51.77038627015699 ], [ -1.288457571150231, 51.770649336302156 ], [ -1.288687064114998, 51.770986989466472 ], [ -1.288861355955867, 51.771134468029601 ], [ -1.288944405009593, 51.771271327238082 ], [ -1.288979010923193, 51.771434050730178 ], [ -1.289028567306803, 51.771512192601485 ], [ -1.289036067864854, 51.771637088937965 ], [ -1.289704381029882, 51.77288095957713 ], [ -1.289707126754445, 51.772885531104272 ], [ -1.289734961443508, 51.77294700213988 ], [ -1.289746669511915, 51.772977633950902 ], [ -1.28974880917877, 51.772985916083158 ], [ -1.289750711166919, 51.772994197679076 ], [ -1.289752253811788, 51.773002566117711 ], [ -1.289753197945989, 51.773010930941759 ], [ -1.289753801009464, 51.773018125748635 ], [ -1.289756519158979, 51.773050501506638 ], [ -1.289756197402253, 51.77305410413711 ], [ -1.289804806401104, 51.773220254823194 ], [ -1.289812406841457, 51.77322809429544 ], [ -1.289816986995498, 51.773233156128384 ], [ -1.289821448331318, 51.77323821634451 ], [ -1.289825548883585, 51.773243455105039 ], [ -1.289841008259796, 51.773343992786387 ], [ -1.289899120310415, 51.773542622186156 ], [ -1.289899706782901, 51.773543763114397 ], [ -1.289900330539579, 51.773544929443169 ], [ -1.290235796550301, 51.773947695980759 ], [ -1.290991517885643, 51.774297246784322 ], [ -1.291815462839116, 51.774568134899681 ], [ -1.291903210189498, 51.774583063552669 ], [ -1.291968985583156, 51.774602784344992 ], [ -1.292166184794343, 51.77466248790526 ], [ -1.292232080691558, 51.774682210173978 ], [ -1.292327891228291, 51.774706965862471 ], [ -1.292426760456337, 51.774727245173892 ], [ -1.292526743008528, 51.774745106172546 ], [ -1.292702671115933, 51.774774388618049 ], [ -1.292879592381587, 51.774801159235118 ], [ -1.293004558448986, 51.774818629666733 ], [ -1.293129897976501, 51.774835023265922 ], [ -1.29325561664781, 51.774850161140812 ], [ -1.293421936720435, 51.774867159435409 ], [ -1.293589031798381, 51.774880477555918 ], [ -1.293937476279366, 51.774927962935948 ], [ -1.294585106711589, 51.775039802943155 ], [ -1.29539411734619, 51.775210043004378 ], [ -1.295867775246642, 51.775320833504793 ], [ -1.296294627897745, 51.775460014969937 ], [ -1.296323262644853, 51.775470703304222 ], [ -1.296351533809538, 51.775481658292975 ], [ -1.296379440017943, 51.775493061550442 ], [ -1.296407102933296, 51.775504732182497 ], [ -1.296434282016101, 51.775516759561469 ], [ -1.296461097541402, 51.775529145306294 ], [ -1.296487430660157, 51.775541796096952 ], [ -1.296513400221898, 51.775554805254004 ], [ -1.296534854342693, 51.775566079968442 ], [ -1.296555824693511, 51.775577800446058 ], [ -1.296576190919718, 51.775589876954491 ], [ -1.296596074745596, 51.775602311121176 ], [ -1.296615115398083, 51.775615188003258 ], [ -1.29663367214888, 51.775628332623221 ], [ -1.296651266910326, 51.775642010958947 ], [ -1.296667316399334, 51.775655050667069 ], [ -1.296682886294541, 51.775668267328861 ], [ -1.296697973711102, 51.775681660028113 ], [ -1.296712700359358, 51.77569523129111 ], [ -1.29672706485609, 51.77570907012251 ], [ -1.296740830879834, 51.775722994386314 ], [ -1.296754114448296, 51.775737186398601 ], [ -1.296766918383095, 51.775751464554304 ], [ -1.296779361548412, 51.775765921274392 ], [ -1.296859782887365, 51.775840389766891 ], [ -1.296860051079863, 51.775840572992472 ], [ -1.296860788816495, 51.775841320075912 ], [ -1.296909305491234, 51.775886246922212 ], [ -1.297047853453434, 51.776021994298638 ], [ -1.297170158820679, 51.776154835593204 ], [ -1.297187767526864, 51.776172679550875 ], [ -1.297204704034445, 51.776187422921197 ], [ -1.297224669728138, 51.776210013923134 ], [ -1.297234561136063, 51.776227151804861 ], [ -1.29724444005446, 51.776245187831485 ], [ -1.297268174112337, 51.776302047907414 ], [ -1.297294500115948, 51.776376810548506 ], [ -1.297348816199844, 51.776519155492807 ], [ -1.297425197986206, 51.776733631015908 ], [ -1.297440428522313, 51.776784058302972 ], [ -1.297441068029818, 51.776835297546604 ], [ -1.297444839370839, 51.776869476724144 ], [ -1.297475752411918, 51.77693356989306 ], [ -1.297526381999557, 51.777036343152524 ], [ -1.297534845603424, 51.777045382201251 ], [ -1.297540548810344, 51.777055303881589 ], [ -1.297540409304711, 51.777064291545202 ], [ -1.29753726210371, 51.777082249741326 ], [ -1.297529455880771, 51.777115460644126 ], [ -1.297535532188289, 51.77719369874638 ], [ -1.297535722541507, 51.777273788044234 ], [ -1.297540892531361, 51.77731031328014 ], [ -1.297529596966309, 51.777337391127254 ], [ -1.297528788872183, 51.777343228778356 ], [ -1.297527861933511, 51.777349065719619 ], [ -1.297526695856571, 51.777354901232485 ], [ -1.297525531174854, 51.77736064684175 ], [ -1.297554772782413, 51.777517043483861 ], [ -1.297541397854067, 51.777585726449054 ], [ -1.29750825590676, 51.777657437363644 ], [ -1.297473640516226, 51.777785587975934 ], [ -1.297470637751473, 51.777855861388758 ], [ -1.297436428066957, 51.777996328747491 ], [ -1.297415169340089, 51.778095525662607 ], [ -1.297364487747402, 51.778180794768836 ], [ -1.297321308774767, 51.778267726193128 ], [ -1.297261159905492, 51.778331545945896 ], [ -1.297213321364144, 51.778387619588379 ], [ -1.297199159860715, 51.778414499551523 ], [ -1.297191640716767, 51.778429287389827 ], [ -1.297173064168087, 51.778455692306252 ], [ -1.297148604508365, 51.77849159092775 ], [ -1.297128587511385, 51.778518436788453 ], [ -1.297091127543353, 51.778561316689625 ], [ -1.297040035350607, 51.77865474899847 ], [ -1.297037339337337, 51.778660810930354 ], [ -1.297014230521141, 51.778702019702919 ], [ -1.296995711056675, 51.778724829354182 ], [ -1.296913374463793, 51.778801281096534 ], [ -1.296908201549786, 51.778803497071515 ], [ -1.296900954730935, 51.778808397106694 ], [ -1.296895014039541, 51.778813755408372 ], [ -1.296859897211251, 51.778835567595031 ], [ -1.296844497432007, 51.778849856938272 ], [ -1.29682611049266, 51.778864128420068 ], [ -1.296803329569552, 51.778884217003217 ], [ -1.29677274927364, 51.778906329619602 ], [ -1.296772516085388, 51.778906504452657 ], [ -1.296188531631233, 51.77927028793534 ], [ -1.295749786320535, 51.779892999843369 ], [ -1.295697310800324, 51.780069818364616 ], [ -1.295697317599592, 51.780069847177153 ], [ -1.295734694278581, 51.780116867442388 ], [ -1.295736010133823, 51.780117540669778 ], [ -1.295738145665814, 51.780118542488161 ], [ -1.295740521749634, 51.780119455835042 ], [ -1.295744564919315, 51.780120827824568 ], [ -1.29575574748538, 51.780124130713396 ], [ -1.295756341843722, 51.780124314096106 ], [ -1.295762642183151, 51.78012650970669 ], [ -1.295769058590474, 51.78012888493663 ], [ -1.295772027699059, 51.78013016058221 ], [ -1.295775469452197, 51.780131709692498 ], [ -1.295776775671993, 51.780132256985084 ], [ -1.295780688698754, 51.780134167665551 ], [ -1.295781874667943, 51.780134804149945 ], [ -1.295783179488788, 51.780135441345969 ], [ -1.295784245157032, 51.780136077110051 ], [ -1.295785429741197, 51.780136802598911 ], [ -1.295787435180384, 51.780138433020802 ], [ -1.295787906490091, 51.780138885402287 ], [ -1.295789664446454, 51.780141142826515 ], [ -1.295791061550174, 51.780143488002039 ], [ -1.29579221815258, 51.780146011561335 ], [ -1.295793254440059, 51.780148535299375 ], [ -1.29579348381303, 51.780149165156949 ], [ -1.295794521499751, 51.780151598991452 ], [ -1.295796080834436, 51.780158888494668 ], [ -1.29579675911799, 51.780161410089129 ], [ -1.295797796819166, 51.780163843024553 ], [ -1.295798835919532, 51.780166186056455 ], [ -1.295800353325592, 51.780168531952143 ], [ -1.295801751815809, 51.780170788123044 ], [ -1.295803269222174, 51.780173134018682 ], [ -1.295805027180618, 51.78017539144269 ], [ -1.295806666237177, 51.780177558242862 ], [ -1.29584847226951, 51.780255920406788 ], [ -1.295856263409965, 51.780269905194942 ], [ -1.295865235014782, 51.7803000650078 ], [ -1.295869229205857, 51.780319863244564 ], [ -1.29587635749223, 51.780376354408929 ], [ -1.295886081474912, 51.780450389436453 ], [ -1.295899988169181, 51.780567604515191 ], [ -1.295903386852544, 51.780590742109062 ], [ -1.29590349188337, 51.780591165323763 ], [ -1.295903724936867, 51.78059183836077 ], [ -1.296018069442213, 51.780862951730036 ], [ -1.296018056028442, 51.780863068535218 ], [ -1.296012796958011, 51.780924937797124 ], [ -1.295975868447978, 51.781016940277809 ], [ -1.295986894723728, 51.781053409804677 ], [ -1.296005014701594, 51.781186998756098 ], [ -1.296008488745482, 51.781201851415084 ], [ -1.296010498230852, 51.781210865421038 ], [ -1.295990623923367, 51.781366775049733 ], [ -1.296074129484143, 51.781407722621495 ], [ -1.296076975504572, 51.781409089232319 ], [ -1.29607838250279, 51.781410894991708 ], [ -1.296079070559541, 51.781412697347363 ], [ -1.296082670489577, 51.781419460485772 ], [ -1.296087536150607, 51.781429376316964 ], [ -1.296087112416739, 51.7814335987403 ], [ -1.296004676879539, 51.78144685826399 ], [ -1.29599879313266, 51.781448620384587 ], [ -1.295990877239611, 51.781450371240162 ], [ -1.295966027578247, 51.781457412747571 ], [ -1.295932537551714, 51.781466649424864 ], [ -1.295896917466083, 51.78147452736016 ], [ -1.295872904111356, 51.781481573854478 ], [ -1.295831485586135, 51.781493461292641 ], [ -1.295722882581169, 51.781529214550972 ], [ -1.295700311113465, 51.781535820983805 ], [ -1.295659468705563, 51.781549058691361 ], [ -1.295639165616288, 51.781555678696748 ], [ -1.295599054648864, 51.781568021644901 ], [ -1.295417733848429, 51.781622306899536 ], [ -1.295314374971142, 51.781651349603479 ], [ -1.295199381225963, 51.781683109764359 ], [ -1.295200049660652, 51.781686169874796 ], [ -1.295176767558569, 51.781692322389468 ], [ -1.295151292452321, 51.781701158214545 ], [ -1.295119242585306, 51.781709954630934 ], [ -1.295087173160608, 51.78172009870049 ], [ -1.295080807265321, 51.781706652887074 ], [ -1.29480458795543, 51.781667146849507 ], [ -1.294370393715709, 51.781716242038762 ], [ -1.294189190182315, 51.781716503447811 ], [ -1.294182305524624, 51.781684104642707 ], [ -1.294182250361042, 51.781684109706397 ], [ -1.294181255835875, 51.781684116325799 ], [ -1.293915181804439, 51.781690028727368 ], [ -1.293844590023021, 51.781692870517531 ], [ -1.293790894518628, 51.781694795916366 ], [ -1.293653867881208, 51.781698466866558 ], [ -1.293616275431075, 51.781702466055371 ], [ -1.293574802188544, 51.781702486699153 ], [ -1.293562542492295, 51.781699267046562 ], [ -1.293550496697614, 51.781698131036805 ], [ -1.293529783512716, 51.781698590150022 ], [ -1.293529198959548, 51.781698613612392 ], [ -1.293528533422825, 51.781698717509009 ], [ -1.293475599167878, 51.781708147786311 ], [ -1.293344466728039, 51.781734360527295 ], [ -1.293184487474312, 51.78176890453426 ], [ -1.293155461068363, 51.781775471687716 ], [ -1.293151033202505, 51.781775893737247 ], [ -1.293074068248408, 51.781798441414182 ], [ -1.293073948094447, 51.781798802137779 ], [ -1.29306815950941, 51.781817102177911 ], [ -1.293020507269427, 51.781860680165899 ], [ -1.292993543314922, 51.781872922327587 ], [ -1.292960200243612, 51.781888002416657 ], [ -1.292935994263138, 51.781899632660533 ], [ -1.292901710004346, 51.78191380795603 ], [ -1.292804802788939, 51.781950527956802 ], [ -1.292752443915022, 51.781974033478527 ], [ -1.292749497816893, 51.781963678592973 ], [ -1.292575204347741, 51.782034539221989 ], [ -1.292521956066874, 51.782053724420138 ], [ -1.29248914303037, 51.782065481723286 ], [ -1.292394949049016, 51.782112105318554 ], [ -1.292319861257186, 51.782136821681455 ], [ -1.292296703017696, 51.782142614724414 ], [ -1.292272585350872, 51.782148671725295 ], [ -1.292252901227692, 51.78215394619312 ], [ -1.292226686711717, 51.782164125614614 ], [ -1.292200831610393, 51.782174217281309 ], [ -1.292155254387953, 51.782192009886984 ], [ -1.292142875140894, 51.782196430079459 ], [ -1.292130480391152, 51.782201748397114 ], [ -1.292115758107563, 51.78221073819315 ], [ -1.29210467666126, 51.782216244236153 ], [ -1.292091666432398, 51.782222727699839 ], [ -1.292060959172431, 51.782237374738443 ], [ -1.292022386405774, 51.782250624845958 ], [ -1.292010244843922, 51.782255046455219 ], [ -1.291912155835187, 51.782290769576754 ], [ -1.29183282102795, 51.782319595108127 ], [ -1.291828541503764, 51.782333412175106 ], [ -1.291756242060878, 51.782355537522704 ], [ -1.291725590880412, 51.782366589235153 ], [ -1.291711046456081, 51.782371894563397 ], [ -1.29167016695155, 51.782387378461316 ], [ -1.291638045569633, 51.782400668194875 ], [ -1.29163588047896, 51.78240155337491 ], [ -1.291548320956769, 51.782436531301173 ], [ -1.29154147184684, 51.782438916767468 ], [ -1.291517797016572, 51.782447134166532 ], [ -1.291487828043962, 51.782460435925493 ], [ -1.29145268117383, 51.782476134104797 ], [ -1.291454202639711, 51.782478211243941 ], [ -1.291446184726707, 51.782480807250259 ], [ -1.291433779665968, 51.782484829802122 ], [ -1.291428100360542, 51.782481200011027 ], [ -1.291426420575362, 51.782481549538701 ], [ -1.291404106887586, 51.782486897934717 ], [ -1.291390193310199, 51.782489960125879 ], [ -1.291377827987281, 51.782493481202955 ], [ -1.291361123957494, 51.782499223035941 ], [ -1.291345714934371, 51.782506321347498 ], [ -1.291220772480366, 51.782562375709645 ], [ -1.291139160353035, 51.782599097497794 ], [ -1.291125908520747, 51.782613399035419 ], [ -1.291122274653755, 51.782616523150786 ], [ -1.291117802982212, 51.782619642216517 ], [ -1.291112030709693, 51.782621854324262 ], [ -1.291081456650801, 51.782627962079218 ], [ -1.29107058114074, 51.782627896527416 ], [ -1.291048099986981, 51.782628660138585 ], [ -1.29103647882062, 51.782630387427631 ], [ -1.291025561048984, 51.78263301897352 ], [ -1.290986738013187, 51.782639256803364 ], [ -1.290881953665449, 51.78267502861744 ], [ -1.290822483969169, 51.782695667175481 ], [ -1.29086680248678, 51.782682222828392 ], [ -1.29093079932879, 51.782696365182431 ], [ -1.290623557930007, 51.782756012244853 ], [ -1.290778669387017, 51.782708958997063 ], [ -1.290748911423549, 51.782714045692117 ], [ -1.29071165109385, 51.78272730418373 ], [ -1.290592250643026, 51.782765235392958 ], [ -1.290523074565964, 51.78278639069066 ], [ -1.290514429467085, 51.782788855175411 ], [ -1.290510707645676, 51.782789911667081 ], [ -1.29049977572188, 51.782793441298587 ], [ -1.290452385912055, 51.782812480178322 ], [ -1.290441673406588, 51.782817269894551 ], [ -1.290377878072341, 51.782845828544602 ], [ -1.29033923940844, 51.782863122839025 ], [ -1.290327554714871, 51.782868894810584 ], [ -1.290267246175022, 51.782896215672899 ], [ -1.290172024786883, 51.782939415537491 ], [ -1.290136979062126, 51.782956282789002 ], [ -1.290114829373835, 51.782966306449559 ], [ -1.290059094289049, 51.782991587734607 ], [ -1.290001189719072, 51.783017933940478 ], [ -1.289871480653289, 51.783072880053112 ], [ -1.289858847665143, 51.783078197592332 ], [ -1.289844632848241, 51.783062381680821 ], [ -1.289800995375639, 51.783078386849645 ], [ -1.28978199274806, 51.783085822904837 ], [ -1.289704775225123, 51.783116636950062 ], [ -1.289700927441917, 51.783118142214853 ], [ -1.289667532608317, 51.783128726363735 ], [ -1.289646809272301, 51.783139298021872 ], [ -1.28961763895791, 51.783154941837445 ], [ -1.289613503665604, 51.783151860755851 ], [ -1.289595562445376, 51.783160291323334 ], [ -1.289557991689762, 51.783178041370981 ], [ -1.289534658666017, 51.783187338479529 ], [ -1.289534394008975, 51.783187390827955 ], [ -1.289265777228196, 51.783276497111359 ], [ -1.289632102340163, 51.783507356098312 ], [ -1.28960250733685, 51.783527227698663 ], [ -1.2892026398535, 51.783280801773067 ], [ -1.289195384637311, 51.783282815110823 ], [ -1.289191749133799, 51.783285939156698 ], [ -1.289186561205871, 51.783289053820397 ], [ -1.289180788754068, 51.783291265832375 ], [ -1.289151576927284, 51.783301876913413 ], [ -1.289141348156811, 51.783306309787406 ], [ -1.289141161265547, 51.783306118044656 ], [ -1.289135698849002, 51.783308341818554 ], [ -1.289098330000842, 51.783320879848787 ], [ -1.289088108283824, 51.783324863201344 ], [ -1.289066362829612, 51.783331922015762 ], [ -1.289042923429358, 51.783340320164186 ], [ -1.289030543580073, 51.783344739126719 ], [ -1.289018032103031, 51.783349877486479 ], [ -1.288983144050037, 51.783364227814936 ], [ -1.288970750060164, 51.783369545804547 ], [ -1.288940444256983, 51.783381317275996 ], [ -1.28891170222804, 51.783392559621788 ], [ -1.288885498927179, 51.783401839248427 ], [ -1.288856991816182, 51.783413351837709 ], [ -1.288774198766367, 51.783448895992031 ], [ -1.288682504373709, 51.783495711556029 ], [ -1.2887104520867, 51.783519880753737 ], [ -1.288763415262917, 51.783564694833721 ], [ -1.288815103361898, 51.78360689373477 ], [ -1.288827976200357, 51.783616769269415 ], [ -1.288852194857256, 51.783634802775794 ], [ -1.288877017823338, 51.783652481182457 ], [ -1.288892034711959, 51.783662819232539 ], [ -1.28897040129351, 51.783718752456316 ], [ -1.289004896057229, 51.783744668587907 ], [ -1.289035974442172, 51.783767328129485 ], [ -1.289046005606823, 51.783775478136832 ], [ -1.289055916501403, 51.783783717328198 ], [ -1.289065347643709, 51.783792043530681 ], [ -1.289068292771821, 51.783794848600742 ], [ -1.289105415923586, 51.783828420401711 ], [ -1.289110591439729, 51.783833665673065 ], [ -1.289116129315822, 51.783838822323361 ], [ -1.289119429635207, 51.783841718551642 ], [ -1.28912520664819, 51.783846786734941 ], [ -1.28913122564534, 51.783851677455885 ], [ -1.289137486654912, 51.783856388916305 ], [ -1.289142098909984, 51.783859562808786 ], [ -1.289146595078339, 51.783862467162962 ], [ -1.289151094086364, 51.783865190811255 ], [ -1.289152397521814, 51.783865917084817 ], [ -1.289155832266954, 51.783867915904864 ], [ -1.289156186062765, 51.783868187778737 ], [ -1.289181154972989, 51.783884158676301 ], [ -1.289191333322176, 51.783890602133937 ], [ -1.289201271089715, 51.783897134048615 ], [ -1.289210966877285, 51.783903843424731 ], [ -1.289212383512529, 51.783904930928365 ], [ -1.289221837292341, 51.783911819563933 ], [ -1.289230931629031, 51.783918795938469 ], [ -1.289234473995755, 51.783921603714262 ], [ -1.289242730508402, 51.783928575024845 ], [ -1.289250987074957, 51.783935635347866 ], [ -1.289258643561888, 51.783942782855135 ], [ -1.289322403105634, 51.783992695184871 ], [ -1.289382246874736, 51.784040876394577 ], [ -1.2894041833017, 51.784059705202949 ], [ -1.289411530089722, 51.784071344624309 ], [ -1.289290046473072, 51.784081845999218 ], [ -1.289063116086982, 51.784101417706097 ], [ -1.288968562169886, 51.784109565788832 ], [ -1.288946775138635, 51.784111680974945 ], [ -1.288893746117116, 51.784116753289901 ], [ -1.288846557626287, 51.784122760013801 ], [ -1.288799342308565, 51.784130564794062 ], [ -1.288744068851219, 51.784141465943584 ], [ -1.288650999635379, 51.784161576533222 ], [ -1.288560770697964, 51.784183502467059 ], [ -1.288413594134346, 51.784231600620423 ], [ -1.288124323490012, 51.784323781102884 ], [ -1.287832280707178, 51.7844173817805 ], [ -1.287555388013098, 51.78450514201753 ], [ -1.287352886938923, 51.784567285118335 ], [ -1.28734856058378, 51.784568696595564 ], [ -1.287187581621613, 51.784620215250236 ], [ -1.286910018543856, 51.784704912903472 ], [ -1.286765152513691, 51.784750325648936 ], [ -1.286723594151801, 51.784763107255706 ], [ -1.286715305124687, 51.784765753444667 ], [ -1.286470853984791, 51.784842561492773 ], [ -1.286455122734026, 51.784824399165565 ] ] ] } }
]
}
