{
"type": "FeatureCollection",
"name": "ports_meadow_points",
"crs": { "type": "name", "properties": { "name": "urn:ogc:def:crs:EPSG::27700" } },
"features": [
{ "type": "Feature", "properties": { "AccessType": "Footpath", "Accessible_for": "Pedestrian", "id": "a_0" }, "geometry": { "type": "Point", "coordinates": [ 449100.800784100778401, 209625.913164797646459, 0.0 ] } },
{ "type": "Feature", "properties": { "AccessType": "Footpath", "Accessible_for": "Pedestrian", "id": "a_1" }, "geometry": { "type": "Point", "coordinates": [ 449865.569712774187792, 207343.844081329239998, 0.0 ] } },
{ "type": "Feature", "properties": { "AccessType": "Bridleway", "Accessible_for": "Pedestrian, Horse, Cycle", "id": "a_2" }, "geometry": { "type": "Point", "coordinates": [ 450222.459935058956034, 207832.808502584113739, 0.0 ] } },
{ "type": "Feature", "properties": { "AccessType": "Bridleway", "Accessible_for": "Pedestrian, Horse, Cycle", "id": "a_3" }, "geometry": { "type": "Point", "coordinates": [ 449392.626818674732931, 209977.194817710260395, 0.0 ] } },
{ "type": "Feature", "properties": { "AccessType": "Bridleway", "Accessible_for": "Pedestrian, Horse, Cycle", "id": "a_4" }, "geometry": { "type": "Point", "coordinates": [ 449393.119711429637391, 209976.852820894389879, 0.0 ] } },
{ "type": "Feature", "properties": { "AccessType": "Bridleway", "Accessible_for": "Pedestrian, Horse, Cycle", "id": "a_5" }, "geometry": { "type": "Point", "coordinates": [ 449396.467162199842278, 209974.530342512065545, 0.0 ] } },
{ "type": "Feature", "properties": { "AccessType": "Bridleway", "Accessible_for": "Pedestrian, Horse, Cycle", "id": "a_6" }, "geometry": { "type": "Point", "coordinates": [ 449398.174237075494602, 209973.345953533484135, 0.0 ] } },
{ "type": "Feature", "properties": { "AccessType": "Footpath", "Accessible_for": "Pedestrian", "id": "a_7" }, "geometry": { "type": "Point", "coordinates": [ 449854.857975186372641, 207291.466692645277362, 0.0 ] } },
{ "type": "Feature", "properties": { "AccessType": "Footpath", "Accessible_for": "Pedestrian", "id": "a_8" }, "geometry": { "type": "Point", "coordinates": [ 450080.374296649359167, 206990.745713892043568, 0.0 ] } },
{ "type": "Feature", "properties": { "AccessType": "Bridleway", "Accessible_for": "Pedestrian, Horse, Cycle", "id": "a_9" }, "geometry": { "type": "Point", "coordinates": [ 449569.812329870532267, 209673.196525238396134, 0.0 ] } },
{ "type": "Feature", "properties": { "AccessType": "Bridleway", "Accessible_for": "Pedestrian, Horse, Cycle", "id": "a_10" }, "geometry": { "type": "Point", "coordinates": [ 449536.654446264728904, 209600.619648218969814, 0.0 ] } },
{ "type": "Feature", "properties": { "AccessType": "Bridleway", "Accessible_for": "Pedestrian, Horse, Cycle", "id": "a_11" }, "geometry": { "type": "Point", "coordinates": [ 448599.544977981189732, 205094.228516984905582, 0.0 ] } },
{ "type": "Feature", "properties": { "AccessType": "Bridleway", "Accessible_for": "Pedestrian, Horse, Cycle", "id": "a_12" }, "geometry": { "type": "Point", "coordinates": [ 448577.635454122093506, 205076.232263834564947, 0.0 ] } },
{ "type": "Feature", "properties": { "AccessType": "Bridleway", "Accessible_for": "Pedestrian, Horse, Cycle", "id": "a_13" }, "geometry": { "type": "Point", "coordinates": [ 448537.071867153048515, 205043.47474567219615, 0.0 ] } },
{ "type": "Feature", "properties": { "AccessType": "Footpath", "Accessible_for": "Pedestrian", "id": "a_14" }, "geometry": { "type": "Point", "coordinates": [ 449490.915341455605812, 205491.095765039732214, 0.0 ] } },
{ "type": "Feature", "properties": { "AccessType": "Footpath", "Accessible_for": "Pedestrian", "id": "a_15" }, "geometry": { "type": "Point", "coordinates": [ 449503.487742424884345, 205462.060867196822073, 0.0 ] } },
{ "type": "Feature", "properties": { "AccessType": "Footpath", "Accessible_for": "Pedestrian", "id": "a_16" }, "geometry": { "type": "Point", "coordinates": [ 452149.37249336624518, 204711.589416308968794, 0.0 ] } },
{ "type": "Feature", "properties": { "AccessType": "Footpath", "Accessible_for": "Pedestrian", "id": "a_17" }, "geometry": { "type": "Point", "coordinates": [ 450476.040683145693038, 207899.57310590747511, 0.0 ] } },
{ "type": "Feature", "properties": { "AccessType": "Footpath", "Accessible_for": "Pedestrian", "id": "a_18" }, "geometry": { "type": "Point", "coordinates": [ 450475.225070220825728, 207889.105606181721669, 0.0 ] } },
{ "type": "Feature", "properties": { "AccessType": "Footpath", "Accessible_for": "Pedestrian", "id": "a_19" }, "geometry": { "type": "Point", "coordinates": [ 450474.755474671314005, 207887.403139957576059, 0.0 ] } },
{ "type": "Feature", "properties": { "AccessType": "Footpath", "Accessible_for": "Pedestrian", "id": "a_20" }, "geometry": { "type": "Point", "coordinates": [ 452700.179615143744741, 207639.291126296506263, 0.0 ] } },
{ "type": "Feature", "properties": { "AccessType": "Footpath", "Accessible_for": "Pedestrian", "id": "a_21" }, "geometry": { "type": "Point", "coordinates": [ 452607.901630970533006, 207584.370431893272325, 0.0 ] } },
{ "type": "Feature", "properties": { "AccessType": "Footpath", "Accessible_for": "Pedestrian", "id": "a_22" }, "geometry": { "type": "Point", "coordinates": [ 453035.491073371726088, 206638.114646974718198, 0.0 ] } },
{ "type": "Feature", "properties": { "AccessType": "Footpath", "Accessible_for": "Pedestrian", "id": "a_23" }, "geometry": { "type": "Point", "coordinates": [ 453035.415274708007928, 206638.080247719539329, 0.0 ] } },
{ "type": "Feature", "properties": { "AccessType": "Footpath", "Accessible_for": "Pedestrian", "id": "a_24" }, "geometry": { "type": "Point", "coordinates": [ 453031.734639585483819, 206636.408884023316205, 0.0 ] } },
{ "type": "Feature", "properties": { "AccessType": "Footpath", "Accessible_for": "Pedestrian", "id": "a_25" }, "geometry": { "type": "Point", "coordinates": [ 453030.40036310889991, 206635.802997191320173, 0.0 ] } },
{ "type": "Feature", "properties": { "AccessType": "Footpath", "Accessible_for": "Pedestrian", "id": "a_26" }, "geometry": { "type": "Point", "coordinates": [ 453029.842072951083537, 206635.54950270493282, 0.0 ] } },
{ "type": "Feature", "properties": { "AccessType": "Footpath", "Accessible_for": "Pedestrian", "id": "a_27" }, "geometry": { "type": "Point", "coordinates": [ 453027.89310731459409, 206634.664421953551937, 0.0 ] } },
{ "type": "Feature", "properties": { "AccessType": "Footpath", "Accessible_for": "Pedestrian", "id": "a_28" }, "geometry": { "type": "Point", "coordinates": [ 453026.056839695083909, 206633.830540098017082, 0.0 ] } },
{ "type": "Feature", "properties": { "AccessType": "Footpath", "Accessible_for": "Pedestrian", "id": "a_29" }, "geometry": { "type": "Point", "coordinates": [ 453025.385651531629264, 206633.525746734638233, 0.0 ] } },
{ "type": "Feature", "properties": { "AccessType": "Footpath", "Accessible_for": "Pedestrian", "id": "a_30" }, "geometry": { "type": "Point", "coordinates": [ 453007.494575117132626, 206630.361824939260259, 0.0 ] } },
{ "type": "Feature", "properties": { "AccessType": "Footpath", "Accessible_for": "Pedestrian", "id": "a_31" }, "geometry": { "type": "Point", "coordinates": [ 452999.155827603535727, 206629.913440979726147, 0.0 ] } },
{ "type": "Feature", "properties": { "AccessType": "Footpath", "Accessible_for": "Pedestrian", "id": "a_32" }, "geometry": { "type": "Point", "coordinates": [ 452998.169745635765139, 206629.860442879027687, 0.0 ] } },
{ "type": "Feature", "properties": { "AccessType": "Footpath", "Accessible_for": "Pedestrian", "id": "a_33" }, "geometry": { "type": "Point", "coordinates": [ 452972.895207866444252, 206628.501491616596468, 0.0 ] } },
{ "type": "Feature", "properties": { "AccessType": "Footpath", "Accessible_for": "Pedestrian", "id": "a_34" }, "geometry": { "type": "Point", "coordinates": [ 451214.16384072159417, 210140.594351664767601, 0.0 ] } },
{ "type": "Feature", "properties": { "AccessType": "Footpath", "Accessible_for": "Pedestrian", "id": "a_35" }, "geometry": { "type": "Point", "coordinates": [ 451417.059675028780475, 208649.990405816410203, 0.0 ] } },
{ "type": "Feature", "properties": { "AccessType": "Footpath", "Accessible_for": "Pedestrian", "id": "a_36" }, "geometry": { "type": "Point", "coordinates": [ 452929.929782266204711, 208416.572411590896081, 0.0 ] } },
{ "type": "Feature", "properties": { "AccessType": "Footpath", "Accessible_for": "Pedestrian", "id": "a_37" }, "geometry": { "type": "Point", "coordinates": [ 452941.164654360385612, 208412.190741556696594, 0.0 ] } },
{ "type": "Feature", "properties": { "AccessType": "Footpath", "Accessible_for": "Pedestrian", "id": "a_38" }, "geometry": { "type": "Point", "coordinates": [ 452960.586361669877078, 208405.203254808206111, 0.0 ] } },
{ "type": "Feature", "properties": { "AccessType": "Footpath", "Accessible_for": "Pedestrian", "id": "a_39" }, "geometry": { "type": "Point", "coordinates": [ 453021.575273553084116, 208753.33312737342203, 0.0 ] } },
{ "type": "Feature", "properties": { "AccessType": "Footpath", "Accessible_for": "Pedestrian", "id": "a_40" }, "geometry": { "type": "Point", "coordinates": [ 453013.991905245173257, 208746.786604834196623, 0.0 ] } },
{ "type": "Feature", "properties": { "AccessType": "Footpath", "Accessible_for": "Pedestrian", "id": "a_41" }, "geometry": { "type": "Point", "coordinates": [ 448402.307743464421947, 210216.650389520509634, 0.0 ] } },
{ "type": "Feature", "properties": { "AccessType": "Footpath", "Accessible_for": "Pedestrian", "id": "a_42" }, "geometry": { "type": "Point", "coordinates": [ 448619.346357158792671, 210139.590046221856028, 0.0 ] } },
{ "type": "Feature", "properties": { "AccessType": "Footpath", "Accessible_for": "Pedestrian", "id": "a_43" }, "geometry": { "type": "Point", "coordinates": [ 448149.316069988941308, 205803.019294108089525, 0.0 ] } },
{ "type": "Feature", "properties": { "AccessType": "Bridleway", "Accessible_for": "Pedestrian, Horse, Cycle", "id": "a_44" }, "geometry": { "type": "Point", "coordinates": [ 447756.646312641503755, 204574.198612819076516, 0.0 ] } },
{ "type": "Feature", "properties": { "AccessType": "Footpath", "Accessible_for": "Pedestrian", "id": "a_45" }, "geometry": { "type": "Point", "coordinates": [ 447800.291026414197404, 210511.893724289024249, 0.0 ] } },
{ "type": "Feature", "properties": { "AccessType": "Footpath", "Accessible_for": "Pedestrian", "id": "a_46" }, "geometry": { "type": "Point", "coordinates": [ 452857.507559469493572, 206022.500707782106474, 0.0 ] } },
{ "type": "Feature", "properties": { "AccessType": "Footpath", "Accessible_for": "Pedestrian", "id": "a_47" }, "geometry": { "type": "Point", "coordinates": [ 452516.054365076881368, 206195.428392320172861, 0.0 ] } },
{ "type": "Feature", "properties": { "AccessType": "Footpath", "Accessible_for": "Pedestrian", "id": "a_48" }, "geometry": { "type": "Point", "coordinates": [ 452914.576859462191351, 206277.335357263567857, 0.0 ] } },
{ "type": "Feature", "properties": { "AccessType": "Footpath", "Accessible_for": "Pedestrian", "id": "a_49" }, "geometry": { "type": "Point", "coordinates": [ 452712.380770899530035, 206296.415683148428798, 0.0 ] } },
{ "type": "Feature", "properties": { "AccessType": "Track", "Accessible_for": "Motor Vehicle And Pedestrian", "id": "a_50" }, "geometry": { "type": "Point", "coordinates": [ 452906.42704738304019, 206298.554955789179076, 0.0 ] } },
{ "type": "Feature", "properties": { "AccessType": "Footpath", "Accessible_for": "Pedestrian", "id": "a_51" }, "geometry": { "type": "Point", "coordinates": [ 452693.811141067009885, 206304.685582442907616, 0.0 ] } },
{ "type": "Feature", "properties": { "AccessType": "Footpath", "Accessible_for": "Pedestrian", "id": "a_52" }, "geometry": { "type": "Point", "coordinates": [ 452678.901627347513568, 206426.553186767501757, 0.0 ] } },
{ "type": "Feature", "properties": { "AccessType": "Footpath", "Accessible_for": "Pedestrian", "id": "a_53" }, "geometry": { "type": "Point", "coordinates": [ 452873.338170963048469, 206623.148501036455855, 0.0 ] } },
{ "type": "Feature", "properties": { "AccessType": "Footpath", "Accessible_for": "Pedestrian", "id": "a_54" }, "geometry": { "type": "Point", "coordinates": [ 452681.481953621376306, 206656.838549411681015, 0.0 ] } },
{ "type": "Feature", "properties": { "AccessType": "Track", "Accessible_for": "Motor Vehicle And Pedestrian", "id": "a_55" }, "geometry": { "type": "Point", "coordinates": [ 452852.768651211517863, 206676.447500349604525, 0.0 ] } },
{ "type": "Feature", "properties": { "AccessType": "Track", "Accessible_for": "Motor Vehicle And Pedestrian", "id": "a_56" }, "geometry": { "type": "Point", "coordinates": [ 452842.539080475107767, 206828.164470566669479, 0.0 ] } },
{ "type": "Feature", "properties": { "AccessType": "Track", "Accessible_for": "Motor Vehicle And Pedestrian", "id": "a_57" }, "geometry": { "type": "Point", "coordinates": [ 453054.43521967617562, 206877.103193077666219, 0.0 ] } },
{ "type": "Feature", "properties": { "AccessType": "Track", "Accessible_for": "Motor Vehicle And Pedestrian", "id": "a_58" }, "geometry": { "type": "Point", "coordinates": [ 452698.452284711529501, 207006.791508070426062, 0.0 ] } },
{ "type": "Feature", "properties": { "AccessType": "Track", "Accessible_for": "Motor Vehicle And Pedestrian", "id": "a_59" }, "geometry": { "type": "Point", "coordinates": [ 452931.171990425267722, 208430.794156025804114, 0.0 ] } },
{ "type": "Feature", "properties": { "AccessType": "Track", "Accessible_for": "Motor Vehicle And Pedestrian", "id": "a_60" }, "geometry": { "type": "Point", "coordinates": [ 452931.191990036866628, 208430.794156112882774, 0.0 ] } },
{ "type": "Feature", "properties": { "AccessType": "Track", "Accessible_for": "Motor Vehicle And Pedestrian", "id": "a_61" }, "geometry": { "type": "Point", "coordinates": [ 452953.65172953135334, 208507.882846570864785, 0.0 ] } },
{ "type": "Feature", "properties": { "AccessType": "Footpath", "Accessible_for": "Pedestrian", "id": "a_62" }, "geometry": { "type": "Point", "coordinates": [ 452979.62097675492987, 208398.354963027930353, 0.0 ] } },
{ "type": "Feature", "properties": { "AccessType": "Footpath", "Accessible_for": "Pedestrian", "id": "a_63" }, "geometry": { "type": "Point", "coordinates": [ 452996.781556884699967, 208798.967765335110016, 0.0 ] } },
{ "type": "Feature", "properties": { "AccessType": "Footpath", "Accessible_for": "Pedestrian", "id": "a_64" }, "geometry": { "type": "Point", "coordinates": [ 453016.59694207290886, 207232.096507974376436, 0.0 ] } },
{ "type": "Feature", "properties": { "AccessType": "Footpath", "Accessible_for": "Pedestrian", "id": "a_65" }, "geometry": { "type": "Point", "coordinates": [ 453021.286713552428409, 207188.987310223456006, 0.0 ] } },
{ "type": "Feature", "properties": { "AccessType": "Footpath", "Accessible_for": "Pedestrian", "id": "a_66" }, "geometry": { "type": "Point", "coordinates": [ 453042.49972345266724, 208383.84549902722938, 0.0 ] } },
{ "type": "Feature", "properties": { "AccessType": "Track", "Accessible_for": "Motor Vehicle And Pedestrian", "id": "a_67" }, "geometry": { "type": "Point", "coordinates": [ 451639.848026751948055, 205228.801167397527024, 0.0 ] } },
{ "type": "Feature", "properties": { "AccessType": "Footpath", "Accessible_for": "Pedestrian", "id": "a_68" }, "geometry": { "type": "Point", "coordinates": [ 451146.047667323844507, 205272.661651406669989, 0.0 ] } },
{ "type": "Feature", "properties": { "AccessType": "Footpath", "Accessible_for": "Pedestrian", "id": "a_69" }, "geometry": { "type": "Point", "coordinates": [ 452426.203518260386772, 205276.437117233930621, 0.0 ] } },
{ "type": "Feature", "properties": { "AccessType": "Track", "Accessible_for": "Motor Vehicle And Pedestrian", "id": "a_70" }, "geometry": { "type": "Point", "coordinates": [ 452403.583980480732862, 205290.576926660491154, 0.0 ] } },
{ "type": "Feature", "properties": { "AccessType": "Track", "Accessible_for": "Motor Vehicle And Pedestrian", "id": "a_71" }, "geometry": { "type": "Point", "coordinates": [ 452509.032072546659037, 205306.48617361887591, 0.0 ] } },
{ "type": "Feature", "properties": { "AccessType": "Track", "Accessible_for": "Motor Vehicle And Pedestrian", "id": "a_72" }, "geometry": { "type": "Point", "coordinates": [ 452364.304975741310045, 205377.595335762598552, 0.0 ] } },
{ "type": "Feature", "properties": { "AccessType": "Footpath", "Accessible_for": "Pedestrian", "id": "a_73" }, "geometry": { "type": "Point", "coordinates": [ 452512.882614190457389, 205513.302025431534275, 0.0 ] } },
{ "type": "Feature", "properties": { "AccessType": "Footpath", "Accessible_for": "Pedestrian", "id": "a_74" }, "geometry": { "type": "Point", "coordinates": [ 452512.852615283918567, 205513.482021951116621, 0.0 ] } },
{ "type": "Feature", "properties": { "AccessType": "Footpath", "Accessible_for": "Pedestrian", "id": "a_75" }, "geometry": { "type": "Point", "coordinates": [ 452507.482795731746592, 205540.491503013996407, 0.0 ] } },
{ "type": "Feature", "properties": { "AccessType": "Footpath", "Accessible_for": "Pedestrian", "id": "a_76" }, "geometry": { "type": "Point", "coordinates": [ 452513.662741080217529, 205561.091067668923642, 0.0 ] } },
{ "type": "Feature", "properties": { "AccessType": "Footpath", "Accessible_for": "Pedestrian", "id": "a_77" }, "geometry": { "type": "Point", "coordinates": [ 452513.072756151785143, 205562.451042759348638, 0.0 ] } },
{ "type": "Feature", "properties": { "AccessType": "Track", "Accessible_for": "Motor Vehicle And Pedestrian", "id": "a_78" }, "geometry": { "type": "Point", "coordinates": [ 452443.554310357489157, 205646.429624844691716, 0.0 ] } },
{ "type": "Feature", "properties": { "AccessType": "Track", "Accessible_for": "Motor Vehicle And Pedestrian", "id": "a_79" }, "geometry": { "type": "Point", "coordinates": [ 452258.378104645642452, 205747.328273066435941, 0.0 ] } },
{ "type": "Feature", "properties": { "AccessType": "Track", "Accessible_for": "Motor Vehicle And Pedestrian", "id": "a_80" }, "geometry": { "type": "Point", "coordinates": [ 452302.127357461256906, 205772.417607488110662, 0.0 ] } },
{ "type": "Feature", "properties": { "AccessType": "Track", "Accessible_for": "Motor Vehicle And Pedestrian", "id": "a_81" }, "geometry": { "type": "Point", "coordinates": [ 450825.135695673467126, 205852.431448321440257, 0.0 ] } },
{ "type": "Feature", "properties": { "AccessType": "Footpath", "Accessible_for": "Pedestrian", "id": "a_82" }, "geometry": { "type": "Point", "coordinates": [ 451420.304367400414776, 205858.509058926138096, 0.0 ] } },
{ "type": "Feature", "properties": { "AccessType": "Footpath", "Accessible_for": "Pedestrian", "id": "a_83" }, "geometry": { "type": "Point", "coordinates": [ 451496.632926733000204, 205862.818681251374073, 0.0 ] } },
{ "type": "Feature", "properties": { "AccessType": "Footpath", "Accessible_for": "Pedestrian", "id": "a_84" }, "geometry": { "type": "Point", "coordinates": [ 451561.381805188488215, 205896.017756594403181, 0.0 ] } },
{ "type": "Feature", "properties": { "AccessType": "Footpath", "Accessible_for": "Pedestrian", "id": "a_85" }, "geometry": { "type": "Point", "coordinates": [ 451561.351805760816205, 205896.017756709828973, 0.0 ] } },
{ "type": "Feature", "properties": { "AccessType": "Footpath", "Accessible_for": "Pedestrian", "id": "a_86" }, "geometry": { "type": "Point", "coordinates": [ 451464.713653123180848, 205897.758094621589407, 0.0 ] } },
{ "type": "Feature", "properties": { "AccessType": "Footpath", "Accessible_for": "Pedestrian", "id": "a_87" }, "geometry": { "type": "Point", "coordinates": [ 451450.70393410010729, 205901.918064588448033, 0.0 ] } },
{ "type": "Feature", "properties": { "AccessType": "Footpath", "Accessible_for": "Pedestrian", "id": "a_88" }, "geometry": { "type": "Point", "coordinates": [ 451577.261680957395583, 205948.436622750828974, 0.0 ] } },
{ "type": "Feature", "properties": { "AccessType": "Footpath", "Accessible_for": "Pedestrian", "id": "a_89" }, "geometry": { "type": "Point", "coordinates": [ 452132.021238687389996, 205981.383958724793047, 0.0 ] } },
{ "type": "Feature", "properties": { "AccessType": "Footpath", "Accessible_for": "Pedestrian", "id": "a_90" }, "geometry": { "type": "Point", "coordinates": [ 451410.084982536383905, 205983.636573199066333, 0.0 ] } },
{ "type": "Feature", "properties": { "AccessType": "Footpath", "Accessible_for": "Pedestrian", "id": "a_91" }, "geometry": { "type": "Point", "coordinates": [ 451410.084982603555545, 205983.656572795473039, 0.0 ] } },
{ "type": "Feature", "properties": { "AccessType": "Footpath", "Accessible_for": "Pedestrian", "id": "a_92" }, "geometry": { "type": "Point", "coordinates": [ 451189.709258192451671, 206008.236972556333058, 0.0 ] } },
{ "type": "Feature", "properties": { "AccessType": "Footpath", "Accessible_for": "Pedestrian", "id": "a_93" }, "geometry": { "type": "Point", "coordinates": [ 451216.478769831359386, 206016.286705626873299, 0.0 ] } },
{ "type": "Feature", "properties": { "AccessType": "Track", "Accessible_for": "Motor Vehicle And Pedestrian", "id": "a_94" }, "geometry": { "type": "Point", "coordinates": [ 451172.879638110869564, 206034.796522817166988, 0.0 ] } },
{ "type": "Feature", "properties": { "AccessType": "Footpath", "Accessible_for": "Pedestrian", "id": "a_95" }, "geometry": { "type": "Point", "coordinates": [ 451399.675343465234619, 206042.285453363787383, 0.0 ] } },
{ "type": "Feature", "properties": { "AccessType": "Footpath", "Accessible_for": "Pedestrian", "id": "a_96" }, "geometry": { "type": "Point", "coordinates": [ 451399.675343508715741, 206042.305452971486375, 0.0 ] } },
{ "type": "Feature", "properties": { "AccessType": "Footpath", "Accessible_for": "Pedestrian", "id": "a_97" }, "geometry": { "type": "Point", "coordinates": [ 451505.973341113014612, 206050.404863063420635, 0.0 ] } },
{ "type": "Feature", "properties": { "AccessType": "Footpath", "Accessible_for": "Pedestrian", "id": "a_98" }, "geometry": { "type": "Point", "coordinates": [ 452731.816768754448276, 208903.38562523399014, 0.0 ] } },
{ "type": "Feature", "properties": { "AccessType": "Footpath", "Accessible_for": "Pedestrian", "id": "a_99" }, "geometry": { "type": "Point", "coordinates": [ 451143.257278711302206, 208958.429539937176742, 0.0 ] } },
{ "type": "Feature", "properties": { "AccessType": "Footpath", "Accessible_for": "Pedestrian", "id": "a_100" }, "geometry": { "type": "Point", "coordinates": [ 452515.801034859614447, 209016.064068510197103, 0.0 ] } },
{ "type": "Feature", "properties": { "AccessType": "Footpath", "Accessible_for": "Pedestrian", "id": "a_101" }, "geometry": { "type": "Point", "coordinates": [ 452509.181212747469544, 209038.723648609011434, 0.0 ] } },
{ "type": "Feature", "properties": { "AccessType": "Track", "Accessible_for": "Motor Vehicle And Pedestrian", "id": "a_102" }, "geometry": { "type": "Point", "coordinates": [ 452432.913075125892647, 209217.990392650361173, 0.0 ] } },
{ "type": "Feature", "properties": { "AccessType": "Footpath", "Accessible_for": "Pedestrian", "id": "a_103" }, "geometry": { "type": "Point", "coordinates": [ 450825.104449538979679, 209230.735309022478759, 0.0 ] } },
{ "type": "Feature", "properties": { "AccessType": "Track", "Accessible_for": "Motor Vehicle And Pedestrian", "id": "a_104" }, "geometry": { "type": "Point", "coordinates": [ 452417.503489333554171, 209268.489457340154331, 0.0 ] } },
{ "type": "Feature", "properties": { "AccessType": "Footpath", "Accessible_for": "Pedestrian", "id": "a_105" }, "geometry": { "type": "Point", "coordinates": [ 450807.33505045354832, 209317.163670310226735, 0.0 ] } },
{ "type": "Feature", "properties": { "AccessType": "Track", "Accessible_for": "Motor Vehicle And Pedestrian", "id": "a_106" }, "geometry": { "type": "Point", "coordinates": [ 451138.979912299313582, 209876.391596924688201, 0.0 ] } },
{ "type": "Feature", "properties": { "AccessType": "Footpath", "Accessible_for": "Pedestrian", "id": "a_107" }, "geometry": { "type": "Point", "coordinates": [ 451135.620284844771959, 210012.34898695407901, 0.0 ] } },
{ "type": "Feature", "properties": { "AccessType": "Footpath", "Accessible_for": "Pedestrian", "id": "a_108" }, "geometry": { "type": "Point", "coordinates": [ 451113.210749367659446, 210023.148854080820456, 0.0 ] } },
{ "type": "Feature", "properties": { "AccessType": "Footpath", "Accessible_for": "Pedestrian", "id": "a_109" }, "geometry": { "type": "Point", "coordinates": [ 451107.820859730883967, 210025.168833249190357, 0.0 ] } },
{ "type": "Feature", "properties": { "AccessType": "Footpath", "Accessible_for": "Pedestrian", "id": "a_110" }, "geometry": { "type": "Point", "coordinates": [ 451131.930455498513766, 210056.008157550299075, 0.0 ] } },
{ "type": "Feature", "properties": { "AccessType": "Footpath", "Accessible_for": "Pedestrian", "id": "a_111" }, "geometry": { "type": "Point", "coordinates": [ 451131.760458966833539, 210056.068156965309754, 0.0 ] } },
{ "type": "Feature", "properties": { "AccessType": "Footpath", "Accessible_for": "Pedestrian", "id": "a_112" }, "geometry": { "type": "Point", "coordinates": [ 451142.140288620255888, 210070.757838898396585, 0.0 ] } },
{ "type": "Feature", "properties": { "AccessType": "Footpath", "Accessible_for": "Pedestrian", "id": "a_113" }, "geometry": { "type": "Point", "coordinates": [ 451182.749553253815975, 210096.927198296820279, 0.0 ] } },
{ "type": "Feature", "properties": { "AccessType": "Footpath", "Accessible_for": "Pedestrian", "id": "a_114" }, "geometry": { "type": "Point", "coordinates": [ 451121.530804827110842, 210121.016938875080086, 0.0 ] } },
{ "type": "Feature", "properties": { "AccessType": "Footpath", "Accessible_for": "Pedestrian", "id": "a_115" }, "geometry": { "type": "Point", "coordinates": [ 451101.881386889086571, 210210.435280045261607, 0.0 ] } },
{ "type": "Feature", "properties": { "AccessType": "Track", "Accessible_for": "Motor Vehicle And Pedestrian", "id": "a_116" }, "geometry": { "type": "Point", "coordinates": [ 450942.47452201100532, 210228.255467397044413, 0.0 ] } },
{ "type": "Feature", "properties": { "AccessType": "Footpath", "Accessible_for": "Pedestrian", "id": "a_117" }, "geometry": { "type": "Point", "coordinates": [ 450928.804895252804272, 210281.384486769675277, 0.0 ] } },
{ "type": "Feature", "properties": { "AccessType": "Footpath", "Accessible_for": "Pedestrian", "id": "a_118" }, "geometry": { "type": "Point", "coordinates": [ 450919.155210828233976, 210345.153287040593568, 0.0 ] } },
{ "type": "Feature", "properties": { "AccessType": "Footpath", "Accessible_for": "Pedestrian", "id": "a_119" }, "geometry": { "type": "Point", "coordinates": [ 450978.594073322485201, 210349.553005126188509, 0.0 ] } },
{ "type": "Feature", "properties": { "AccessType": "Footpath", "Accessible_for": "Pedestrian", "id": "a_120" }, "geometry": { "type": "Point", "coordinates": [ 451298.867903414648026, 210352.851881473965477, 0.0 ] } },
{ "type": "Feature", "properties": { "AccessType": "Track", "Accessible_for": "Motor Vehicle And Pedestrian", "id": "a_121" }, "geometry": { "type": "Point", "coordinates": [ 450985.234112297475804, 210429.421441155602224, 0.0 ] } },
{ "type": "Feature", "properties": { "AccessType": "Footpath", "Accessible_for": "Pedestrian", "id": "a_122" }, "geometry": { "type": "Point", "coordinates": [ 450950.464848821808118, 210462.980907786521129, 0.0 ] } },
{ "type": "Feature", "properties": { "AccessType": "Footpath", "Accessible_for": "Pedestrian", "id": "a_123" }, "geometry": { "type": "Point", "coordinates": [ 450966.754545889794827, 210467.440767994907219, 0.0 ] } },
{ "type": "Feature", "properties": { "AccessType": "Footpath", "Accessible_for": "Pedestrian", "id": "a_124" }, "geometry": { "type": "Point", "coordinates": [ 451085.142359080899041, 210504.469663839263376, 0.0 ] } },
{ "type": "Feature", "properties": { "AccessType": "Track", "Accessible_for": "Motor Vehicle And Pedestrian", "id": "a_125" }, "geometry": { "type": "Point", "coordinates": [ 451042.443318777193781, 210570.958521078049671, 0.0 ] } },
{ "type": "Feature", "properties": { "AccessType": "Track", "Accessible_for": "Motor Vehicle And Pedestrian", "id": "a_126" }, "geometry": { "type": "Point", "coordinates": [ 450701.559823951043654, 210578.189498825056944, 0.0 ] } },
{ "type": "Feature", "properties": { "AccessType": "Road", "Accessible_for": "Motor Vehicle", "id": "a_127" }, "geometry": { "type": "Point", "coordinates": [ 450733.259241445688531, 210589.679172549047507, 0.0 ] } },
{ "type": "Feature", "properties": { "AccessType": "Track", "Accessible_for": "Motor Vehicle And Pedestrian", "id": "a_128" }, "geometry": { "type": "Point", "coordinates": [ 450917.305794309242629, 210616.538050650910009, 0.0 ] } },
{ "type": "Feature", "properties": { "AccessType": "Footpath", "Accessible_for": "Pedestrian", "id": "a_129" }, "geometry": { "type": "Point", "coordinates": [ 451252.8106992378016, 207145.384541540290229, 0.0 ] } },
{ "type": "Feature", "properties": { "AccessType": "Footpath", "Accessible_for": "Pedestrian", "id": "a_130" }, "geometry": { "type": "Point", "coordinates": [ 450970.166225006221794, 207219.654102500586305, 0.0 ] } },
{ "type": "Feature", "properties": { "AccessType": "Footpath", "Accessible_for": "Pedestrian", "id": "a_131" }, "geometry": { "type": "Point", "coordinates": [ 452900.189232575125061, 207270.865700229420327, 0.0 ] } },
{ "type": "Feature", "properties": { "AccessType": "Track", "Accessible_for": "Motor Vehicle And Pedestrian", "id": "a_132" }, "geometry": { "type": "Point", "coordinates": [ 451185.402389652444981, 207282.782083393190987, 0.0 ] } },
{ "type": "Feature", "properties": { "AccessType": "Footpath", "Accessible_for": "Pedestrian", "id": "a_133" }, "geometry": { "type": "Point", "coordinates": [ 452853.780289640184492, 207313.415081533195917, 0.0 ] } },
{ "type": "Feature", "properties": { "AccessType": "Footpath", "Accessible_for": "Pedestrian", "id": "a_134" }, "geometry": { "type": "Point", "coordinates": [ 452524.767169961764012, 207440.753984326438513, 0.0 ] } },
{ "type": "Feature", "properties": { "AccessType": "Track", "Accessible_for": "Motor Vehicle And Pedestrian", "id": "a_135" }, "geometry": { "type": "Point", "coordinates": [ 452318.211292628373485, 207464.414358845446259, 0.0 ] } },
{ "type": "Feature", "properties": { "AccessType": "Footpath", "Accessible_for": "Pedestrian", "id": "a_136" }, "geometry": { "type": "Point", "coordinates": [ 451555.096228475915268, 207520.426193521649111, 0.0 ] } },
{ "type": "Feature", "properties": { "AccessType": "Footpath", "Accessible_for": "Pedestrian", "id": "a_137" }, "geometry": { "type": "Point", "coordinates": [ 450888.248684059595689, 207524.098300774814561, 0.0 ] } },
{ "type": "Feature", "properties": { "AccessType": "Footpath", "Accessible_for": "Pedestrian", "id": "a_138" }, "geometry": { "type": "Point", "coordinates": [ 450908.808327316772193, 207532.958056435745675, 0.0 ] } },
{ "type": "Feature", "properties": { "AccessType": "Footpath", "Accessible_for": "Pedestrian", "id": "a_139" }, "geometry": { "type": "Point", "coordinates": [ 450867.309139332210179, 207545.377942553779576, 0.0 ] } },
{ "type": "Feature", "properties": { "AccessType": "Footpath", "Accessible_for": "Pedestrian", "id": "a_140" }, "geometry": { "type": "Point", "coordinates": [ 452607.266044381540269, 207584.660928906174377, 0.0 ] } },
{ "type": "Feature", "properties": { "AccessType": "Track", "Accessible_for": "Motor Vehicle And Pedestrian", "id": "a_141" }, "geometry": { "type": "Point", "coordinates": [ 452195.13420543022221, 207616.451959798694588, 0.0 ] } },
{ "type": "Feature", "properties": { "AccessType": "Footpath", "Accessible_for": "Pedestrian", "id": "a_142" }, "geometry": { "type": "Point", "coordinates": [ 452594.086435528588481, 207623.97023628099123, 0.0 ] } },
{ "type": "Feature", "properties": { "AccessType": "Footpath", "Accessible_for": "Pedestrian", "id": "a_143" }, "geometry": { "type": "Point", "coordinates": [ 452700.084416280617006, 207639.07953068241477, 0.0 ] } },
{ "type": "Feature", "properties": { "AccessType": "Footpath", "Accessible_for": "Pedestrian", "id": "a_144" }, "geometry": { "type": "Point", "coordinates": [ 452614.076117355842143, 207645.249753984448034, 0.0 ] } },
{ "type": "Feature", "properties": { "AccessType": "Footpath", "Accessible_for": "Pedestrian", "id": "a_145" }, "geometry": { "type": "Point", "coordinates": [ 451180.03483622247586, 208147.345165103266481, 0.0 ] } },
{ "type": "Feature", "properties": { "AccessType": "Track", "Accessible_for": "Motor Vehicle And Pedestrian", "id": "a_146" }, "geometry": { "type": "Point", "coordinates": [ 450669.575192262302153, 208374.392437801463529, 0.0 ] } },
{ "type": "Feature", "properties": { "AccessType": "Footpath", "Accessible_for": "Pedestrian", "id": "a_147" }, "geometry": { "type": "Point", "coordinates": [ 452781.18472808325896, 208379.805317953811027, 0.0 ] } },
{ "type": "Feature", "properties": { "AccessType": "Footpath", "Accessible_for": "Pedestrian", "id": "a_148" }, "geometry": { "type": "Point", "coordinates": [ 452712.336092903395183, 208410.734971068333834, 0.0 ] } },
{ "type": "Feature", "properties": { "AccessType": "Footpath", "Accessible_for": "Pedestrian", "id": "a_149" }, "geometry": { "type": "Point", "coordinates": [ 452769.345339574385434, 208562.301948844047729, 0.0 ] } },
{ "type": "Feature", "properties": { "AccessType": "Track", "Accessible_for": "Motor Vehicle And Pedestrian", "id": "a_150" }, "geometry": { "type": "Point", "coordinates": [ 452855.863921814248897, 208651.900008114462253, 0.0 ] } },
{ "type": "Feature", "properties": { "AccessType": "Footpath", "Accessible_for": "Pedestrian", "id": "a_151" }, "geometry": { "type": "Point", "coordinates": [ 452688.627139471122064, 208705.509518573875539, 0.0 ] } },
{ "type": "Feature", "properties": { "AccessType": "Track", "Accessible_for": "Motor Vehicle And Pedestrian", "id": "a_152" }, "geometry": { "type": "Point", "coordinates": [ 451084.967834483832121, 208725.154304722964298, 0.0 ] } },
{ "type": "Feature", "properties": { "AccessType": "Footpath", "Accessible_for": "Pedestrian", "id": "a_153" }, "geometry": { "type": "Point", "coordinates": [ 450984.420068605686538, 208816.852883965068031, 0.0 ] } },
{ "type": "Feature", "properties": { "AccessType": "Track", "Accessible_for": "Motor Vehicle And Pedestrian", "id": "a_154" }, "geometry": { "type": "Point", "coordinates": [ 450981.010171962669119, 208828.972657999722287, 0.0 ] } },
{ "type": "Feature", "properties": { "AccessType": "Track", "Accessible_for": "Motor Vehicle And Pedestrian", "id": "a_155" }, "geometry": { "type": "Point", "coordinates": [ 451600.097716712276451, 208832.710381189535838, 0.0 ] } },
{ "type": "Feature", "properties": { "AccessType": "Footpath", "Accessible_for": "Pedestrian", "id": "a_156" }, "geometry": { "type": "Point", "coordinates": [ 452718.39687705936376, 208841.836854077700991, 0.0 ] } },
{ "type": "Feature", "properties": { "AccessType": "Track", "Accessible_for": "Motor Vehicle And Pedestrian", "id": "a_157" }, "geometry": { "type": "Point", "coordinates": [ 450997.419878795801196, 208841.992343739431817, 0.0 ] } },
{ "type": "Feature", "properties": { "AccessType": "Footpath", "Accessible_for": "Pedestrian", "id": "a_158" }, "geometry": { "type": "Point", "coordinates": [ 451041.819020344584715, 208854.371942500409205, 0.0 ] } },
{ "type": "Feature", "properties": { "AccessType": "Track", "Accessible_for": "Motor Vehicle And Pedestrian", "id": "a_159" }, "geometry": { "type": "Point", "coordinates": [ 451172.116489508189261, 208886.310852407303173, 0.0 ] } },
{ "type": "Feature", "properties": { "AccessType": "Footpath", "Accessible_for": "Pedestrian", "id": "a_160" }, "geometry": { "type": "Point", "coordinates": [ 451434.634732606820762, 206066.754835465399083, 0.0 ] } },
{ "type": "Feature", "properties": { "AccessType": "Footpath", "Accessible_for": "Pedestrian", "id": "a_161" }, "geometry": { "type": "Point", "coordinates": [ 452392.136553284479305, 206095.500805607938673, 0.0 ] } },
{ "type": "Feature", "properties": { "AccessType": "Footpath", "Accessible_for": "Pedestrian", "id": "a_162" }, "geometry": { "type": "Point", "coordinates": [ 452414.826191105123144, 206134.169960184197407, 0.0 ] } },
{ "type": "Feature", "properties": { "AccessType": "Footpath", "Accessible_for": "Pedestrian", "id": "a_163" }, "geometry": { "type": "Point", "coordinates": [ 452068.152833456580993, 206143.140969352854881, 0.0 ] } },
{ "type": "Feature", "properties": { "AccessType": "Footpath", "Accessible_for": "Pedestrian", "id": "a_164" }, "geometry": { "type": "Point", "coordinates": [ 450640.969978920591529, 206150.026437134365551, 0.0 ] } },
{ "type": "Feature", "properties": { "AccessType": "Footpath", "Accessible_for": "Pedestrian", "id": "a_165" }, "geometry": { "type": "Point", "coordinates": [ 451690.950058524671476, 206153.632109141617548, 0.0 ] } },
{ "type": "Feature", "properties": { "AccessType": "Track", "Accessible_for": "Motor Vehicle And Pedestrian", "id": "a_166" }, "geometry": { "type": "Point", "coordinates": [ 452001.064154224586673, 206161.240845695254393, 0.0 ] } },
{ "type": "Feature", "properties": { "AccessType": "Track", "Accessible_for": "Motor Vehicle And Pedestrian", "id": "a_167" }, "geometry": { "type": "Point", "coordinates": [ 451871.417613992642146, 206607.90260106662754, 0.0 ] } },
{ "type": "Feature", "properties": { "AccessType": "Footpath", "Accessible_for": "Pedestrian", "id": "a_168" }, "geometry": { "type": "Point", "coordinates": [ 451982.13546779967146, 206610.75212463963544, 0.0 ] } },
{ "type": "Feature", "properties": { "AccessType": "Footpath", "Accessible_for": "Pedestrian", "id": "a_169" }, "geometry": { "type": "Point", "coordinates": [ 451979.56552487576846, 206614.12206852476811, 0.0 ] } },
{ "type": "Feature", "properties": { "AccessType": "Footpath", "Accessible_for": "Pedestrian", "id": "a_170" }, "geometry": { "type": "Point", "coordinates": [ 451921.406807679275516, 206684.810910968342796, 0.0 ] } },
{ "type": "Feature", "properties": { "AccessType": "Footpath", "Accessible_for": "Pedestrian", "id": "a_171" }, "geometry": { "type": "Point", "coordinates": [ 452400.507548703928478, 206726.998226892086677, 0.0 ] } },
{ "type": "Feature", "properties": { "AccessType": "Footpath", "Accessible_for": "Pedestrian", "id": "a_172" }, "geometry": { "type": "Point", "coordinates": [ 451739.670477003033739, 206747.280403990938794, 0.0 ] } },
{ "type": "Feature", "properties": { "AccessType": "Footpath", "Accessible_for": "Pedestrian", "id": "a_173" }, "geometry": { "type": "Point", "coordinates": [ 451739.660477236728184, 206747.300403640430886, 0.0 ] } },
{ "type": "Feature", "properties": { "AccessType": "Footpath", "Accessible_for": "Pedestrian", "id": "a_174" }, "geometry": { "type": "Point", "coordinates": [ 451739.650477628572844, 206747.390401938813739, 0.0 ] } },
{ "type": "Feature", "properties": { "AccessType": "Track", "Accessible_for": "Motor Vehicle And Pedestrian", "id": "a_175" }, "geometry": { "type": "Point", "coordinates": [ 451735.220631963049527, 206778.789810658548959, 0.0 ] } },
{ "type": "Feature", "properties": { "AccessType": "Track", "Accessible_for": "Motor Vehicle And Pedestrian", "id": "a_176" }, "geometry": { "type": "Point", "coordinates": [ 451735.160633656545542, 206779.039806049375329, 0.0 ] } },
{ "type": "Feature", "properties": { "AccessType": "Track", "Accessible_for": "Motor Vehicle And Pedestrian", "id": "a_177" }, "geometry": { "type": "Point", "coordinates": [ 451735.150633957819082, 206779.089805117517244, 0.0 ] } },
{ "type": "Feature", "properties": { "AccessType": "Footpath", "Accessible_for": "Pedestrian", "id": "a_178" }, "geometry": { "type": "Point", "coordinates": [ 451994.595658152014948, 206816.8180458767456, 0.0 ] } },
{ "type": "Feature", "properties": { "AccessType": "Footpath", "Accessible_for": "Pedestrian", "id": "a_179" }, "geometry": { "type": "Point", "coordinates": [ 452030.724987797089852, 206834.70755226246547, 0.0 ] } },
{ "type": "Feature", "properties": { "AccessType": "Footpath", "Accessible_for": "Pedestrian", "id": "a_180" }, "geometry": { "type": "Point", "coordinates": [ 451385.297344388091005, 206836.920058808522299, 0.0 ] } },
{ "type": "Feature", "properties": { "AccessType": "Track", "Accessible_for": "Motor Vehicle And Pedestrian", "id": "a_181" }, "geometry": { "type": "Point", "coordinates": [ 451892.877701271674596, 206840.517987107683439, 0.0 ] } },
{ "type": "Feature", "properties": { "AccessType": "Footpath", "Accessible_for": "Pedestrian", "id": "a_182" }, "geometry": { "type": "Point", "coordinates": [ 450735.059754359652288, 206926.340870124171488, 0.0 ] } },
{ "type": "Feature", "properties": { "AccessType": "Footpath", "Accessible_for": "Pedestrian", "id": "a_183" }, "geometry": { "type": "Point", "coordinates": [ 451136.752330303133931, 206969.488444269169122, 0.0 ] } },
{ "type": "Feature", "properties": { "AccessType": "Footpath", "Accessible_for": "Pedestrian", "id": "a_184" }, "geometry": { "type": "Point", "coordinates": [ 451119.282720759452786, 206989.618113979988266, 0.0 ] } },
{ "type": "Feature", "properties": { "AccessType": "Footpath", "Accessible_for": "Pedestrian", "id": "a_185" }, "geometry": { "type": "Point", "coordinates": [ 451160.741972039511893, 206999.27776341966819, 0.0 ] } },
{ "type": "Feature", "properties": { "AccessType": "Track", "Accessible_for": "Motor Vehicle And Pedestrian", "id": "a_186" }, "geometry": { "type": "Point", "coordinates": [ 451819.169596016348805, 207012.304967980307993, 0.0 ] } },
{ "type": "Feature", "properties": { "AccessType": "Footpath", "Accessible_for": "Pedestrian", "id": "a_187" }, "geometry": { "type": "Point", "coordinates": [ 451879.888480130000971, 207036.384262705454603, 0.0 ] } },
{ "type": "Feature", "properties": { "AccessType": "Track", "Accessible_for": "Motor Vehicle And Pedestrian", "id": "a_188" }, "geometry": { "type": "Point", "coordinates": [ 451340.828790144994855, 207062.925827375089284, 0.0 ] } },
{ "type": "Feature", "properties": { "AccessType": "Footpath", "Accessible_for": "Pedestrian", "id": "a_189" }, "geometry": { "type": "Point", "coordinates": [ 451571.344512121228036, 207077.77467022970086, 0.0 ] } },
{ "type": "Feature", "properties": { "AccessType": "Footpath", "Accessible_for": "Pedestrian", "id": "a_190" }, "geometry": { "type": "Point", "coordinates": [ 452017.215952055412345, 207088.842707474716008, 0.0 ] } },
{ "type": "Feature", "properties": { "AccessType": "Track", "Accessible_for": "Motor Vehicle And Pedestrian", "id": "a_191" }, "geometry": { "type": "Point", "coordinates": [ 450074.205259939597454, 207845.63456734950887, 0.0 ] } },
{ "type": "Feature", "properties": { "AccessType": "Footpath", "Accessible_for": "Pedestrian", "id": "a_192" }, "geometry": { "type": "Point", "coordinates": [ 450101.840808395063505, 206374.904103458742611, 0.0 ] } },
{ "type": "Feature", "properties": { "AccessType": "Track", "Accessible_for": "Motor Vehicle And Pedestrian", "id": "a_193" }, "geometry": { "type": "Point", "coordinates": [ 450107.550457096134778, 206271.376119099033531, 0.0 ] } },
{ "type": "Feature", "properties": { "AccessType": "Footpath", "Accessible_for": "Pedestrian", "id": "a_194" }, "geometry": { "type": "Point", "coordinates": [ 450117.440303716924973, 206287.115771270822734, 0.0 ] } },
{ "type": "Feature", "properties": { "AccessType": "Footpath", "Accessible_for": "Pedestrian", "id": "a_195" }, "geometry": { "type": "Point", "coordinates": [ 450119.20025950926356, 206282.645852456975263, 0.0 ] } },
{ "type": "Feature", "properties": { "AccessType": "Footpath", "Accessible_for": "Pedestrian", "id": "a_196" }, "geometry": { "type": "Point", "coordinates": [ 450137.229691751359496, 206186.917666467663366, 0.0 ] } },
{ "type": "Feature", "properties": { "AccessType": "Footpath", "Accessible_for": "Pedestrian", "id": "a_197" }, "geometry": { "type": "Point", "coordinates": [ 450170.623374957242049, 207843.264273263746873, 0.0 ] } },
{ "type": "Feature", "properties": { "AccessType": "Track", "Accessible_for": "Motor Vehicle And Pedestrian", "id": "a_198" }, "geometry": { "type": "Point", "coordinates": [ 450200.738594825728796, 206239.446388022042811, 0.0 ] } },
{ "type": "Feature", "properties": { "AccessType": "Footpath", "Accessible_for": "Pedestrian", "id": "a_199" }, "geometry": { "type": "Point", "coordinates": [ 450230.533588705467992, 208400.033641220419668, 0.0 ] } },
{ "type": "Feature", "properties": { "AccessType": "Track", "Accessible_for": "Motor Vehicle And Pedestrian", "id": "a_200" }, "geometry": { "type": "Point", "coordinates": [ 450249.430191615363583, 207273.085627782566007, 0.0 ] } },
{ "type": "Feature", "properties": { "AccessType": "Track", "Accessible_for": "Motor Vehicle And Pedestrian", "id": "a_201" }, "geometry": { "type": "Point", "coordinates": [ 450257.127505049807951, 206235.836241509241518, 0.0 ] } },
{ "type": "Feature", "properties": { "AccessType": "Track", "Accessible_for": "Motor Vehicle And Pedestrian", "id": "a_202" }, "geometry": { "type": "Point", "coordinates": [ 450288.233638489269651, 208842.615043098630849, 0.0 ] } },
{ "type": "Feature", "properties": { "AccessType": "Track", "Accessible_for": "Motor Vehicle And Pedestrian", "id": "a_203" }, "geometry": { "type": "Point", "coordinates": [ 450288.60365339362761, 208850.504883318964858, 0.0 ] } },
{ "type": "Feature", "properties": { "AccessType": "Track", "Accessible_for": "Motor Vehicle And Pedestrian", "id": "a_204" }, "geometry": { "type": "Point", "coordinates": [ 450297.593432402121834, 208830.335250208852813, 0.0 ] } },
{ "type": "Feature", "properties": { "AccessType": "Track", "Accessible_for": "Motor Vehicle And Pedestrian", "id": "a_205" }, "geometry": { "type": "Point", "coordinates": [ 450317.443092143745162, 208839.444984707748517, 0.0 ] } },
{ "type": "Feature", "properties": { "AccessType": "Track", "Accessible_for": "Motor Vehicle And Pedestrian", "id": "a_206" }, "geometry": { "type": "Point", "coordinates": [ 450340.182675541727804, 208840.144875752914231, 0.0 ] } },
{ "type": "Feature", "properties": { "AccessType": "Footpath", "Accessible_for": "Pedestrian", "id": "a_207" }, "geometry": { "type": "Point", "coordinates": [ 450377.999424578854814, 207875.672906970838085, 0.0 ] } },
{ "type": "Feature", "properties": { "AccessType": "Footpath", "Accessible_for": "Pedestrian", "id": "a_208" }, "geometry": { "type": "Point", "coordinates": [ 450378.621813665726222, 208784.4058276246069, 0.0 ] } },
{ "type": "Feature", "properties": { "AccessType": "Footpath", "Accessible_for": "Pedestrian", "id": "a_209" }, "geometry": { "type": "Point", "coordinates": [ 450441.468243813375011, 207895.542305954964831, 0.0 ] } },
{ "type": "Feature", "properties": { "AccessType": "Footpath", "Accessible_for": "Pedestrian", "id": "a_210" }, "geometry": { "type": "Point", "coordinates": [ 450443.188027939584572, 207830.393567985855043, 0.0 ] } },
{ "type": "Feature", "properties": { "AccessType": "Footpath", "Accessible_for": "Pedestrian", "id": "a_211" }, "geometry": { "type": "Point", "coordinates": [ 450446.358046822075266, 207857.982995704456698, 0.0 ] } },
{ "type": "Feature", "properties": { "AccessType": "Track", "Accessible_for": "Motor Vehicle And Pedestrian", "id": "a_212" }, "geometry": { "type": "Point", "coordinates": [ 450448.903825103421696, 206234.865521221247036, 0.0 ] } },
{ "type": "Feature", "properties": { "AccessType": "Footpath", "Accessible_for": "Pedestrian", "id": "a_213" }, "geometry": { "type": "Point", "coordinates": [ 450450.983136465656571, 205948.241092358424794, 0.0 ] } },
{ "type": "Feature", "properties": { "AccessType": "Footpath", "Accessible_for": "Pedestrian", "id": "a_214" }, "geometry": { "type": "Point", "coordinates": [ 450463.697789735684637, 207887.442378829466179, 0.0 ] } },
{ "type": "Feature", "properties": { "AccessType": "Footpath", "Accessible_for": "Pedestrian", "id": "a_215" }, "geometry": { "type": "Point", "coordinates": [ 450467.237756557180546, 207900.452120949223172, 0.0 ] } },
{ "type": "Feature", "properties": { "AccessType": "Footpath", "Accessible_for": "Pedestrian", "id": "a_216" }, "geometry": { "type": "Point", "coordinates": [ 450475.047567782050464, 207886.962347222899552, 0.0 ] } },
{ "type": "Feature", "properties": { "AccessType": "Footpath", "Accessible_for": "Pedestrian", "id": "a_217" }, "geometry": { "type": "Point", "coordinates": [ 450475.110950816655532, 209112.358909773814958, 0.0 ] } },
{ "type": "Feature", "properties": { "AccessType": "Footpath", "Accessible_for": "Pedestrian", "id": "a_218" }, "geometry": { "type": "Point", "coordinates": [ 450485.770710581797175, 209096.359185808163602, 0.0 ] } },
{ "type": "Feature", "properties": { "AccessType": "Footpath", "Accessible_for": "Pedestrian", "id": "a_219" }, "geometry": { "type": "Point", "coordinates": [ 450548.828710595844314, 208795.604885048873257, 0.0 ] } },
{ "type": "Feature", "properties": { "AccessType": "Footpath", "Accessible_for": "Pedestrian", "id": "a_220" }, "geometry": { "type": "Point", "coordinates": [ 450568.961352539539803, 206150.2367162713781, 0.0 ] } },
{ "type": "Feature", "properties": { "AccessType": "Footpath", "Accessible_for": "Pedestrian", "id": "a_221" }, "geometry": { "type": "Point", "coordinates": [ 450575.553544579131994, 207186.266205016174354, 0.0 ] } },
{ "type": "Feature", "properties": { "AccessType": "Footpath", "Accessible_for": "Pedestrian", "id": "a_222" }, "geometry": { "type": "Point", "coordinates": [ 448415.984604561352171, 209282.185263747232966, 0.0 ] } },
{ "type": "Feature", "properties": { "AccessType": "Footpath", "Accessible_for": "Pedestrian", "id": "a_223" }, "geometry": { "type": "Point", "coordinates": [ 448688.170974276203196, 209408.791181462060194, 0.0 ] } },
{ "type": "Feature", "properties": { "AccessType": "Footpath", "Accessible_for": "Pedestrian", "id": "a_224" }, "geometry": { "type": "Point", "coordinates": [ 448735.940348271396942, 209428.390505558927543, 0.0 ] } },
{ "type": "Feature", "properties": { "AccessType": "Footpath", "Accessible_for": "Pedestrian", "id": "a_225" }, "geometry": { "type": "Point", "coordinates": [ 449058.696051083388738, 209471.917673132789787, 0.0 ] } },
{ "type": "Feature", "properties": { "AccessType": "Track", "Accessible_for": "Motor Vehicle And Pedestrian", "id": "a_226" }, "geometry": { "type": "Point", "coordinates": [ 449643.987200052302796, 209491.474256620451342, 0.0 ] } },
{ "type": "Feature", "properties": { "AccessType": "Footpath", "Accessible_for": "Pedestrian", "id": "a_227" }, "geometry": { "type": "Point", "coordinates": [ 449108.505444955197163, 209505.186688602843788, 0.0 ] } },
{ "type": "Feature", "properties": { "AccessType": "Footpath", "Accessible_for": "Pedestrian", "id": "a_228" }, "geometry": { "type": "Point", "coordinates": [ 448974.697315327473916, 209549.736608437262475, 0.0 ] } },
{ "type": "Feature", "properties": { "AccessType": "Track", "Accessible_for": "Motor Vehicle And Pedestrian", "id": "a_229" }, "geometry": { "type": "Point", "coordinates": [ 449491.670199868851341, 209574.413046480505727, 0.0 ] } },
{ "type": "Feature", "properties": { "AccessType": "Footpath", "Accessible_for": "Pedestrian", "id": "a_230" }, "geometry": { "type": "Point", "coordinates": [ 449552.559224167198408, 209626.881747420004103, 0.0 ] } },
{ "type": "Feature", "properties": { "AccessType": "Footpath", "Accessible_for": "Pedestrian", "id": "a_231" }, "geometry": { "type": "Point", "coordinates": [ 448873.348866160551552, 209684.454532630916219, 0.0 ] } },
{ "type": "Feature", "properties": { "AccessType": "Footpath", "Accessible_for": "Pedestrian", "id": "a_232" }, "geometry": { "type": "Point", "coordinates": [ 449536.249773518706206, 209718.289930238621309, 0.0 ] } },
{ "type": "Feature", "properties": { "AccessType": "Track", "Accessible_for": "Motor Vehicle And Pedestrian", "id": "a_233" }, "geometry": { "type": "Point", "coordinates": [ 449156.47529794590082, 209732.231791933067143, 0.0 ] } },
{ "type": "Feature", "properties": { "AccessType": "Footpath", "Accessible_for": "Pedestrian", "id": "a_234" }, "geometry": { "type": "Point", "coordinates": [ 449684.827376894769259, 209818.027581627480686, 0.0 ] } },
{ "type": "Feature", "properties": { "AccessType": "Footpath", "Accessible_for": "Pedestrian", "id": "a_235" }, "geometry": { "type": "Point", "coordinates": [ 449656.787902200478129, 209820.537627848156262, 0.0 ] } },
{ "type": "Feature", "properties": { "AccessType": "Footpath", "Accessible_for": "Pedestrian", "id": "a_236" }, "geometry": { "type": "Point", "coordinates": [ 449705.967053656931967, 209839.13711618859088, 0.0 ] } },
{ "type": "Feature", "properties": { "AccessType": "Footpath", "Accessible_for": "Pedestrian", "id": "a_237" }, "geometry": { "type": "Point", "coordinates": [ 449665.887812213681173, 209844.687146151904017, 0.0 ] } },
{ "type": "Feature", "properties": { "AccessType": "Footpath", "Accessible_for": "Pedestrian", "id": "a_238" }, "geometry": { "type": "Point", "coordinates": [ 449440.332342588342726, 209944.096058668626938, 0.0 ] } },
{ "type": "Feature", "properties": { "AccessType": "Footpath", "Accessible_for": "Pedestrian", "id": "a_239" }, "geometry": { "type": "Point", "coordinates": [ 448771.640713624132331, 209988.649492574622855, 0.0 ] } },
{ "type": "Feature", "properties": { "AccessType": "Footpath", "Accessible_for": "Pedestrian", "id": "a_240" }, "geometry": { "type": "Point", "coordinates": [ 448757.340902371797711, 209997.529418514866848, 0.0 ] } },
{ "type": "Feature", "properties": { "AccessType": "Footpath", "Accessible_for": "Pedestrian", "id": "a_241" }, "geometry": { "type": "Point", "coordinates": [ 450025.742629772983491, 210410.49521500710398, 0.0 ] } },
{ "type": "Feature", "properties": { "AccessType": "Track", "Accessible_for": "Motor Vehicle And Pedestrian", "id": "a_242" }, "geometry": { "type": "Point", "coordinates": [ 450027.29260144138243, 210411.195195920299739, 0.0 ] } },
{ "type": "Feature", "properties": { "AccessType": "Footpath", "Accessible_for": "Pedestrian", "id": "a_243" }, "geometry": { "type": "Point", "coordinates": [ 450083.841567101830151, 210437.45448477746686, 0.0 ] } },
{ "type": "Feature", "properties": { "AccessType": "Footpath", "Accessible_for": "Pedestrian", "id": "a_244" }, "geometry": { "type": "Point", "coordinates": [ 450114.730999672960024, 210451.664097993576434, 0.0 ] } },
{ "type": "Feature", "properties": { "AccessType": "Track", "Accessible_for": "Motor Vehicle And Pedestrian", "id": "a_245" }, "geometry": { "type": "Point", "coordinates": [ 450121.000885152374394, 210454.894012828241102, 0.0 ] } },
{ "type": "Feature", "properties": { "AccessType": "Footpath", "Accessible_for": "Pedestrian", "id": "a_246" }, "geometry": { "type": "Point", "coordinates": [ 450073.171988179150503, 210522.792902792745735, 0.0 ] } },
{ "type": "Feature", "properties": { "AccessType": "Footpath", "Accessible_for": "Pedestrian", "id": "a_247" }, "geometry": { "type": "Point", "coordinates": [ 450059.42232241819147, 210548.312470562756062, 0.0 ] } },
{ "type": "Feature", "properties": { "AccessType": "Track", "Accessible_for": "Motor Vehicle And Pedestrian", "id": "a_248" }, "geometry": { "type": "Point", "coordinates": [ 450304.547506277565844, 210551.271471879503224, 0.0 ] } },
{ "type": "Feature", "properties": { "AccessType": "Track", "Accessible_for": "Motor Vehicle And Pedestrian", "id": "a_249" }, "geometry": { "type": "Point", "coordinates": [ 450315.577492447278928, 210648.969544967112597, 0.0 ] } },
{ "type": "Feature", "properties": { "AccessType": "Track", "Accessible_for": "Motor Vehicle And Pedestrian", "id": "a_250" }, "geometry": { "type": "Point", "coordinates": [ 450102.011816245154478, 210707.329223722626921, 0.0 ] } },
{ "type": "Feature", "properties": { "AccessType": "Footpath", "Accessible_for": "Pedestrian", "id": "a_251" }, "geometry": { "type": "Point", "coordinates": [ 450009.273674491269048, 210730.39913544524461, 0.0 ] } },
{ "type": "Feature", "properties": { "AccessType": "Footpath", "Accessible_for": "Pedestrian", "id": "a_252" }, "geometry": { "type": "Point", "coordinates": [ 447497.02187140379101, 208857.270594984875061, 0.0 ] } },
{ "type": "Feature", "properties": { "AccessType": "Footpath", "Accessible_for": "Pedestrian", "id": "a_253" }, "geometry": { "type": "Point", "coordinates": [ 447513.881735782022588, 208787.361805430671666, 0.0 ] } },
{ "type": "Feature", "properties": { "AccessType": "Footpath", "Accessible_for": "Pedestrian", "id": "a_254" }, "geometry": { "type": "Point", "coordinates": [ 447565.070486439974047, 205693.649168268369976, 0.0 ] } },
{ "type": "Feature", "properties": { "AccessType": "Footpath", "Accessible_for": "Pedestrian", "id": "a_255" }, "geometry": { "type": "Point", "coordinates": [ 447572.230492298316676, 206176.830069319636095, 0.0 ] } },
{ "type": "Feature", "properties": { "AccessType": "Footpath", "Accessible_for": "Pedestrian", "id": "a_256" }, "geometry": { "type": "Point", "coordinates": [ 447584.270271417219192, 205679.199301271350123, 0.0 ] } },
{ "type": "Feature", "properties": { "AccessType": "Footpath", "Accessible_for": "Pedestrian", "id": "a_257" }, "geometry": { "type": "Point", "coordinates": [ 447585.700355885317549, 206176.819962634646799, 0.0 ] } },
{ "type": "Feature", "properties": { "AccessType": "Footpath", "Accessible_for": "Pedestrian", "id": "a_258" }, "geometry": { "type": "Point", "coordinates": [ 447979.766363419534173, 206078.058616856462322, 0.0 ] } },
{ "type": "Feature", "properties": { "AccessType": "Footpath", "Accessible_for": "Pedestrian", "id": "a_259" }, "geometry": { "type": "Point", "coordinates": [ 448099.445162491756491, 206252.504527734126896, 0.0 ] } },
{ "type": "Feature", "properties": { "AccessType": "Footpath", "Accessible_for": "Pedestrian", "id": "a_260" }, "geometry": { "type": "Point", "coordinates": [ 448103.395120465895161, 206237.184772078471724, 0.0 ] } },
{ "type": "Feature", "properties": { "AccessType": "Track", "Accessible_for": "Motor Vehicle And Pedestrian", "id": "a_261" }, "geometry": { "type": "Point", "coordinates": [ 448117.564963873301167, 206154.6961435599369, 0.0 ] } },
{ "type": "Feature", "properties": { "AccessType": "Footpath", "Accessible_for": "Pedestrian", "id": "a_262" }, "geometry": { "type": "Point", "coordinates": [ 448193.894219293899368, 206273.613401617098134, 0.0 ] } },
{ "type": "Feature", "properties": { "AccessType": "Footpath", "Accessible_for": "Pedestrian", "id": "a_263" }, "geometry": { "type": "Point", "coordinates": [ 448205.554111053585075, 206304.842748396738898, 0.0 ] } },
{ "type": "Feature", "properties": { "AccessType": "Track", "Accessible_for": "Motor Vehicle And Pedestrian", "id": "a_264" }, "geometry": { "type": "Point", "coordinates": [ 448903.822469727892894, 206147.592822017555591, 0.0 ] } },
{ "type": "Feature", "properties": { "AccessType": "Track", "Accessible_for": "Motor Vehicle And Pedestrian", "id": "a_265" }, "geometry": { "type": "Point", "coordinates": [ 448960.950677255634218, 205680.311702090257313, 0.0 ] } },
{ "type": "Feature", "properties": { "AccessType": "Footpath", "Accessible_for": "Pedestrian", "id": "a_266" }, "geometry": { "type": "Point", "coordinates": [ 448969.181187132839113, 206079.713902779330965, 0.0 ] } },
{ "type": "Feature", "properties": { "AccessType": "Footpath", "Accessible_for": "Pedestrian", "id": "a_267" }, "geometry": { "type": "Point", "coordinates": [ 448986.111010776425246, 206152.382469853735529, 0.0 ] } },
{ "type": "Feature", "properties": { "AccessType": "Footpath", "Accessible_for": "Pedestrian", "id": "a_268" }, "geometry": { "type": "Point", "coordinates": [ 449102.818472294893581, 205910.936754340888001, 0.0 ] } },
{ "type": "Feature", "properties": { "AccessType": "Track", "Accessible_for": "Motor Vehicle And Pedestrian", "id": "a_269" }, "geometry": { "type": "Point", "coordinates": [ 449521.911830608267337, 206315.547502883593552, 0.0 ] } },
{ "type": "Feature", "properties": { "AccessType": "Track", "Accessible_for": "Motor Vehicle And Pedestrian", "id": "a_270" }, "geometry": { "type": "Point", "coordinates": [ 449562.721996467851568, 206667.850373065622989, 0.0 ] } },
{ "type": "Feature", "properties": { "AccessType": "Footpath", "Accessible_for": "Pedestrian", "id": "a_271" }, "geometry": { "type": "Point", "coordinates": [ 449578.120056749379728, 206059.162359651352745, 0.0 ] } },
{ "type": "Feature", "properties": { "AccessType": "Footpath", "Accessible_for": "Pedestrian", "id": "a_272" }, "geometry": { "type": "Point", "coordinates": [ 449650.948759463150054, 206093.771391147165559, 0.0 ] } },
{ "type": "Feature", "properties": { "AccessType": "Footpath", "Accessible_for": "Pedestrian", "id": "a_273" }, "geometry": { "type": "Point", "coordinates": [ 449656.12871197523782, 206113.200986817595549, 0.0 ] } },
{ "type": "Feature", "properties": { "AccessType": "Footpath", "Accessible_for": "Pedestrian", "id": "a_274" }, "geometry": { "type": "Point", "coordinates": [ 449700.237635966041125, 206024.122575633926317, 0.0 ] } },
{ "type": "Feature", "properties": { "AccessType": "Footpath", "Accessible_for": "Pedestrian", "id": "a_275" }, "geometry": { "type": "Point", "coordinates": [ 449703.207204954698682, 205848.835915550473146, 0.0 ] } },
{ "type": "Feature", "properties": { "AccessType": "Footpath", "Accessible_for": "Pedestrian", "id": "a_276" }, "geometry": { "type": "Point", "coordinates": [ 449718.077306581428275, 206028.112427082436625, 0.0 ] } },
{ "type": "Feature", "properties": { "AccessType": "Footpath", "Accessible_for": "Pedestrian", "id": "a_277" }, "geometry": { "type": "Point", "coordinates": [ 449740.52685329556698, 206018.212534943595529, 0.0 ] } },
{ "type": "Feature", "properties": { "AccessType": "Footpath", "Accessible_for": "Pedestrian", "id": "a_278" }, "geometry": { "type": "Point", "coordinates": [ 449769.226418147678487, 206061.521567486575805, 0.0 ] } },
{ "type": "Feature", "properties": { "AccessType": "Footpath", "Accessible_for": "Pedestrian", "id": "a_279" }, "geometry": { "type": "Point", "coordinates": [ 449825.725331532768905, 206057.901418650697451, 0.0 ] } },
{ "type": "Feature", "properties": { "AccessType": "Track", "Accessible_for": "Motor Vehicle And Pedestrian", "id": "a_280" }, "geometry": { "type": "Point", "coordinates": [ 449972.623264784167986, 206360.434883762733079, 0.0 ] } },
{ "type": "Feature", "properties": { "AccessType": "Track", "Accessible_for": "Motor Vehicle And Pedestrian", "id": "a_281" }, "geometry": { "type": "Point", "coordinates": [ 450028.851395873411093, 206031.531146311201155, 0.0 ] } },
{ "type": "Feature", "properties": { "AccessType": "Footpath", "Accessible_for": "Pedestrian", "id": "a_282" }, "geometry": { "type": "Point", "coordinates": [ 450032.611347848665901, 206041.400937257509213, 0.0 ] } },
{ "type": "Feature", "properties": { "AccessType": "Footpath", "Accessible_for": "Pedestrian", "id": "a_283" }, "geometry": { "type": "Point", "coordinates": [ 447476.362098573648836, 208573.64615835720906, 0.0 ] } },
{ "type": "Feature", "properties": { "AccessType": "Footpath", "Accessible_for": "Pedestrian", "id": "a_284" }, "geometry": { "type": "Point", "coordinates": [ 452515.1425182815874, 205495.172378830029629, 0.0 ] } },
{ "type": "Feature", "properties": { "AccessType": "Footpath", "Accessible_for": "Pedestrian", "id": "a_285" }, "geometry": { "type": "Point", "coordinates": [ 452515.142518429609481, 205495.22237783158198, 0.0 ] } },
{ "type": "Feature", "properties": { "AccessType": "Track", "Accessible_for": "Motor Vehicle And Pedestrian", "id": "a_286" }, "geometry": { "type": "Point", "coordinates": [ 452519.141016427252907, 204644.978642196569126, 0.0 ] } },
{ "type": "Feature", "properties": { "AccessType": "Footpath", "Accessible_for": "Pedestrian", "id": "a_287" }, "geometry": { "type": "Point", "coordinates": [ 452533.611655489949044, 205319.665809566678945, 0.0 ] } },
{ "type": "Feature", "properties": { "AccessType": "Footpath", "Accessible_for": "Pedestrian", "id": "a_288" }, "geometry": { "type": "Point", "coordinates": [ 452557.601200069009792, 205316.195780513051432, 0.0 ] } },
{ "type": "Feature", "properties": { "AccessType": "Track", "Accessible_for": "Motor Vehicle And Pedestrian", "id": "a_289" }, "geometry": { "type": "Point", "coordinates": [ 452570.840891230734996, 205294.626155904843472, 0.0 ] } },
{ "type": "Feature", "properties": { "AccessType": "Track", "Accessible_for": "Motor Vehicle And Pedestrian", "id": "a_290" }, "geometry": { "type": "Point", "coordinates": [ 452587.100511443684809, 205267.786623039923143, 0.0 ] } },
{ "type": "Feature", "properties": { "AccessType": "Track", "Accessible_for": "Motor Vehicle And Pedestrian", "id": "a_291" }, "geometry": { "type": "Point", "coordinates": [ 452598.651147535187192, 205560.29075804783497, 0.0 ] } },
{ "type": "Feature", "properties": { "AccessType": "Track", "Accessible_for": "Motor Vehicle And Pedestrian", "id": "a_292" }, "geometry": { "type": "Point", "coordinates": [ 452798.615656561043579, 204354.682933664997108, 0.0 ] } },
{ "type": "Feature", "properties": { "AccessType": "Footpath", "Accessible_for": "Pedestrian", "id": "a_293" }, "geometry": { "type": "Point", "coordinates": [ 453018.663382684637327, 205613.308222153049428, 0.0 ] } },
{ "type": "Feature", "properties": { "AccessType": "Footpath", "Accessible_for": "Pedestrian", "id": "a_294" }, "geometry": { "type": "Point", "coordinates": [ 453068.412423385831062, 205611.698120022309013, 0.0 ] } },
{ "type": "Feature", "properties": { "AccessType": "Footpath", "Accessible_for": "Pedestrian", "id": "a_295" }, "geometry": { "type": "Point", "coordinates": [ 453078.932204389944673, 205605.418214203033131, 0.0 ] } },
{ "type": "Feature", "properties": { "AccessType": "Footpath", "Accessible_for": "Pedestrian", "id": "a_296" }, "geometry": { "type": "Point", "coordinates": [ 453079.131771156273317, 205447.441292973875534, 0.0 ] } },
{ "type": "Feature", "properties": { "AccessType": "Footpath", "Accessible_for": "Pedestrian", "id": "a_297" }, "geometry": { "type": "Point", "coordinates": [ 452065.729267926129978, 204302.706641108845361, 0.0 ] } },
{ "type": "Feature", "properties": { "AccessType": "Footpath", "Accessible_for": "Pedestrian", "id": "a_298" }, "geometry": { "type": "Point", "coordinates": [ 451519.729662562895101, 204314.478376864630263, 0.0 ] } },
{ "type": "Feature", "properties": { "AccessType": "Footpath", "Accessible_for": "Pedestrian", "id": "a_299" }, "geometry": { "type": "Point", "coordinates": [ 452264.405578154197428, 204321.855547919054516, 0.0 ] } },
{ "type": "Feature", "properties": { "AccessType": "Footpath", "Accessible_for": "Pedestrian", "id": "a_300" }, "geometry": { "type": "Point", "coordinates": [ 452391.33323761302745, 204363.994299587036949, 0.0 ] } },
{ "type": "Feature", "properties": { "AccessType": "Footpath", "Accessible_for": "Pedestrian", "id": "a_301" }, "geometry": { "type": "Point", "coordinates": [ 452401.473051205917727, 204368.194184259162284, 0.0 ] } },
{ "type": "Feature", "properties": { "AccessType": "Track", "Accessible_for": "Motor Vehicle And Pedestrian", "id": "a_302" }, "geometry": { "type": "Point", "coordinates": [ 451501.400044442038052, 204415.326608099858277, 0.0 ] } },
{ "type": "Feature", "properties": { "AccessType": "Track", "Accessible_for": "Motor Vehicle And Pedestrian", "id": "a_303" }, "geometry": { "type": "Point", "coordinates": [ 451805.294162799080368, 204434.855259619187564, 0.0 ] } },
{ "type": "Feature", "properties": { "AccessType": "Track", "Accessible_for": "Motor Vehicle And Pedestrian", "id": "a_304" }, "geometry": { "type": "Point", "coordinates": [ 451716.275947813992389, 204668.611373549560085, 0.0 ] } },
{ "type": "Feature", "properties": { "AccessType": "Footpath", "Accessible_for": "Pedestrian", "id": "a_305" }, "geometry": { "type": "Point", "coordinates": [ 452148.557908661663532, 204712.098910382424947, 0.0 ] } },
{ "type": "Feature", "properties": { "AccessType": "Footpath", "Accessible_for": "Pedestrian", "id": "a_306" }, "geometry": { "type": "Point", "coordinates": [ 451381.642440449795686, 204738.561088792863302, 0.0 ] } },
{ "type": "Feature", "properties": { "AccessType": "Track", "Accessible_for": "Motor Vehicle And Pedestrian", "id": "a_307" }, "geometry": { "type": "Point", "coordinates": [ 451394.402196800336242, 204752.920789654890541, 0.0 ] } },
{ "type": "Feature", "properties": { "AccessType": "Track", "Accessible_for": "Motor Vehicle And Pedestrian", "id": "a_308" }, "geometry": { "type": "Point", "coordinates": [ 451407.211951486591715, 204763.610557748761494, 0.0 ] } },
{ "type": "Feature", "properties": { "AccessType": "Footpath", "Accessible_for": "Pedestrian", "id": "a_309" }, "geometry": { "type": "Point", "coordinates": [ 451438.471353306667879, 204790.20998376555508, 0.0 ] } },
{ "type": "Feature", "properties": { "AccessType": "Footpath", "Accessible_for": "Pedestrian", "id": "a_310" }, "geometry": { "type": "Point", "coordinates": [ 451418.521754239569418, 204859.778771753422916, 0.0 ] } },
{ "type": "Feature", "properties": { "AccessType": "Footpath", "Accessible_for": "Pedestrian", "id": "a_311" }, "geometry": { "type": "Point", "coordinates": [ 451245.645103508257307, 204931.997917716216762, 0.0 ] } },
{ "type": "Feature", "properties": { "AccessType": "Footpath", "Accessible_for": "Pedestrian", "id": "a_312" }, "geometry": { "type": "Point", "coordinates": [ 451545.859315800713375, 204934.757064091856591, 0.0 ] } },
{ "type": "Feature", "properties": { "AccessType": "Footpath", "Accessible_for": "Pedestrian", "id": "a_313" }, "geometry": { "type": "Point", "coordinates": [ 451339.983285839727614, 204938.477546492184047, 0.0 ] } },
{ "type": "Feature", "properties": { "AccessType": "Track", "Accessible_for": "Motor Vehicle And Pedestrian", "id": "a_314" }, "geometry": { "type": "Point", "coordinates": [ 451563.86897556198528, 204961.206537942809518, 0.0 ] } },
{ "type": "Feature", "properties": { "AccessType": "Footpath", "Accessible_for": "Pedestrian", "id": "a_315" }, "geometry": { "type": "Point", "coordinates": [ 452483.771885451860726, 205039.511527035268955, 0.0 ] } },
{ "type": "Feature", "properties": { "AccessType": "Footpath", "Accessible_for": "Pedestrian", "id": "a_316" }, "geometry": { "type": "Point", "coordinates": [ 452483.751885879726615, 205039.621525097812992, 0.0 ] } },
{ "type": "Feature", "properties": { "AccessType": "Footpath", "Accessible_for": "Pedestrian", "id": "a_317" }, "geometry": { "type": "Point", "coordinates": [ 452411.903216910839546, 205056.691521656524856, 0.0 ] } },
{ "type": "Feature", "properties": { "AccessType": "Footpath", "Accessible_for": "Pedestrian", "id": "a_318" }, "geometry": { "type": "Point", "coordinates": [ 452465.952228125126567, 205067.041097708221059, 0.0 ] } },
{ "type": "Feature", "properties": { "AccessType": "Footpath", "Accessible_for": "Pedestrian", "id": "a_319" }, "geometry": { "type": "Point", "coordinates": [ 450967.610476642672438, 205069.146092741342727, 0.0 ] } },
{ "type": "Feature", "properties": { "AccessType": "Footpath", "Accessible_for": "Pedestrian", "id": "a_320" }, "geometry": { "type": "Point", "coordinates": [ 452479.421984198444989, 205074.140908782312181, 0.0 ] } },
{ "type": "Feature", "properties": { "AccessType": "Track", "Accessible_for": "Motor Vehicle And Pedestrian", "id": "a_321" }, "geometry": { "type": "Point", "coordinates": [ 451540.139507911808323, 205100.464052282448392, 0.0 ] } },
{ "type": "Feature", "properties": { "AccessType": "Footpath", "Accessible_for": "Pedestrian", "id": "a_322" }, "geometry": { "type": "Point", "coordinates": [ 451915.272427733696532, 205109.812671499559656, 0.0 ] } },
{ "type": "Feature", "properties": { "AccessType": "Track", "Accessible_for": "Motor Vehicle And Pedestrian", "id": "a_323" }, "geometry": { "type": "Point", "coordinates": [ 451102.678121841337997, 205157.25403822620865, 0.0 ] } },
{ "type": "Feature", "properties": { "AccessType": "Footpath", "Accessible_for": "Pedestrian", "id": "a_324" }, "geometry": { "type": "Point", "coordinates": [ 451497.280651537526865, 205194.322254973114468, 0.0 ] } },
{ "type": "Feature", "properties": { "AccessType": "Track", "Accessible_for": "Motor Vehicle And Pedestrian", "id": "a_325" }, "geometry": { "type": "Point", "coordinates": [ 451554.039562703110278, 205195.252084822335746, 0.0 ] } },
{ "type": "Feature", "properties": { "AccessType": "Footpath", "Accessible_for": "Pedestrian", "id": "a_326" }, "geometry": { "type": "Point", "coordinates": [ 451917.652678275713697, 205197.05086098134052, 0.0 ] } },
{ "type": "Feature", "properties": { "AccessType": "Footpath", "Accessible_for": "Pedestrian", "id": "a_327" }, "geometry": { "type": "Point", "coordinates": [ 451207.746278575621545, 205211.38269113068236, 0.0 ] } },
{ "type": "Feature", "properties": { "AccessType": "Footpath", "Accessible_for": "Pedestrian", "id": "a_328" }, "geometry": { "type": "Point", "coordinates": [ 450951.695453357126098, 203897.813749751367141, 0.0 ] } },
{ "type": "Feature", "properties": { "AccessType": "Footpath", "Accessible_for": "Pedestrian", "id": "a_329" }, "geometry": { "type": "Point", "coordinates": [ 451833.185346312180627, 204069.110079961363226, 0.0 ] } },
{ "type": "Feature", "properties": { "AccessType": "Footpath", "Accessible_for": "Pedestrian", "id": "a_330" }, "geometry": { "type": "Point", "coordinates": [ 451845.0954340971075, 204052.760050757380668, 0.0 ] } },
{ "type": "Feature", "properties": { "AccessType": "Footpath", "Accessible_for": "Pedestrian", "id": "a_331" }, "geometry": { "type": "Point", "coordinates": [ 451874.185535050812177, 204018.729974967660382, 0.0 ] } },
{ "type": "Feature", "properties": { "AccessType": "Footpath", "Accessible_for": "Pedestrian", "id": "a_332" }, "geometry": { "type": "Point", "coordinates": [ 451894.004245224525221, 204067.569853335153311, 0.0 ] } },
{ "type": "Feature", "properties": { "AccessType": "Footpath", "Accessible_for": "Pedestrian", "id": "a_333" }, "geometry": { "type": "Point", "coordinates": [ 447461.083027751476038, 204268.794690891401842, 0.0 ] } },
{ "type": "Feature", "properties": { "AccessType": "Footpath", "Accessible_for": "Pedestrian", "id": "a_334" }, "geometry": { "type": "Point", "coordinates": [ 447482.212710348365363, 204279.624407200899441, 0.0 ] } },
{ "type": "Feature", "properties": { "AccessType": "Footpath", "Accessible_for": "Pedestrian", "id": "a_335" }, "geometry": { "type": "Point", "coordinates": [ 447540.220727327337954, 205651.04016871645581, 0.0 ] } },
{ "type": "Feature", "properties": { "AccessType": "Footpath", "Accessible_for": "Pedestrian", "id": "a_336" }, "geometry": { "type": "Point", "coordinates": [ 448385.490451903548092, 205182.693662086152472, 0.0 ] } },
{ "type": "Feature", "properties": { "AccessType": "Footpath", "Accessible_for": "Pedestrian", "id": "a_337" }, "geometry": { "type": "Point", "coordinates": [ 448385.520451351010706, 205182.693661968572997, 0.0 ] } },
{ "type": "Feature", "properties": { "AccessType": "Footpath", "Accessible_for": "Pedestrian", "id": "a_338" }, "geometry": { "type": "Point", "coordinates": [ 448404.120109275914729, 205182.7835891325376, 0.0 ] } },
{ "type": "Feature", "properties": { "AccessType": "Footpath", "Accessible_for": "Pedestrian", "id": "a_339" }, "geometry": { "type": "Point", "coordinates": [ 448429.679632718209177, 205178.543577298696619, 0.0 ] } },
{ "type": "Feature", "properties": { "AccessType": "Track", "Accessible_for": "Motor Vehicle And Pedestrian", "id": "a_340" }, "geometry": { "type": "Point", "coordinates": [ 448430.599637631967198, 205193.243276490538847, 0.0 ] } },
{ "type": "Feature", "properties": { "AccessType": "Footpath", "Accessible_for": "Pedestrian", "id": "a_341" }, "geometry": { "type": "Point", "coordinates": [ 448465.62899054173613, 205191.43317969533382, 0.0 ] } },
{ "type": "Feature", "properties": { "AccessType": "Footpath", "Accessible_for": "Pedestrian", "id": "a_342" }, "geometry": { "type": "Point", "coordinates": [ 448465.939094288332853, 205264.621701307594776, 0.0 ] } },
{ "type": "Feature", "properties": { "AccessType": "Footpath", "Accessible_for": "Pedestrian", "id": "a_343" }, "geometry": { "type": "Point", "coordinates": [ 448520.527959199331235, 205177.253255946794525, 0.0 ] } },
{ "type": "Feature", "properties": { "AccessType": "Footpath", "Accessible_for": "Pedestrian", "id": "a_344" }, "geometry": { "type": "Point", "coordinates": [ 448596.196432629250921, 205089.634722158487421, 0.0 ] } },
{ "type": "Feature", "properties": { "AccessType": "Footpath", "Accessible_for": "Pedestrian", "id": "a_345" }, "geometry": { "type": "Point", "coordinates": [ 448669.695005371526349, 205008.725934279500507, 0.0 ] } },
{ "type": "Feature", "properties": { "AccessType": "Footpath", "Accessible_for": "Pedestrian", "id": "a_346" }, "geometry": { "type": "Point", "coordinates": [ 448722.873898745630868, 204771.419934852398001, 0.0 ] } },
{ "type": "Feature", "properties": { "AccessType": "Track", "Accessible_for": "Motor Vehicle And Pedestrian", "id": "a_347" }, "geometry": { "type": "Point", "coordinates": [ 448947.30089204775868, 205659.162161678599659, 0.0 ] } },
{ "type": "Feature", "properties": { "AccessType": "Footpath", "Accessible_for": "Pedestrian", "id": "a_348" }, "geometry": { "type": "Point", "coordinates": [ 449228.365749837947078, 205653.801343703642488, 0.0 ] } },
{ "type": "Feature", "properties": { "AccessType": "Footpath", "Accessible_for": "Pedestrian", "id": "a_349" }, "geometry": { "type": "Point", "coordinates": [ 449231.73567994160112, 205648.911427045823075, 0.0 ] } },
{ "type": "Feature", "properties": { "AccessType": "Footpath", "Accessible_for": "Pedestrian", "id": "a_350" }, "geometry": { "type": "Point", "coordinates": [ 449511.77018315019086, 205464.043996113003232, 0.0 ] } },
{ "type": "Feature", "properties": { "AccessType": "Track", "Accessible_for": "Motor Vehicle And Pedestrian", "id": "a_351" }, "geometry": { "type": "Point", "coordinates": [ 449706.675752587150782, 205171.288773407053668, 0.0 ] } },
{ "type": "Feature", "properties": { "AccessType": "Track", "Accessible_for": "Motor Vehicle And Pedestrian", "id": "a_352" }, "geometry": { "type": "Point", "coordinates": [ 449904.501807273598388, 205177.877842338988557, 0.0 ] } },
{ "type": "Feature", "properties": { "AccessType": "Track", "Accessible_for": "Motor Vehicle And Pedestrian", "id": "a_353" }, "geometry": { "type": "Point", "coordinates": [ 449979.320138475217391, 205105.558907761704177, 0.0 ] } },
{ "type": "Feature", "properties": { "AccessType": "Track", "Accessible_for": "Motor Vehicle And Pedestrian", "id": "a_354" }, "geometry": { "type": "Point", "coordinates": [ 450024.868867101613432, 204343.432966637890786, 0.0 ] } },
{ "type": "Feature", "properties": { "AccessType": "Track", "Accessible_for": "Motor Vehicle And Pedestrian", "id": "a_355" }, "geometry": { "type": "Point", "coordinates": [ 450062.288110777561087, 204285.65391358738998, 0.0 ] } },
{ "type": "Feature", "properties": { "AccessType": "Track", "Accessible_for": "Motor Vehicle And Pedestrian", "id": "a_356" }, "geometry": { "type": "Point", "coordinates": [ 450121.366942930151708, 204257.434234306158032, 0.0 ] } },
{ "type": "Feature", "properties": { "AccessType": "Track", "Accessible_for": "Motor Vehicle And Pedestrian", "id": "a_357" }, "geometry": { "type": "Point", "coordinates": [ 450121.376942731731106, 204257.424234459816944, 0.0 ] } },
{ "type": "Feature", "properties": { "AccessType": "Track", "Accessible_for": "Motor Vehicle And Pedestrian", "id": "a_358" }, "geometry": { "type": "Point", "coordinates": [ 450176.51584000402363, 204180.755481204017997, 0.0 ] } },
{ "type": "Feature", "properties": { "AccessType": "Track", "Accessible_for": "Motor Vehicle And Pedestrian", "id": "a_359" }, "geometry": { "type": "Point", "coordinates": [ 450232.405160832451656, 204123.516017185116652, 0.0 ] } }
]
}
